id_tienda,sucursal,store_name,marca,producto,precio,contenido,busqueda,latitud,longitud,address,fecha_consulta
4449,La Comer Tlalpan,La Comer,canoil,aceite vegetal puro de canola,47.0,botella 946 ml,aceite,19.288687,-99.179181,"plazuela de la fama 1, la fama, 14410 tlalpan, mexico, ciudad de mexico",31/10/2023 18:41
9991,La Villa,Soriana,canoil,aceite vegetal puro de canola,47.9,botella 946 ml,aceite,19.465417,-99.125438,"calz de guadalupe 192, vallejo, gustavo a. madero, 07870 ciudad de méxico, cdmx",31/10/2023 18:41
9993,Paradox Santa Fe,Soriana,verde valle,arroz grano grueso,40.7,bolsa 1 kg,arroz,19.357303,-99.273539,"av sta fe 546, lomas de santa fe, contadero, cuajimalpa de morelos, 01219 ciudad de méxico, cdmx",31/10/2023 18:41
4449,La Comer Tlalpan,La Comer,verde valle,arroz grano grueso,44.0,bolsa 1 kg,arroz,19.288687,-99.179181,"plazuela de la fama 1, la fama, 14410 tlalpan, mexico, ciudad de mexico",31/10/2023 18:41
4449,La Comer Tlalpan,La Comer,schettino,arroz tipo morelos,32.0,1 kg,arroz,19.288687,-99.179181,"plazuela de la fama 1, la fama, 14410 tlalpan, mexico, ciudad de mexico",31/10/2023 18:41
4449,La Comer Tlalpan,La Comer,italriso,arroz integral,36.1,1 kg,arroz,19.288687,-99.179181,"plazuela de la fama 1, la fama, 14410 tlalpan, mexico, ciudad de mexico",31/10/2023 18:41
9991,La Villa,Soriana,verde valle,arroz grano grueso,40.7,bolsa 1 kg,arroz,19.465417,-99.125438,"calz de guadalupe 192, vallejo, gustavo a. madero, 07870 ciudad de méxico, cdmx",31/10/2023 18:41
9993,Paradox Santa Fe,Soriana,dolores,lomo de atún en agua premium,37.5,lata 140 g,atún,19.357303,-99.273539,"av sta fe 546, lomas de santa fe, contadero, cuajimalpa de morelos, 01219 ciudad de méxico, cdmx",31/10/2023 18:41
9993,Paradox Santa Fe,Soriana,dolores,atún en hojuelas en agua,21.5,lata 140 g,atún,19.357303,-99.273539,"av sta fe 546, lomas de santa fe, contadero, cuajimalpa de morelos, 01219 ciudad de méxico, cdmx",31/10/2023 18:41
9993,Paradox Santa Fe,Soriana,tuny,atún en hojuela agua clásico,21.5,lata 140 g,atún,19.357303,-99.273539,"av sta fe 546, lomas de santa fe, contadero, cuajimalpa de morelos, 01219 ciudad de méxico, cdmx",31/10/2023 18:41
9993,Paradox Santa Fe,Soriana,fresh label,atún en agua,11.0,lata 140 g,atún,19.357303,-99.273539,"av sta fe 546, lomas de santa fe, contadero, cuajimalpa de morelos, 01219 ciudad de méxico, cdmx",31/10/2023 18:41
4449,La Comer Tlalpan,La Comer,dolores,lomo de atún en agua premium,35.9,lata 140 g,atún,19.288687,-99.179181,"plazuela de la fama 1, la fama, 14410 tlalpan, mexico, ciudad de mexico",31/10/2023 18:41
4449,La Comer Tlalpan,La Comer,tuny,lomo atún aleta amarilla trozos en agua light,26.0,lata 140 g,atún,19.288687,-99.179181,"plazuela de la fama 1, la fama, 14410 tlalpan, mexico, ciudad de mexico",31/10/2023 18:41
9991,La Villa,Soriana,dolores,lomo de atún en agua premium,36.9,lata 140 g,atún,19.465417,-99.125438,"calz de guadalupe 192, vallejo, gustavo a. madero, 07870 ciudad de méxico, cdmx",31/10/2023 18:41
9991,La Villa,Soriana,dolores,atún en hojuelas en agua,21.5,lata 140 g,atún,19.465417,-99.125438,"calz de guadalupe 192, vallejo, gustavo a. madero, 07870 ciudad de méxico, cdmx",31/10/2023 18:41
9991,La Villa,Soriana,tuny,atún en hojuela agua clásico,21.5,lata 140 g,atún,19.465417,-99.125438,"calz de guadalupe 192, vallejo, gustavo a. madero, 07870 ciudad de méxico, cdmx",31/10/2023 18:41
9991,La Villa,Soriana,fresh label,atún en agua,11.0,lata 140 g,atún,19.465417,-99.125438,"calz de guadalupe 192, vallejo, gustavo a. madero, 07870 ciudad de méxico, cdmx",31/10/2023 18:41
9993,Paradox Santa Fe,Soriana,zulka,azúcar morena,94.9,bolsa 2 kg,azúcar,19.357303,-99.273539,"av sta fe 546, lomas de santa fe, contadero, cuajimalpa de morelos, 01219 ciudad de méxico, cdmx",31/10/2023 18:41
9993,Paradox Santa Fe,Soriana,soriana,azúcar refinada,78.9,bolsa 2 kg,azúcar,19.357303,-99.273539,"av sta fe 546, lomas de santa fe, contadero, cuajimalpa de morelos, 01219 ciudad de méxico, cdmx",31/10/2023 18:41
9991,La Villa,Soriana,zulka,azúcar morena,94.9,bolsa 2 kg,azúcar,19.465417,-99.125438,"calz de guadalupe 192, vallejo, gustavo a. madero, 07870 ciudad de méxico, cdmx",31/10/2023 18:41
9993,Paradox Santa Fe,Soriana,cepimex,cepillo tipo plancha,39.9,1 pieza,cepillo+tipo+plancha,19.357303,-99.273539,"av sta fe 546, lomas de santa fe, contadero, cuajimalpa de morelos, 01219 ciudad de méxico, cdmx",31/10/2023 18:41
9993,Paradox Santa Fe,Soriana,precíssimo,cepillo tipo plancha mediano,29.9,1 pieza,cepillo+tipo+plancha,19.357303,-99.273539,"av sta fe 546, lomas de santa fe, contadero, cuajimalpa de morelos, 01219 ciudad de méxico, cdmx",31/10/2023 18:41
9993,Paradox Santa Fe,Soriana,reynera,cepillo tipo plancha para lavar,41.9,1 pieza,cepillo+tipo+plancha,19.357303,-99.273539,"av sta fe 546, lomas de santa fe, contadero, cuajimalpa de morelos, 01219 ciudad de méxico, cdmx",31/10/2023 18:41
9991,La Villa,Soriana,reynera,cepillo tipo plancha para lavar,41.9,1 pieza,cepillo+tipo+plancha,19.465417,-99.125438,"calz de guadalupe 192, vallejo, gustavo a. madero, 07870 ciudad de méxico, cdmx",31/10/2023 18:41
9991,La Villa,Soriana,precíssimo,cepillo tipo plancha mediano,29.9,1 pieza,cepillo+tipo+plancha,19.465417,-99.125438,"calz de guadalupe 192, vallejo, gustavo a. madero, 07870 ciudad de méxico, cdmx",31/10/2023 18:41
9991,La Villa,Soriana,cepimex,cepillo tipo plancha,26.3,1 pieza,cepillo+tipo+plancha,19.465417,-99.125438,"calz de guadalupe 192, vallejo, gustavo a. madero, 07870 ciudad de méxico, cdmx",31/10/2023 18:41
9993,Paradox Santa Fe,Soriana,colgate,cepillo dental 360° luminous white,79.9,blister 2 piezas,cepillos+dentales,19.357303,-99.273539,"av sta fe 546, lomas de santa fe, contadero, cuajimalpa de morelos, 01219 ciudad de méxico, cdmx",31/10/2023 18:41
9993,Paradox Santa Fe,Soriana,colgate,cepillo dental triple acción,26.9,blister 2 piezas,cepillos+dentales,19.357303,-99.273539,"av sta fe 546, lomas de santa fe, contadero, cuajimalpa de morelos, 01219 ciudad de méxico, cdmx",31/10/2023 18:41
9993,Paradox Santa Fe,Soriana,oral-b,cepillo dental 3d white,56.5,blister 2 piezas,cepillos+dentales,19.357303,-99.273539,"av sta fe 546, lomas de santa fe, contadero, cuajimalpa de morelos, 01219 ciudad de méxico, cdmx",31/10/2023 18:41
9993,Paradox Santa Fe,Soriana,colgate,cepillo dental pro cuidado cerdas suaves,31.9,blister 2 piezas,cepillos+dentales,19.357303,-99.273539,"av sta fe 546, lomas de santa fe, contadero, cuajimalpa de morelos, 01219 ciudad de méxico, cdmx",31/10/2023 18:41
9993,Paradox Santa Fe,Soriana,gum,cepillo dental paw patrol,57.9,blister 2 piezas,cepillos+dentales,19.357303,-99.273539,"av sta fe 546, lomas de santa fe, contadero, cuajimalpa de morelos, 01219 ciudad de méxico, cdmx",31/10/2023 18:41
9993,Paradox Santa Fe,Soriana,colgate,cepillo dental de bamboo,105.0,blister 2 piezas,cepillos+dentales,19.357303,-99.273539,"av sta fe 546, lomas de santa fe, contadero, cuajimalpa de morelos, 01219 ciudad de méxico, cdmx",31/10/2023 18:41
9993,Paradox Santa Fe,Soriana,oral-b,cepillo dental white radiant,154.0,blister 5 piezas,cepillos+dentales,19.357303,-99.273539,"av sta fe 546, lomas de santa fe, contadero, cuajimalpa de morelos, 01219 ciudad de méxico, cdmx",31/10/2023 18:41
9993,Paradox Santa Fe,Soriana,colgate,cepillo dental slimsoft black,84.5,pack 2 piezas,cepillos+dentales,19.357303,-99.273539,"av sta fe 546, lomas de santa fe, contadero, cuajimalpa de morelos, 01219 ciudad de méxico, cdmx",31/10/2023 18:41
9993,Paradox Santa Fe,Soriana,oral-b,cepillo dental sensitive encías detox extra suave,120.0,pack 3 piezas,cepillos+dentales,19.357303,-99.273539,"av sta fe 546, lomas de santa fe, contadero, cuajimalpa de morelos, 01219 ciudad de méxico, cdmx",31/10/2023 18:41
9993,Paradox Santa Fe,Soriana,oral-b,cepillo dental pro-salud 7,98.5,2 piezas,cepillos+dentales,19.357303,-99.273539,"av sta fe 546, lomas de santa fe, contadero, cuajimalpa de morelos, 01219 ciudad de méxico, cdmx",31/10/2023 18:41
9993,Paradox Santa Fe,Soriana,colgate,cepillo dental triple acción blancura,31.6,blister 2 piezas,cepillos+dentales,19.357303,-99.273539,"av sta fe 546, lomas de santa fe, contadero, cuajimalpa de morelos, 01219 ciudad de méxico, cdmx",31/10/2023 18:41
9993,Paradox Santa Fe,Soriana,oral-b,complete cepillo dental,69.5,3 piezas,cepillos+dentales,19.357303,-99.273539,"av sta fe 546, lomas de santa fe, contadero, cuajimalpa de morelos, 01219 ciudad de méxico, cdmx",31/10/2023 18:41
9993,Paradox Santa Fe,Soriana,gum,cepillo dental orthodontic suave,81.5,1 pieza,cepillos+dentales,19.357303,-99.273539,"av sta fe 546, lomas de santa fe, contadero, cuajimalpa de morelos, 01219 ciudad de méxico, cdmx",31/10/2023 18:41
9993,Paradox Santa Fe,Soriana,colgate,cepillo dental max white,45.9,blister 2 piezas,cepillos+dentales,19.357303,-99.273539,"av sta fe 546, lomas de santa fe, contadero, cuajimalpa de morelos, 01219 ciudad de méxico, cdmx",31/10/2023 18:41
9993,Paradox Santa Fe,Soriana,oral-b,cepillo dental pro plus m,41.5,blister 2 piezas,cepillos+dentales,19.357303,-99.273539,"av sta fe 546, lomas de santa fe, contadero, cuajimalpa de morelos, 01219 ciudad de méxico, cdmx",31/10/2023 18:41
9993,Paradox Santa Fe,Soriana,colgate,cepillo dental 360 geométrico,105.0,3 piezas,cepillos+dentales,19.357303,-99.273539,"av sta fe 546, lomas de santa fe, contadero, cuajimalpa de morelos, 01219 ciudad de méxico, cdmx",31/10/2023 18:41
9993,Paradox Santa Fe,Soriana,colgate,cepillo dental zig zag charcoal,53.5,3 piezas,cepillos+dentales,19.357303,-99.273539,"av sta fe 546, lomas de santa fe, contadero, cuajimalpa de morelos, 01219 ciudad de méxico, cdmx",31/10/2023 18:41
9993,Paradox Santa Fe,Soriana,cool shock,cepillo dental de viaje ,17.9,1 pieza,cepillos+dentales,19.357303,-99.273539,"av sta fe 546, lomas de santa fe, contadero, cuajimalpa de morelos, 01219 ciudad de méxico, cdmx",31/10/2023 18:41
9993,Paradox Santa Fe,Soriana,colgate,cepillo dental extra clean medio,43.5,blister 3 piezas,cepillos+dentales,19.357303,-99.273539,"av sta fe 546, lomas de santa fe, contadero, cuajimalpa de morelos, 01219 ciudad de méxico, cdmx",31/10/2023 18:41
9993,Paradox Santa Fe,Soriana,cool x shock,kit cepillo dental de viaje,44.9,pack 2 piezas,cepillos+dentales,19.357303,-99.273539,"av sta fe 546, lomas de santa fe, contadero, cuajimalpa de morelos, 01219 ciudad de méxico, cdmx",31/10/2023 18:41
9993,Paradox Santa Fe,Soriana,oral-b,cepillo dental sensitive black,52.5,2 piezas,cepillos+dentales,19.357303,-99.273539,"av sta fe 546, lomas de santa fe, contadero, cuajimalpa de morelos, 01219 ciudad de méxico, cdmx",31/10/2023 18:41
9993,Paradox Santa Fe,Soriana,pro,cepillo dental pro double duty profil 60 mediano,39.0,blister 1 pieza,cepillos+dentales,19.357303,-99.273539,"av sta fe 546, lomas de santa fe, contadero, cuajimalpa de morelos, 01219 ciudad de méxico, cdmx",31/10/2023 18:41
9993,Paradox Santa Fe,Soriana,cool x shock,estuche para cepillo dental,20.9,1 pieza,cepillos+dentales,19.357303,-99.273539,"av sta fe 546, lomas de santa fe, contadero, cuajimalpa de morelos, 01219 ciudad de méxico, cdmx",31/10/2023 18:41
9993,Paradox Santa Fe,Soriana,pro,cepillo dental plus suave,41.5,blister 2 piezas,cepillos+dentales,19.357303,-99.273539,"av sta fe 546, lomas de santa fe, contadero, cuajimalpa de morelos, 01219 ciudad de méxico, cdmx",31/10/2023 18:41
9993,Paradox Santa Fe,Soriana,cool x shock,kit cepillo dental y protector,52.9,4 piezas,cepillos+dentales,19.357303,-99.273539,"av sta fe 546, lomas de santa fe, contadero, cuajimalpa de morelos, 01219 ciudad de méxico, cdmx",31/10/2023 18:41
9993,Paradox Santa Fe,Soriana,oral-b,expert ultra suave cepillo dental,105.0,1 pieza,cepillos+dentales,19.357303,-99.273539,"av sta fe 546, lomas de santa fe, contadero, cuajimalpa de morelos, 01219 ciudad de méxico, cdmx",31/10/2023 18:41
9993,Paradox Santa Fe,Soriana,cool x shock,cepillo dental de viaje,39.9,2 piezas,cepillos+dentales,19.357303,-99.273539,"av sta fe 546, lomas de santa fe, contadero, cuajimalpa de morelos, 01219 ciudad de méxico, cdmx",31/10/2023 18:41
9993,Paradox Santa Fe,Soriana,dental kids,cepillo dental 2d lol surprise!,16.9,blister 1 pieza,cepillos+dentales,19.357303,-99.273539,"av sta fe 546, lomas de santa fe, contadero, cuajimalpa de morelos, 01219 ciudad de méxico, cdmx",31/10/2023 18:41
9993,Paradox Santa Fe,Soriana,colgate,cepillo dental triple acción,47.9,pack 4 piezas,cepillos+dentales,19.357303,-99.273539,"av sta fe 546, lomas de santa fe, contadero, cuajimalpa de morelos, 01219 ciudad de méxico, cdmx",31/10/2023 18:41
4449,La Comer Tlalpan,La Comer,colgate,cepillo dental 360° luminous white,62.4,blister 2 piezas,cepillos+dentales,19.288687,-99.179181,"plazuela de la fama 1, la fama, 14410 tlalpan, mexico, ciudad de mexico",31/10/2023 18:41
4449,La Comer Tlalpan,La Comer,colgate,cepillo dental triple acción,25.7,blister 2 piezas,cepillos+dentales,19.288687,-99.179181,"plazuela de la fama 1, la fama, 14410 tlalpan, mexico, ciudad de mexico",31/10/2023 18:41
4449,La Comer Tlalpan,La Comer,oral-b,cepillo dental 3d white,76.0,blister 2 piezas,cepillos+dentales,19.288687,-99.179181,"plazuela de la fama 1, la fama, 14410 tlalpan, mexico, ciudad de mexico",31/10/2023 18:41
4449,La Comer Tlalpan,La Comer,gum,cepillo dental paw patrol,58.5,blister 2 piezas,cepillos+dentales,19.288687,-99.179181,"plazuela de la fama 1, la fama, 14410 tlalpan, mexico, ciudad de mexico",31/10/2023 18:41
4449,La Comer Tlalpan,La Comer,colgate,cepillo dental de bamboo,140.0,blister 2 piezas,cepillos+dentales,19.288687,-99.179181,"plazuela de la fama 1, la fama, 14410 tlalpan, mexico, ciudad de mexico",31/10/2023 18:41
4449,La Comer Tlalpan,La Comer,colgate,cepillo dental slimsoft black,62.4,pack 2 piezas,cepillos+dentales,19.288687,-99.179181,"plazuela de la fama 1, la fama, 14410 tlalpan, mexico, ciudad de mexico",31/10/2023 18:41
4449,La Comer Tlalpan,La Comer,oral-b,cepillo dental sensitive encías detox extra suave,115.0,pack 3 piezas,cepillos+dentales,19.288687,-99.179181,"plazuela de la fama 1, la fama, 14410 tlalpan, mexico, ciudad de mexico",31/10/2023 18:41
4449,La Comer Tlalpan,La Comer,oral-b,cepillo dental pro-salud 7,95.0,2 piezas,cepillos+dentales,19.288687,-99.179181,"plazuela de la fama 1, la fama, 14410 tlalpan, mexico, ciudad de mexico",31/10/2023 18:41
4449,La Comer Tlalpan,La Comer,gum,protectores para cepillo dental,34.0,blister 4 piezas,cepillos+dentales,19.288687,-99.179181,"plazuela de la fama 1, la fama, 14410 tlalpan, mexico, ciudad de mexico",31/10/2023 18:41
4449,La Comer Tlalpan,La Comer,colgate,cepillo dental ultra soft,130.0,2 u,cepillos+dentales,19.288687,-99.179181,"plazuela de la fama 1, la fama, 14410 tlalpan, mexico, ciudad de mexico",31/10/2023 18:41
4449,La Comer Tlalpan,La Comer,oral-b,cepillo dental sensitive,50.0,2 piezas,cepillos+dentales,19.288687,-99.179181,"plazuela de la fama 1, la fama, 14410 tlalpan, mexico, ciudad de mexico",31/10/2023 18:41
4449,La Comer Tlalpan,La Comer,oral-b,complete cepillo dental,85.0,3 piezas,cepillos+dentales,19.288687,-99.179181,"plazuela de la fama 1, la fama, 14410 tlalpan, mexico, ciudad de mexico",31/10/2023 18:41
4449,La Comer Tlalpan,La Comer,gum,cepillo dental barbie,58.5,2 piezas,cepillos+dentales,19.288687,-99.179181,"plazuela de la fama 1, la fama, 14410 tlalpan, mexico, ciudad de mexico",31/10/2023 18:41
4449,La Comer Tlalpan,La Comer,gum,cepillo dental orthodontic suave,77.0,1 pieza,cepillos+dentales,19.288687,-99.179181,"plazuela de la fama 1, la fama, 14410 tlalpan, mexico, ciudad de mexico",31/10/2023 18:41
4449,La Comer Tlalpan,La Comer,colgate,cepillo dental max white,40.0,blister 2 piezas,cepillos+dentales,19.288687,-99.179181,"plazuela de la fama 1, la fama, 14410 tlalpan, mexico, ciudad de mexico",31/10/2023 18:41
4449,La Comer Tlalpan,La Comer,colgate,cepillo dental bamboo,87.5,blister 1 pieza,cepillos+dentales,19.288687,-99.179181,"plazuela de la fama 1, la fama, 14410 tlalpan, mexico, ciudad de mexico",31/10/2023 18:41
4449,La Comer Tlalpan,La Comer,oral-b,cepillo dental pro plus m,45.0,blister 2 piezas,cepillos+dentales,19.288687,-99.179181,"plazuela de la fama 1, la fama, 14410 tlalpan, mexico, ciudad de mexico",31/10/2023 18:41
4449,La Comer Tlalpan,La Comer,oral-b,pack cepillo dental,65.0,3 piezas,cepillos+dentales,19.288687,-99.179181,"plazuela de la fama 1, la fama, 14410 tlalpan, mexico, ciudad de mexico",31/10/2023 18:41
4449,La Comer Tlalpan,La Comer,oral-b,cepillo dental clásico,35.0,blister 1 pieza,cepillos+dentales,19.288687,-99.179181,"plazuela de la fama 1, la fama, 14410 tlalpan, mexico, ciudad de mexico",31/10/2023 18:41
4449,La Comer Tlalpan,La Comer,colgate,cepillo dental zig zag charcoal,67.0,3 piezas,cepillos+dentales,19.288687,-99.179181,"plazuela de la fama 1, la fama, 14410 tlalpan, mexico, ciudad de mexico",31/10/2023 18:41
4449,La Comer Tlalpan,La Comer,colgate,cepillo dental extra clean medio,61.5,blister 3 piezas,cepillos+dentales,19.288687,-99.179181,"plazuela de la fama 1, la fama, 14410 tlalpan, mexico, ciudad de mexico",31/10/2023 18:41
4449,La Comer Tlalpan,La Comer,pro,cepillo dental pro double duty profil 60 mediano,39.0,blister 1 pieza,cepillos+dentales,19.288687,-99.179181,"plazuela de la fama 1, la fama, 14410 tlalpan, mexico, ciudad de mexico",31/10/2023 18:41
4449,La Comer Tlalpan,La Comer,pro,cepillo dental plus suave,45.0,blister 2 piezas,cepillos+dentales,19.288687,-99.179181,"plazuela de la fama 1, la fama, 14410 tlalpan, mexico, ciudad de mexico",31/10/2023 18:41
4449,La Comer Tlalpan,La Comer,oral-b,cepillo dental complete 5 acciones,35.0,blister 1 pieza,cepillos+dentales,19.288687,-99.179181,"plazuela de la fama 1, la fama, 14410 tlalpan, mexico, ciudad de mexico",31/10/2023 18:41
4449,La Comer Tlalpan,La Comer,gum,cepillo dental ora-clean 360 m,22.0,blister 1 pieza,cepillos+dentales,19.288687,-99.179181,"plazuela de la fama 1, la fama, 14410 tlalpan, mexico, ciudad de mexico",31/10/2023 18:41
4449,La Comer Tlalpan,La Comer,bam boo! lifestyle,cepillo dental biodegradable,57.6,1 pieza,cepillos+dentales,19.288687,-99.179181,"plazuela de la fama 1, la fama, 14410 tlalpan, mexico, ciudad de mexico",31/10/2023 18:41
4449,La Comer Tlalpan,La Comer,looney tunes,cepillo dental,19.0,1 pieza,cepillos+dentales,19.288687,-99.179181,"plazuela de la fama 1, la fama, 14410 tlalpan, mexico, ciudad de mexico",31/10/2023 18:41
4449,La Comer Tlalpan,La Comer,colgate,cepillo dental ultra soft,73.8,blister 1 pieza,cepillos+dentales,19.288687,-99.179181,"plazuela de la fama 1, la fama, 14410 tlalpan, mexico, ciudad de mexico",31/10/2023 18:41
4449,La Comer Tlalpan,La Comer,gum,cepillo dental con luz paw patrol,93.5,1 pza,cepillos+dentales,19.288687,-99.179181,"plazuela de la fama 1, la fama, 14410 tlalpan, mexico, ciudad de mexico",31/10/2023 18:41
4449,La Comer Tlalpan,La Comer,bam boo! lifestyle,porta cepillo dental,84.5,1 pieza,cepillos+dentales,19.288687,-99.179181,"plazuela de la fama 1, la fama, 14410 tlalpan, mexico, ciudad de mexico",31/10/2023 18:41
4449,La Comer Tlalpan,La Comer,pro,cepillo dental múltiple acción,52.0,2 piezas,cepillos+dentales,19.288687,-99.179181,"plazuela de la fama 1, la fama, 14410 tlalpan, mexico, ciudad de mexico",31/10/2023 18:41
4449,La Comer Tlalpan,La Comer,gum,repuesto de cepillo dental suave,100.0,2 piezas,cepillos+dentales,19.288687,-99.179181,"plazuela de la fama 1, la fama, 14410 tlalpan, mexico, ciudad de mexico",31/10/2023 18:41
4449,La Comer Tlalpan,La Comer,oral-b,cepillo dental iconic ultra soft,259.0,3 piezas,cepillos+dentales,19.288687,-99.179181,"plazuela de la fama 1, la fama, 14410 tlalpan, mexico, ciudad de mexico",31/10/2023 18:41
4449,La Comer Tlalpan,La Comer,pro,cepillo dental doble acción mediano,35.0,blister 1 pieza,cepillos+dentales,19.288687,-99.179181,"plazuela de la fama 1, la fama, 14410 tlalpan, mexico, ciudad de mexico",31/10/2023 18:41
4449,La Comer Tlalpan,La Comer,oral-b,cepillo dental ultrafino pulidor,30.0,blister 3 piezas,cepillos+dentales,19.288687,-99.179181,"plazuela de la fama 1, la fama, 14410 tlalpan, mexico, ciudad de mexico",31/10/2023 18:41
4449,La Comer Tlalpan,La Comer,nenuco,cepillo dental y de encias,39.0,1 pieza,cepillos+dentales,19.288687,-99.179181,"plazuela de la fama 1, la fama, 14410 tlalpan, mexico, ciudad de mexico",31/10/2023 18:41
9991,La Villa,Soriana,colgate,cepillo dental 360° luminous white,79.9,blister 2 piezas,cepillos+dentales,19.465417,-99.125438,"calz de guadalupe 192, vallejo, gustavo a. madero, 07870 ciudad de méxico, cdmx",31/10/2023 18:41
9991,La Villa,Soriana,colgate,cepillo dental triple acción,25.9,blister 2 piezas,cepillos+dentales,19.465417,-99.125438,"calz de guadalupe 192, vallejo, gustavo a. madero, 07870 ciudad de méxico, cdmx",31/10/2023 18:41
9991,La Villa,Soriana,oral-b,cepillo dental 3d white,56.5,blister 2 piezas,cepillos+dentales,19.465417,-99.125438,"calz de guadalupe 192, vallejo, gustavo a. madero, 07870 ciudad de méxico, cdmx",31/10/2023 18:41
9991,La Villa,Soriana,colgate,cepillo dental pro cuidado cerdas suaves,32.5,blister 2 piezas,cepillos+dentales,19.465417,-99.125438,"calz de guadalupe 192, vallejo, gustavo a. madero, 07870 ciudad de méxico, cdmx",31/10/2023 18:41
9991,La Villa,Soriana,gum,cepillo dental paw patrol,60.5,blister 2 piezas,cepillos+dentales,19.465417,-99.125438,"calz de guadalupe 192, vallejo, gustavo a. madero, 07870 ciudad de méxico, cdmx",31/10/2023 18:41
9991,La Villa,Soriana,colgate,cepillo dental de bamboo,106.0,blister 2 piezas,cepillos+dentales,19.465417,-99.125438,"calz de guadalupe 192, vallejo, gustavo a. madero, 07870 ciudad de méxico, cdmx",31/10/2023 18:41
9991,La Villa,Soriana,oral-b,cepillo dental white radiant,153.0,blister 5 piezas,cepillos+dentales,19.465417,-99.125438,"calz de guadalupe 192, vallejo, gustavo a. madero, 07870 ciudad de méxico, cdmx",31/10/2023 18:41
9991,La Villa,Soriana,colgate,cepillo dental slimsoft black,69.9,pack 2 piezas,cepillos+dentales,19.465417,-99.125438,"calz de guadalupe 192, vallejo, gustavo a. madero, 07870 ciudad de méxico, cdmx",31/10/2023 18:41
9991,La Villa,Soriana,oral-b,cepillo dental sensitive encías detox extra suave,120.0,pack 3 piezas,cepillos+dentales,19.465417,-99.125438,"calz de guadalupe 192, vallejo, gustavo a. madero, 07870 ciudad de méxico, cdmx",31/10/2023 18:41
9991,La Villa,Soriana,oral-b,cepillo dental pro-salud 7,97.9,2 piezas,cepillos+dentales,19.465417,-99.125438,"calz de guadalupe 192, vallejo, gustavo a. madero, 07870 ciudad de méxico, cdmx",31/10/2023 18:41
9991,La Villa,Soriana,colgate,cepillo dental triple acción blancura,31.5,blister 2 piezas,cepillos+dentales,19.465417,-99.125438,"calz de guadalupe 192, vallejo, gustavo a. madero, 07870 ciudad de méxico, cdmx",31/10/2023 18:41
9991,La Villa,Soriana,oral-b,cepillo dental sensitive,46.5,2 piezas,cepillos+dentales,19.465417,-99.125438,"calz de guadalupe 192, vallejo, gustavo a. madero, 07870 ciudad de méxico, cdmx",31/10/2023 18:41
9991,La Villa,Soriana,oral-b,cepillo dental indicator black,48.5,2 piezas,cepillos+dentales,19.465417,-99.125438,"calz de guadalupe 192, vallejo, gustavo a. madero, 07870 ciudad de méxico, cdmx",31/10/2023 18:41
9991,La Villa,Soriana,oral-b,complete cepillo dental,68.5,3 piezas,cepillos+dentales,19.465417,-99.125438,"calz de guadalupe 192, vallejo, gustavo a. madero, 07870 ciudad de méxico, cdmx",31/10/2023 18:41
9991,La Villa,Soriana,gum,cepillo dental barbie,60.9,2 piezas,cepillos+dentales,19.465417,-99.125438,"calz de guadalupe 192, vallejo, gustavo a. madero, 07870 ciudad de méxico, cdmx",31/10/2023 18:41
9991,La Villa,Soriana,colgate,cepillo dental super flexi + capuchón,22.5,2 u,cepillos+dentales,19.465417,-99.125438,"calz de guadalupe 192, vallejo, gustavo a. madero, 07870 ciudad de méxico, cdmx",31/10/2023 18:41
9991,La Villa,Soriana,colgate,cepillo dental triple acción,47.9,pack 4 piezas,cepillos+dentales,19.465417,-99.125438,"calz de guadalupe 192, vallejo, gustavo a. madero, 07870 ciudad de méxico, cdmx",31/10/2023 18:41
9991,La Villa,Soriana,gum,cepillo dental orthodontic suave,80.5,1 pieza,cepillos+dentales,19.465417,-99.125438,"calz de guadalupe 192, vallejo, gustavo a. madero, 07870 ciudad de méxico, cdmx",31/10/2023 18:41
9991,La Villa,Soriana,oral-b,cepillo dental,77.5,3 pieza,cepillos+dentales,19.465417,-99.125438,"calz de guadalupe 192, vallejo, gustavo a. madero, 07870 ciudad de méxico, cdmx",31/10/2023 18:41
9991,La Villa,Soriana,colgate,cepillo dental max white,45.9,blister 2 piezas,cepillos+dentales,19.465417,-99.125438,"calz de guadalupe 192, vallejo, gustavo a. madero, 07870 ciudad de méxico, cdmx",31/10/2023 18:41
9991,La Villa,Soriana,oral-b,cepillo dental pro plus m,40.9,blister 2 piezas,cepillos+dentales,19.465417,-99.125438,"calz de guadalupe 192, vallejo, gustavo a. madero, 07870 ciudad de méxico, cdmx",31/10/2023 18:41
9991,La Villa,Soriana,oral-b,cepillo dental 123 cerdas medianas,32.5,blister 1 pieza,cepillos+dentales,19.465417,-99.125438,"calz de guadalupe 192, vallejo, gustavo a. madero, 07870 ciudad de méxico, cdmx",31/10/2023 18:41
9991,La Villa,Soriana,oral-b,pack cepillo dental,51.5,3 piezas,cepillos+dentales,19.465417,-99.125438,"calz de guadalupe 192, vallejo, gustavo a. madero, 07870 ciudad de méxico, cdmx",31/10/2023 18:41
9991,La Villa,Soriana,colgate,cepillo dental zig zag charcoal,52.5,3 piezas,cepillos+dentales,19.465417,-99.125438,"calz de guadalupe 192, vallejo, gustavo a. madero, 07870 ciudad de méxico, cdmx",31/10/2023 18:41
9991,La Villa,Soriana,cool shock,cepillo dental de viaje ,17.9,1 pieza,cepillos+dentales,19.465417,-99.125438,"calz de guadalupe 192, vallejo, gustavo a. madero, 07870 ciudad de méxico, cdmx",31/10/2023 18:41
9991,La Villa,Soriana,colgate,cepillo dental extra clean medio,61.5,blister 3 piezas,cepillos+dentales,19.465417,-99.125438,"calz de guadalupe 192, vallejo, gustavo a. madero, 07870 ciudad de méxico, cdmx",31/10/2023 18:41
9991,La Villa,Soriana,cool x shock,kit cepillo dental de viaje,44.9,pack 2 piezas,cepillos+dentales,19.465417,-99.125438,"calz de guadalupe 192, vallejo, gustavo a. madero, 07870 ciudad de méxico, cdmx",31/10/2023 18:41
9991,La Villa,Soriana,oral-b,cepillo dental sensitive black,53.9,2 piezas,cepillos+dentales,19.465417,-99.125438,"calz de guadalupe 192, vallejo, gustavo a. madero, 07870 ciudad de méxico, cdmx",31/10/2023 18:41
9991,La Villa,Soriana,pro,cepillo dental pro double duty profil 60 mediano,39.0,blister 1 pieza,cepillos+dentales,19.465417,-99.125438,"calz de guadalupe 192, vallejo, gustavo a. madero, 07870 ciudad de méxico, cdmx",31/10/2023 18:41
9991,La Villa,Soriana,pro,cepillo dental plus suave,40.9,blister 2 piezas,cepillos+dentales,19.465417,-99.125438,"calz de guadalupe 192, vallejo, gustavo a. madero, 07870 ciudad de méxico, cdmx",31/10/2023 18:41
9991,La Villa,Soriana,cool x shock,estuche para cepillo dental,20.9,1 pieza,cepillos+dentales,19.465417,-99.125438,"calz de guadalupe 192, vallejo, gustavo a. madero, 07870 ciudad de méxico, cdmx",31/10/2023 18:41
9991,La Villa,Soriana,oral-b,cepillo dental iconic ultra soft,104.0,1 pieza,cepillos+dentales,19.465417,-99.125438,"calz de guadalupe 192, vallejo, gustavo a. madero, 07870 ciudad de méxico, cdmx",31/10/2023 18:41
9991,La Villa,Soriana,colgate,cepillo dental twister pack,49.5,3 piezas,cepillos+dentales,19.465417,-99.125438,"calz de guadalupe 192, vallejo, gustavo a. madero, 07870 ciudad de méxico, cdmx",31/10/2023 18:41
9991,La Villa,Soriana,pro selection,cepillo dental + protector,10.5,blister 1 pieza,cepillos+dentales,19.465417,-99.125438,"calz de guadalupe 192, vallejo, gustavo a. madero, 07870 ciudad de méxico, cdmx",31/10/2023 18:41
9991,La Villa,Soriana,oral-b,cepillo dental doble acción,40.0,blister 2 piezas,cepillos+dentales,19.465417,-99.125438,"calz de guadalupe 192, vallejo, gustavo a. madero, 07870 ciudad de méxico, cdmx",31/10/2023 18:41
9991,La Villa,Soriana,cool x shock,kit cepillo dental y protector,52.9,4 piezas,cepillos+dentales,19.465417,-99.125438,"calz de guadalupe 192, vallejo, gustavo a. madero, 07870 ciudad de méxico, cdmx",31/10/2023 18:41
9991,La Villa,Soriana,gum,cepillo dental con luz paw patrol,90.0,1 pza,cepillos+dentales,19.465417,-99.125438,"calz de guadalupe 192, vallejo, gustavo a. madero, 07870 ciudad de méxico, cdmx",31/10/2023 18:41
9991,La Villa,Soriana,pro,cepillo dental múltiple acción,52.0,2 piezas,cepillos+dentales,19.465417,-99.125438,"calz de guadalupe 192, vallejo, gustavo a. madero, 07870 ciudad de méxico, cdmx",31/10/2023 18:41
9991,La Villa,Soriana,gum,repuesto de cepillo dental suave,98.9,2 piezas,cepillos+dentales,19.465417,-99.125438,"calz de guadalupe 192, vallejo, gustavo a. madero, 07870 ciudad de méxico, cdmx",31/10/2023 18:41
9991,La Villa,Soriana,colgate,cepillo dental triple acción,18.0,blister 1 pieza,cepillos+dentales,19.465417,-99.125438,"calz de guadalupe 192, vallejo, gustavo a. madero, 07870 ciudad de méxico, cdmx",31/10/2023 18:41
9991,La Villa,Soriana,pro selection,cepillo dental +salud 2x1,30.5,blister 2 piezas,cepillos+dentales,19.465417,-99.125438,"calz de guadalupe 192, vallejo, gustavo a. madero, 07870 ciudad de méxico, cdmx",31/10/2023 18:41
9991,La Villa,Soriana,oral-b,cepillo dental iconic ultra soft,215.0,3 piezas,cepillos+dentales,19.465417,-99.125438,"calz de guadalupe 192, vallejo, gustavo a. madero, 07870 ciudad de méxico, cdmx",31/10/2023 18:41
9991,La Villa,Soriana,pro selection,cepillo dental total white 2x1,41.8,blister 2 piezas,cepillos+dentales,19.465417,-99.125438,"calz de guadalupe 192, vallejo, gustavo a. madero, 07870 ciudad de méxico, cdmx",31/10/2023 18:41
9991,La Villa,Soriana,cool x shock,cepillo dental de viaje,39.9,2 piezas,cepillos+dentales,19.465417,-99.125438,"calz de guadalupe 192, vallejo, gustavo a. madero, 07870 ciudad de méxico, cdmx",31/10/2023 18:41
9991,La Villa,Soriana,dental kids,cepillo dental 2d lol surprise!,16.9,blister 1 pieza,cepillos+dentales,19.465417,-99.125438,"calz de guadalupe 192, vallejo, gustavo a. madero, 07870 ciudad de méxico, cdmx",31/10/2023 18:41
9991,La Villa,Soriana,pro selection,cepillo dental limpieza total 2x1,50.5,blister 2 piezas,cepillos+dentales,19.465417,-99.125438,"calz de guadalupe 192, vallejo, gustavo a. madero, 07870 ciudad de méxico, cdmx",31/10/2023 18:41
9991,La Villa,Soriana,nuby,cepillo dental de silicón extra suave,119.0,blister 1 pieza,cepillos+dentales,19.465417,-99.125438,"calz de guadalupe 192, vallejo, gustavo a. madero, 07870 ciudad de méxico, cdmx",31/10/2023 18:41
9993,Paradox Santa Fe,Soriana,morelia presidencial,chocolate en polvo,51.9,bolsa 700 g,chocolate+en+polvo,19.357303,-99.273539,"av sta fe 546, lomas de santa fe, contadero, cuajimalpa de morelos, 01219 ciudad de méxico, cdmx",31/10/2023 18:41
9993,Paradox Santa Fe,Soriana,nesquik,alimento en polvo sabor chocolate,75.0,doypack 700 g,chocolate+en+polvo,19.357303,-99.273539,"av sta fe 546, lomas de santa fe, contadero, cuajimalpa de morelos, 01219 ciudad de méxico, cdmx",31/10/2023 18:41
4449,La Comer Tlalpan,La Comer,morelia presidencial,chocolate en polvo,51.5,bolsa 700 g,chocolate+en+polvo,19.288687,-99.179181,"plazuela de la fama 1, la fama, 14410 tlalpan, mexico, ciudad de mexico",31/10/2023 18:41
4449,La Comer Tlalpan,La Comer,nesquik,alimento en polvo sabor chocolate,76.1,doypack 700 g,chocolate+en+polvo,19.288687,-99.179181,"plazuela de la fama 1, la fama, 14410 tlalpan, mexico, ciudad de mexico",31/10/2023 18:41
9991,La Villa,Soriana,morelia presidencial,chocolate en polvo,51.9,bolsa 700 g,chocolate+en+polvo,19.465417,-99.125438,"calz de guadalupe 192, vallejo, gustavo a. madero, 07870 ciudad de méxico, cdmx",31/10/2023 18:41
9991,La Villa,Soriana,nesquik,alimento en polvo sabor chocolate,78.5,doypack 700 g,chocolate+en+polvo,19.465417,-99.125438,"calz de guadalupe 192, vallejo, gustavo a. madero, 07870 ciudad de méxico, cdmx",31/10/2023 18:41
9993,Paradox Santa Fe,Soriana,cloralex,cloro ultragel,32.5,botella 950 ml,cloro,19.357303,-99.273539,"av sta fe 546, lomas de santa fe, contadero, cuajimalpa de morelos, 01219 ciudad de méxico, cdmx",31/10/2023 18:41
9993,Paradox Santa Fe,Soriana,cloralex,cloro en gel,35.9,botella 2 l,cloro,19.357303,-99.273539,"av sta fe 546, lomas de santa fe, contadero, cuajimalpa de morelos, 01219 ciudad de méxico, cdmx",31/10/2023 18:41
9993,Paradox Santa Fe,Soriana,cloralex,cloro el rendidor,18.0,botella 950 ml,cloro,19.357303,-99.273539,"av sta fe 546, lomas de santa fe, contadero, cuajimalpa de morelos, 01219 ciudad de méxico, cdmx",31/10/2023 18:41
9993,Paradox Santa Fe,Soriana,cloralex,cloro el rendidor en gel,66.5,galón 3.75 l,cloro,19.357303,-99.273539,"av sta fe 546, lomas de santa fe, contadero, cuajimalpa de morelos, 01219 ciudad de méxico, cdmx",31/10/2023 18:41
9993,Paradox Santa Fe,Soriana,blancatel,cloro aroma a lavanda,42.5,galón 3.78 l,cloro,19.357303,-99.273539,"av sta fe 546, lomas de santa fe, contadero, cuajimalpa de morelos, 01219 ciudad de méxico, cdmx",31/10/2023 18:41
9993,Paradox Santa Fe,Soriana,cloralex,cloro en gel,21.9,950 ml,cloro,19.357303,-99.273539,"av sta fe 546, lomas de santa fe, contadero, cuajimalpa de morelos, 01219 ciudad de méxico, cdmx",31/10/2023 18:41
4449,La Comer Tlalpan,La Comer,cloralex,cloro ultragel,32.2,botella 950 ml,cloro,19.288687,-99.179181,"plazuela de la fama 1, la fama, 14410 tlalpan, mexico, ciudad de mexico",31/10/2023 18:41
4449,La Comer Tlalpan,La Comer,cloralex,cloro en gel,30.0,botella 2 l,cloro,19.288687,-99.179181,"plazuela de la fama 1, la fama, 14410 tlalpan, mexico, ciudad de mexico",31/10/2023 18:41
4449,La Comer Tlalpan,La Comer,cloralex,cloro el rendidor,14.5,botella 950 ml,cloro,19.288687,-99.179181,"plazuela de la fama 1, la fama, 14410 tlalpan, mexico, ciudad de mexico",31/10/2023 18:41
4449,La Comer Tlalpan,La Comer,blancatel,cloro aroma a lavanda,36.5,galón 3.78 l,cloro,19.288687,-99.179181,"plazuela de la fama 1, la fama, 14410 tlalpan, mexico, ciudad de mexico",31/10/2023 18:41
4449,La Comer Tlalpan,La Comer,bref,limpiador densicloro frescura,26.5,botella 1 l,cloro,19.288687,-99.179181,"plazuela de la fama 1, la fama, 14410 tlalpan, mexico, ciudad de mexico",31/10/2023 18:41
4449,La Comer Tlalpan,La Comer,cloralex,cloro en gel,17.6,950 ml,cloro,19.288687,-99.179181,"plazuela de la fama 1, la fama, 14410 tlalpan, mexico, ciudad de mexico",31/10/2023 18:41
9991,La Villa,Soriana,cloralex,cloro ultragel,32.5,botella 950 ml,cloro,19.465417,-99.125438,"calz de guadalupe 192, vallejo, gustavo a. madero, 07870 ciudad de méxico, cdmx",31/10/2023 18:41
9991,La Villa,Soriana,cloralex,cloro en gel,35.9,botella 2 l,cloro,19.465417,-99.125438,"calz de guadalupe 192, vallejo, gustavo a. madero, 07870 ciudad de méxico, cdmx",31/10/2023 18:41
9991,La Villa,Soriana,cloralex,cloro el rendidor,18.0,botella 950 ml,cloro,19.465417,-99.125438,"calz de guadalupe 192, vallejo, gustavo a. madero, 07870 ciudad de méxico, cdmx",31/10/2023 18:41
9991,La Villa,Soriana,cloralex,cloro el rendidor en gel,65.9,galón 3.75 l,cloro,19.465417,-99.125438,"calz de guadalupe 192, vallejo, gustavo a. madero, 07870 ciudad de méxico, cdmx",31/10/2023 18:41
9991,La Villa,Soriana,blancatel,cloro aroma a lavanda,44.5,galón 3.78 l,cloro,19.465417,-99.125438,"calz de guadalupe 192, vallejo, gustavo a. madero, 07870 ciudad de méxico, cdmx",31/10/2023 18:41
9991,La Villa,Soriana,bref,limpiador densicloro frescura,29.9,botella 1 l,cloro,19.465417,-99.125438,"calz de guadalupe 192, vallejo, gustavo a. madero, 07870 ciudad de méxico, cdmx",31/10/2023 18:41
9991,La Villa,Soriana,cloralex,cloro en gel,21.9,950 ml,cloro,19.465417,-99.125438,"calz de guadalupe 192, vallejo, gustavo a. madero, 07870 ciudad de méxico, cdmx",31/10/2023 18:41
9993,Paradox Santa Fe,Soriana,old spice,desodorante fresh,48.9,barra 50 g,desodorante,19.357303,-99.273539,"av sta fe 546, lomas de santa fe, contadero, cuajimalpa de morelos, 01219 ciudad de méxico, cdmx",31/10/2023 18:41
9993,Paradox Santa Fe,Soriana,rexona men,desodorante v8,58.5,barra 50 g,desodorante,19.357303,-99.273539,"av sta fe 546, lomas de santa fe, contadero, cuajimalpa de morelos, 01219 ciudad de méxico, cdmx",31/10/2023 18:41
9993,Paradox Santa Fe,Soriana,old spice,desodorante wolfthorn rojo,48.9,barra 50 g,desodorante,19.357303,-99.273539,"av sta fe 546, lomas de santa fe, contadero, cuajimalpa de morelos, 01219 ciudad de méxico, cdmx",31/10/2023 18:41
9993,Paradox Santa Fe,Soriana,nivea,antitranspirante aclarado natural classic touch,58.75,barra 50 g,desodorante,19.357303,-99.273539,"av sta fe 546, lomas de santa fe, contadero, cuajimalpa de morelos, 01219 ciudad de méxico, cdmx",31/10/2023 18:41
9993,Paradox Santa Fe,Soriana,old spice,barra desodorante vip,48.9,barra 50 g,desodorante,19.357303,-99.273539,"av sta fe 546, lomas de santa fe, contadero, cuajimalpa de morelos, 01219 ciudad de méxico, cdmx",31/10/2023 18:41
4449,La Comer Tlalpan,La Comer,old spice,desodorante fresh,42.0,barra 50 g,desodorante,19.288687,-99.179181,"plazuela de la fama 1, la fama, 14410 tlalpan, mexico, ciudad de mexico",31/10/2023 18:41
4449,La Comer Tlalpan,La Comer,rexona men,desodorante v8,55.9,barra 50 g,desodorante,19.288687,-99.179181,"plazuela de la fama 1, la fama, 14410 tlalpan, mexico, ciudad de mexico",31/10/2023 18:41
4449,La Comer Tlalpan,La Comer,old spice,desodorante wolfthorn rojo,42.0,barra 50 g,desodorante,19.288687,-99.179181,"plazuela de la fama 1, la fama, 14410 tlalpan, mexico, ciudad de mexico",31/10/2023 18:41
4449,La Comer Tlalpan,La Comer,nivea,antitranspirante aclarado natural classic touch,55.0,barra 50 g,desodorante,19.288687,-99.179181,"plazuela de la fama 1, la fama, 14410 tlalpan, mexico, ciudad de mexico",31/10/2023 18:41
4449,La Comer Tlalpan,La Comer,old spice,barra desodorante vip,42.0,barra 50 g,desodorante,19.288687,-99.179181,"plazuela de la fama 1, la fama, 14410 tlalpan, mexico, ciudad de mexico",31/10/2023 18:41
9991,La Villa,Soriana,old spice,desodorante fresh,59.9,barra 50 g,desodorante,19.465417,-99.125438,"calz de guadalupe 192, vallejo, gustavo a. madero, 07870 ciudad de méxico, cdmx",31/10/2023 18:41
9991,La Villa,Soriana,rexona men,desodorante v8,55.9,barra 50 g,desodorante,19.465417,-99.125438,"calz de guadalupe 192, vallejo, gustavo a. madero, 07870 ciudad de méxico, cdmx",31/10/2023 18:41
9991,La Villa,Soriana,old spice,desodorante wolfthorn rojo,59.9,barra 50 g,desodorante,19.465417,-99.125438,"calz de guadalupe 192, vallejo, gustavo a. madero, 07870 ciudad de méxico, cdmx",31/10/2023 18:41
9991,La Villa,Soriana,nivea,antitranspirante aclarado natural classic touch,58.5,barra 50 g,desodorante,19.465417,-99.125438,"calz de guadalupe 192, vallejo, gustavo a. madero, 07870 ciudad de méxico, cdmx",31/10/2023 18:41
9991,La Villa,Soriana,old spice,barra desodorante vip,59.9,barra 50 g,desodorante,19.465417,-99.125438,"calz de guadalupe 192, vallejo, gustavo a. madero, 07870 ciudad de méxico, cdmx",31/10/2023 18:41
9993,Paradox Santa Fe,Soriana,reynera,escoba atrapa polvo para interiores,103.0,1 pieza,escobas,19.357303,-99.273539,"av sta fe 546, lomas de santa fe, contadero, cuajimalpa de morelos, 01219 ciudad de méxico, cdmx",31/10/2023 18:41
9993,Paradox Santa Fe,Soriana,vileda,escoba 2 en 1 interiores,132.0,1 pieza,escobas,19.357303,-99.273539,"av sta fe 546, lomas de santa fe, contadero, cuajimalpa de morelos, 01219 ciudad de méxico, cdmx",31/10/2023 18:41
9993,Paradox Santa Fe,Soriana,reynera,escoba para exterior doble angular,123.0,unidad,escobas,19.357303,-99.273539,"av sta fe 546, lomas de santa fe, contadero, cuajimalpa de morelos, 01219 ciudad de méxico, cdmx",31/10/2023 18:41
9993,Paradox Santa Fe,Soriana,vileda,escoba angular 2 en 1,156.0,pieza,escobas,19.357303,-99.273539,"av sta fe 546, lomas de santa fe, contadero, cuajimalpa de morelos, 01219 ciudad de méxico, cdmx",31/10/2023 18:41
9993,Paradox Santa Fe,Soriana,reynera,escoba cepillo tallador,129.0,unidad,escobas,19.357303,-99.273539,"av sta fe 546, lomas de santa fe, contadero, cuajimalpa de morelos, 01219 ciudad de méxico, cdmx",31/10/2023 18:41
9993,Paradox Santa Fe,Soriana,reynera,escoba económica,63.9,1 pieza,escobas,19.357303,-99.273539,"av sta fe 546, lomas de santa fe, contadero, cuajimalpa de morelos, 01219 ciudad de méxico, cdmx",31/10/2023 18:41
9993,Paradox Santa Fe,Soriana,scotch-brite,escoba para interiores,181.0,1 pieza,escobas,19.357303,-99.273539,"av sta fe 546, lomas de santa fe, contadero, cuajimalpa de morelos, 01219 ciudad de méxico, cdmx",31/10/2023 18:41
9993,Paradox Santa Fe,Soriana,reynera,escoba tradicional de espiga,198.5,unidad,escobas,19.357303,-99.273539,"av sta fe 546, lomas de santa fe, contadero, cuajimalpa de morelos, 01219 ciudad de méxico, cdmx",31/10/2023 18:41
9993,Paradox Santa Fe,Soriana,scotch-brite,escoba no raya,232.0,1 pieza,escobas,19.357303,-99.273539,"av sta fe 546, lomas de santa fe, contadero, cuajimalpa de morelos, 01219 ciudad de méxico, cdmx",31/10/2023 18:41
9993,Paradox Santa Fe,Soriana,precíssimo,escoba para uso rudo,67.5,1 pieza,escobas,19.357303,-99.273539,"av sta fe 546, lomas de santa fe, contadero, cuajimalpa de morelos, 01219 ciudad de méxico, cdmx",31/10/2023 18:41
9993,Paradox Santa Fe,Soriana,quality day,escoba mega premium,76.0,1 pieza,escobas,19.357303,-99.273539,"av sta fe 546, lomas de santa fe, contadero, cuajimalpa de morelos, 01219 ciudad de méxico, cdmx",31/10/2023 18:41
9993,Paradox Santa Fe,Soriana,precíssimo,escoba mega,59.0,1 pieza,escobas,19.357303,-99.273539,"av sta fe 546, lomas de santa fe, contadero, cuajimalpa de morelos, 01219 ciudad de méxico, cdmx",31/10/2023 18:41
9993,Paradox Santa Fe,Soriana,command,colgador para escoba adherible,76.5,1 pieza,escobas,19.357303,-99.273539,"av sta fe 546, lomas de santa fe, contadero, cuajimalpa de morelos, 01219 ciudad de méxico, cdmx",31/10/2023 18:41
9993,Paradox Santa Fe,Soriana,quality day,escoba caoba premium,95.9,1 pieza,escobas,19.357303,-99.273539,"av sta fe 546, lomas de santa fe, contadero, cuajimalpa de morelos, 01219 ciudad de méxico, cdmx",31/10/2023 18:41
4449,La Comer Tlalpan,La Comer,reynera,escoba para exterior doble angular,129.8,unidad,escobas,19.288687,-99.179181,"plazuela de la fama 1, la fama, 14410 tlalpan, mexico, ciudad de mexico",31/10/2023 18:41
4449,La Comer Tlalpan,La Comer,vileda,escoba multiusos 2 en 1,65.0,1 pieza,escobas,19.288687,-99.179181,"plazuela de la fama 1, la fama, 14410 tlalpan, mexico, ciudad de mexico",31/10/2023 18:41
4449,La Comer Tlalpan,La Comer,scotch-brite,escoba para interiores,174.0,1 pieza,escobas,19.288687,-99.179181,"plazuela de la fama 1, la fama, 14410 tlalpan, mexico, ciudad de mexico",31/10/2023 18:41
4449,La Comer Tlalpan,La Comer,reynera,escoba angular xl,117.8,1 pieza,escobas,19.288687,-99.179181,"plazuela de la fama 1, la fama, 14410 tlalpan, mexico, ciudad de mexico",31/10/2023 18:41
4449,La Comer Tlalpan,La Comer,corazzi,escoba sania oro atrapa polvo,168.8,1 pieza,escobas,19.288687,-99.179181,"plazuela de la fama 1, la fama, 14410 tlalpan, mexico, ciudad de mexico",31/10/2023 18:41
4449,La Comer Tlalpan,La Comer,joselyn,escoba de uso rudo,64.0,1 pieza,escobas,19.288687,-99.179181,"plazuela de la fama 1, la fama, 14410 tlalpan, mexico, ciudad de mexico",31/10/2023 18:41
4449,La Comer Tlalpan,La Comer,corazzi,escoba samba,144.0,1 pieza,escobas,19.288687,-99.179181,"plazuela de la fama 1, la fama, 14410 tlalpan, mexico, ciudad de mexico",31/10/2023 18:41
4449,La Comer Tlalpan,La Comer,joselyn,escoba tipo cepillo doble uso,102.4,1 pieza,escobas,19.288687,-99.179181,"plazuela de la fama 1, la fama, 14410 tlalpan, mexico, ciudad de mexico",31/10/2023 18:41
4449,La Comer Tlalpan,La Comer,chahin,escoba de vinil,110.8,1 pieza,escobas,19.288687,-99.179181,"plazuela de la fama 1, la fama, 14410 tlalpan, mexico, ciudad de mexico",31/10/2023 18:41
4449,La Comer Tlalpan,La Comer,chahin,escoba para pisos delicados,116.8,1 pieza,escobas,19.288687,-99.179181,"plazuela de la fama 1, la fama, 14410 tlalpan, mexico, ciudad de mexico",31/10/2023 18:41
4449,La Comer Tlalpan,La Comer,truper,escoba plástica flexible,108.0,1 pieza,escobas,19.288687,-99.179181,"plazuela de la fama 1, la fama, 14410 tlalpan, mexico, ciudad de mexico",31/10/2023 18:41
4449,La Comer Tlalpan,La Comer,surtek,escoba plástica para jardín flexible,75.5,1 pieza,escobas,19.288687,-99.179181,"plazuela de la fama 1, la fama, 14410 tlalpan, mexico, ciudad de mexico",31/10/2023 18:41
9991,La Villa,Soriana,reynera,escoba atrapa polvo para interiores,98.9,1 pieza,escobas,19.465417,-99.125438,"calz de guadalupe 192, vallejo, gustavo a. madero, 07870 ciudad de méxico, cdmx",31/10/2023 18:41
9991,La Villa,Soriana,reynera,escoba para exterior doble angular,122.0,unidad,escobas,19.465417,-99.125438,"calz de guadalupe 192, vallejo, gustavo a. madero, 07870 ciudad de méxico, cdmx",31/10/2023 18:41
9991,La Villa,Soriana,vileda,escoba multiusos 2 en 1,77.25,1 pieza,escobas,19.465417,-99.125438,"calz de guadalupe 192, vallejo, gustavo a. madero, 07870 ciudad de méxico, cdmx",31/10/2023 18:41
9991,La Villa,Soriana,reynera,escoba para interior pisos finos,156.0,unidad,escobas,19.465417,-99.125438,"calz de guadalupe 192, vallejo, gustavo a. madero, 07870 ciudad de méxico, cdmx",31/10/2023 18:41
9991,La Villa,Soriana,vileda,escoba angular 2 en 1,152.0,pieza,escobas,19.465417,-99.125438,"calz de guadalupe 192, vallejo, gustavo a. madero, 07870 ciudad de méxico, cdmx",31/10/2023 18:41
9991,La Villa,Soriana,reynera,escoba cepillo tallador,128.0,unidad,escobas,19.465417,-99.125438,"calz de guadalupe 192, vallejo, gustavo a. madero, 07870 ciudad de méxico, cdmx",31/10/2023 18:41
9991,La Villa,Soriana,reynera,escoba económica,63.5,1 pieza,escobas,19.465417,-99.125438,"calz de guadalupe 192, vallejo, gustavo a. madero, 07870 ciudad de méxico, cdmx",31/10/2023 18:41
9991,La Villa,Soriana,reynera,escoba tradicional de espiga,198.5,unidad,escobas,19.465417,-99.125438,"calz de guadalupe 192, vallejo, gustavo a. madero, 07870 ciudad de méxico, cdmx",31/10/2023 18:41
9991,La Villa,Soriana,reynera,escoba angular xl,118.9,1 pieza,escobas,19.465417,-99.125438,"calz de guadalupe 192, vallejo, gustavo a. madero, 07870 ciudad de méxico, cdmx",31/10/2023 18:41
9991,La Villa,Soriana,precíssimo,escoba,45.5,1 pieza,escobas,19.465417,-99.125438,"calz de guadalupe 192, vallejo, gustavo a. madero, 07870 ciudad de méxico, cdmx",31/10/2023 18:41
9991,La Villa,Soriana,precíssimo,escoba para uso rudo,59.0,1 pieza,escobas,19.465417,-99.125438,"calz de guadalupe 192, vallejo, gustavo a. madero, 07870 ciudad de méxico, cdmx",31/10/2023 18:41
9991,La Villa,Soriana,corazzi,escoba sania oro atrapa polvo,179.0,1 pieza,escobas,19.465417,-99.125438,"calz de guadalupe 192, vallejo, gustavo a. madero, 07870 ciudad de méxico, cdmx",31/10/2023 18:41
9991,La Villa,Soriana,quality day,escoba mega premium,76.0,1 pieza,escobas,19.465417,-99.125438,"calz de guadalupe 192, vallejo, gustavo a. madero, 07870 ciudad de méxico, cdmx",31/10/2023 18:41
9991,La Villa,Soriana,corazzi,escoba samba,149.9,1 pieza,escobas,19.465417,-99.125438,"calz de guadalupe 192, vallejo, gustavo a. madero, 07870 ciudad de méxico, cdmx",31/10/2023 18:41
9991,La Villa,Soriana,virutex,escoba con mango,111.0,1 pieza,escobas,19.465417,-99.125438,"calz de guadalupe 192, vallejo, gustavo a. madero, 07870 ciudad de méxico, cdmx",31/10/2023 18:41
9991,La Villa,Soriana,precíssimo,escoba,42.0,1 pieza,escobas,19.465417,-99.125438,"calz de guadalupe 192, vallejo, gustavo a. madero, 07870 ciudad de méxico, cdmx",31/10/2023 18:41
9991,La Villa,Soriana,precíssimo,escoba mega,59.0,1 pieza,escobas,19.465417,-99.125438,"calz de guadalupe 192, vallejo, gustavo a. madero, 07870 ciudad de méxico, cdmx",31/10/2023 18:41
9991,La Villa,Soriana,command,colgador para escoba adherible,76.5,1 pieza,escobas,19.465417,-99.125438,"calz de guadalupe 192, vallejo, gustavo a. madero, 07870 ciudad de méxico, cdmx",31/10/2023 18:41
9993,Paradox Santa Fe,Soriana,scotch-brite,fibra esponja,17.3,1 pieza,fibra,19.357303,-99.273539,"av sta fe 546, lomas de santa fe, contadero, cuajimalpa de morelos, 01219 ciudad de méxico, cdmx",31/10/2023 18:41
9993,Paradox Santa Fe,Soriana,scotch-brite,fibra esponja,36.9,1 pieza,fibra,19.357303,-99.273539,"av sta fe 546, lomas de santa fe, contadero, cuajimalpa de morelos, 01219 ciudad de méxico, cdmx",31/10/2023 18:41
9993,Paradox Santa Fe,Soriana,scotch-brite,fibra esponja,40.5,1 pieza,fibra,19.357303,-99.273539,"av sta fe 546, lomas de santa fe, contadero, cuajimalpa de morelos, 01219 ciudad de méxico, cdmx",31/10/2023 18:41
9993,Paradox Santa Fe,Soriana,scotch-brite,fibra limpieza pesada,18.0,1 pieza,fibra,19.357303,-99.273539,"av sta fe 546, lomas de santa fe, contadero, cuajimalpa de morelos, 01219 ciudad de méxico, cdmx",31/10/2023 18:41
9993,Paradox Santa Fe,Soriana,scotch-brite,fibra esponja cero rayas baño,40.5,1 pieza,fibra,19.357303,-99.273539,"av sta fe 546, lomas de santa fe, contadero, cuajimalpa de morelos, 01219 ciudad de méxico, cdmx",31/10/2023 18:41
9993,Paradox Santa Fe,Soriana,scotch-brite,fibra esponja extreme,30.0,1 pieza,fibra,19.357303,-99.273539,"av sta fe 546, lomas de santa fe, contadero, cuajimalpa de morelos, 01219 ciudad de méxico, cdmx",31/10/2023 18:41
9993,Paradox Santa Fe,Soriana,scotch-brite,fibra esponja cero rayas ch,28.5,1 pieza,fibra,19.357303,-99.273539,"av sta fe 546, lomas de santa fe, contadero, cuajimalpa de morelos, 01219 ciudad de méxico, cdmx",31/10/2023 18:41
9993,Paradox Santa Fe,Soriana,scotch-brite,"fibra para asadores, parrillas y hornos",43.5,1 pieza,fibra,19.357303,-99.273539,"av sta fe 546, lomas de santa fe, contadero, cuajimalpa de morelos, 01219 ciudad de méxico, cdmx",31/10/2023 18:41
9993,Paradox Santa Fe,Soriana,scrub daddy,fibra scrub mommy doble cara,81.9,1 pieza,fibra,19.357303,-99.273539,"av sta fe 546, lomas de santa fe, contadero, cuajimalpa de morelos, 01219 ciudad de méxico, cdmx",31/10/2023 18:41
9993,Paradox Santa Fe,Soriana,vileda,fibra esponja no raya multiusos,34.5,1 pieza,fibra,19.357303,-99.273539,"av sta fe 546, lomas de santa fe, contadero, cuajimalpa de morelos, 01219 ciudad de méxico, cdmx",31/10/2023 18:41
9993,Paradox Santa Fe,Soriana,scrub daddy,fibra esponja,70.0,1 pieza,fibra,19.357303,-99.273539,"av sta fe 546, lomas de santa fe, contadero, cuajimalpa de morelos, 01219 ciudad de méxico, cdmx",31/10/2023 18:41
9993,Paradox Santa Fe,Soriana,scotch-brite,fibra para superficies delicadas,19.0,1 pieza,fibra,19.357303,-99.273539,"av sta fe 546, lomas de santa fe, contadero, cuajimalpa de morelos, 01219 ciudad de méxico, cdmx",31/10/2023 18:41
9993,Paradox Santa Fe,Soriana,scotch-brite,fibra espiral metálico,21.0,1 pieza,fibra,19.357303,-99.273539,"av sta fe 546, lomas de santa fe, contadero, cuajimalpa de morelos, 01219 ciudad de méxico, cdmx",31/10/2023 18:41
9993,Paradox Santa Fe,Soriana,fregón,fibra galvanizada jumbo,29.9,1 pieza,fibra,19.357303,-99.273539,"av sta fe 546, lomas de santa fe, contadero, cuajimalpa de morelos, 01219 ciudad de méxico, cdmx",31/10/2023 18:41
9993,Paradox Santa Fe,Soriana,quality day,fibra esponja doble,12.7,1 pieza,fibra,19.357303,-99.273539,"av sta fe 546, lomas de santa fe, contadero, cuajimalpa de morelos, 01219 ciudad de méxico, cdmx",31/10/2023 18:41
9993,Paradox Santa Fe,Soriana,quality day,fibra esponja abrasiva,16.9,1 pieza,fibra,19.357303,-99.273539,"av sta fe 546, lomas de santa fe, contadero, cuajimalpa de morelos, 01219 ciudad de méxico, cdmx",31/10/2023 18:41
9993,Paradox Santa Fe,Soriana,precíssimo,fibra verde grande,14.9,1 pieza,fibra,19.357303,-99.273539,"av sta fe 546, lomas de santa fe, contadero, cuajimalpa de morelos, 01219 ciudad de méxico, cdmx",31/10/2023 18:41
9993,Paradox Santa Fe,Soriana,quality day,fibra esponja azul,13.2,1 pieza,fibra,19.357303,-99.273539,"av sta fe 546, lomas de santa fe, contadero, cuajimalpa de morelos, 01219 ciudad de méxico, cdmx",31/10/2023 18:41
9993,Paradox Santa Fe,Soriana,somaki,fregón fibra mixta 2 en 1,39.9,1 pieza,fibra,19.357303,-99.273539,"av sta fe 546, lomas de santa fe, contadero, cuajimalpa de morelos, 01219 ciudad de méxico, cdmx",31/10/2023 18:41
9993,Paradox Santa Fe,Soriana,quality day,fibra decorada con celulosa,13.7,1 pieza,fibra,19.357303,-99.273539,"av sta fe 546, lomas de santa fe, contadero, cuajimalpa de morelos, 01219 ciudad de méxico, cdmx",31/10/2023 18:41
9993,Paradox Santa Fe,Soriana,scotch-brite,fibra limpieza delicada,38.5,1 pieza,fibra,19.357303,-99.273539,"av sta fe 546, lomas de santa fe, contadero, cuajimalpa de morelos, 01219 ciudad de méxico, cdmx",31/10/2023 18:41
9993,Paradox Santa Fe,Soriana,scotch-brite,fibra esponja,31.0,1 pieza,fibra,19.357303,-99.273539,"av sta fe 546, lomas de santa fe, contadero, cuajimalpa de morelos, 01219 ciudad de méxico, cdmx",31/10/2023 18:41
9993,Paradox Santa Fe,Soriana,clorox,esponja fibra ultraremoción,14.8,1 pieza,fibra,19.357303,-99.273539,"av sta fe 546, lomas de santa fe, contadero, cuajimalpa de morelos, 01219 ciudad de méxico, cdmx",31/10/2023 18:41
9993,Paradox Santa Fe,Soriana,limppano,fibra esponja antiadherente,32.0,1 pieza,fibra,19.357303,-99.273539,"av sta fe 546, lomas de santa fe, contadero, cuajimalpa de morelos, 01219 ciudad de méxico, cdmx",31/10/2023 18:41
4449,La Comer Tlalpan,La Comer,scotch-brite,fibra esponja,18.8,1 pieza,fibra,19.288687,-99.179181,"plazuela de la fama 1, la fama, 14410 tlalpan, mexico, ciudad de mexico",31/10/2023 18:41
4449,La Comer Tlalpan,La Comer,scotch-brite,fibra esponja,40.0,1 pieza,fibra,19.288687,-99.179181,"plazuela de la fama 1, la fama, 14410 tlalpan, mexico, ciudad de mexico",31/10/2023 18:41
4449,La Comer Tlalpan,La Comer,scotch-brite,fibra esponja,45.5,1 pieza,fibra,19.288687,-99.179181,"plazuela de la fama 1, la fama, 14410 tlalpan, mexico, ciudad de mexico",31/10/2023 18:41
4449,La Comer Tlalpan,La Comer,scotch-brite,fibra limpieza pesada,16.8,1 pieza,fibra,19.288687,-99.179181,"plazuela de la fama 1, la fama, 14410 tlalpan, mexico, ciudad de mexico",31/10/2023 18:41
4449,La Comer Tlalpan,La Comer,scotch-brite,fibra esponja cero rayas baño,45.5,1 pieza,fibra,19.288687,-99.179181,"plazuela de la fama 1, la fama, 14410 tlalpan, mexico, ciudad de mexico",31/10/2023 18:41
4449,La Comer Tlalpan,La Comer,scotch-brite,fibra esponja extreme,41.0,1 pieza,fibra,19.288687,-99.179181,"plazuela de la fama 1, la fama, 14410 tlalpan, mexico, ciudad de mexico",31/10/2023 18:41
4449,La Comer Tlalpan,La Comer,scotch-brite,fibra esponja cero rayas ch,30.0,1 pieza,fibra,19.288687,-99.179181,"plazuela de la fama 1, la fama, 14410 tlalpan, mexico, ciudad de mexico",31/10/2023 18:41
4449,La Comer Tlalpan,La Comer,vileda,fibra para acero inoxidable,48.8,1 pieza,fibra,19.288687,-99.179181,"plazuela de la fama 1, la fama, 14410 tlalpan, mexico, ciudad de mexico",31/10/2023 18:41
4449,La Comer Tlalpan,La Comer,scotch-brite,"fibra para asadores, parrillas y hornos",41.0,1 pieza,fibra,19.288687,-99.179181,"plazuela de la fama 1, la fama, 14410 tlalpan, mexico, ciudad de mexico",31/10/2023 18:41
4449,La Comer Tlalpan,La Comer,vileda,fibra esponja no raya multiusos,31.8,1 pieza,fibra,19.288687,-99.179181,"plazuela de la fama 1, la fama, 14410 tlalpan, mexico, ciudad de mexico",31/10/2023 18:41
4449,La Comer Tlalpan,La Comer,scotch-brite,fibra cero rayas ch,29.8,1 pieza,fibra,19.288687,-99.179181,"plazuela de la fama 1, la fama, 14410 tlalpan, mexico, ciudad de mexico",31/10/2023 18:41
4449,La Comer Tlalpan,La Comer,scrub daddy,fibra esponja,89.9,1 pieza,fibra,19.288687,-99.179181,"plazuela de la fama 1, la fama, 14410 tlalpan, mexico, ciudad de mexico",31/10/2023 18:41
4449,La Comer Tlalpan,La Comer,corazzi,fibra galvanizada magic metal,22.0,1 pieza,fibra,19.288687,-99.179181,"plazuela de la fama 1, la fama, 14410 tlalpan, mexico, ciudad de mexico",31/10/2023 18:41
4449,La Comer Tlalpan,La Comer,vileda,fibra multiusos,14.8,1 pieza,fibra,19.288687,-99.179181,"plazuela de la fama 1, la fama, 14410 tlalpan, mexico, ciudad de mexico",31/10/2023 18:41
4449,La Comer Tlalpan,La Comer,scotch-brite,fibra para superficies delicadas,18.4,1 pieza,fibra,19.288687,-99.179181,"plazuela de la fama 1, la fama, 14410 tlalpan, mexico, ciudad de mexico",31/10/2023 18:41
4449,La Comer Tlalpan,La Comer,reynera,fibra esponja con hilos de acero,40.0,1 pieza,fibra,19.288687,-99.179181,"plazuela de la fama 1, la fama, 14410 tlalpan, mexico, ciudad de mexico",31/10/2023 18:41
4449,La Comer Tlalpan,La Comer,scotch-brite,fibra de acero,18.4,1 pieza,fibra,19.288687,-99.179181,"plazuela de la fama 1, la fama, 14410 tlalpan, mexico, ciudad de mexico",31/10/2023 18:41
4449,La Comer Tlalpan,La Comer,fregon,fibra esponja multiusos,13.8,1 pieza,fibra,19.288687,-99.179181,"plazuela de la fama 1, la fama, 14410 tlalpan, mexico, ciudad de mexico",31/10/2023 18:41
4449,La Comer Tlalpan,La Comer,fregón,fibra galvanizada jumbo,20.4,1 pieza,fibra,19.288687,-99.179181,"plazuela de la fama 1, la fama, 14410 tlalpan, mexico, ciudad de mexico",31/10/2023 18:41
4449,La Comer Tlalpan,La Comer,corazzi,fibra esponja salvauñas,25.4,1 pieza,fibra,19.288687,-99.179181,"plazuela de la fama 1, la fama, 14410 tlalpan, mexico, ciudad de mexico",31/10/2023 18:41
4449,La Comer Tlalpan,La Comer,fregon,petly fibra esponja,21.0,1 pieza,fibra,19.288687,-99.179181,"plazuela de la fama 1, la fama, 14410 tlalpan, mexico, ciudad de mexico",31/10/2023 18:41
4449,La Comer Tlalpan,La Comer,fregón,fibra esponja multiusos carbón activo,34.0,1 pieza,fibra,19.288687,-99.179181,"plazuela de la fama 1, la fama, 14410 tlalpan, mexico, ciudad de mexico",31/10/2023 18:41
4449,La Comer Tlalpan,La Comer,fregón,fibra esponja grande,15.8,1 pieza,fibra,19.288687,-99.179181,"plazuela de la fama 1, la fama, 14410 tlalpan, mexico, ciudad de mexico",31/10/2023 18:41
4449,La Comer Tlalpan,La Comer,fregón,fibra esponja multiusos,21.8,1 pieza,fibra,19.288687,-99.179181,"plazuela de la fama 1, la fama, 14410 tlalpan, mexico, ciudad de mexico",31/10/2023 18:41
4449,La Comer Tlalpan,La Comer,fregon,fibra esponja,10.8,1 pieza,fibra,19.288687,-99.179181,"plazuela de la fama 1, la fama, 14410 tlalpan, mexico, ciudad de mexico",31/10/2023 18:41
4449,La Comer Tlalpan,La Comer,reynera,fibra esponja multiusos,15.4,1 pieza,fibra,19.288687,-99.179181,"plazuela de la fama 1, la fama, 14410 tlalpan, mexico, ciudad de mexico",31/10/2023 18:41
4449,La Comer Tlalpan,La Comer,weber,fibra para parilla,449.0,1 pieza,fibra,19.288687,-99.179181,"plazuela de la fama 1, la fama, 14410 tlalpan, mexico, ciudad de mexico",31/10/2023 18:41
4449,La Comer Tlalpan,La Comer,ke precio,fibra esponja no raya,25.4,1 pieza,fibra,19.288687,-99.179181,"plazuela de la fama 1, la fama, 14410 tlalpan, mexico, ciudad de mexico",31/10/2023 18:41
4449,La Comer Tlalpan,La Comer,scotch-brite,fibra limpieza delicada,40.0,1 pieza,fibra,19.288687,-99.179181,"plazuela de la fama 1, la fama, 14410 tlalpan, mexico, ciudad de mexico",31/10/2023 18:41
4449,La Comer Tlalpan,La Comer,corazzi,fibra esponja forma de huesito,21.0,1 pieza,fibra,19.288687,-99.179181,"plazuela de la fama 1, la fama, 14410 tlalpan, mexico, ciudad de mexico",31/10/2023 18:41
4449,La Comer Tlalpan,La Comer,soft dreams,almohada rellena con fibra de poliéster,398.0,1 pieza,fibra,19.288687,-99.179181,"plazuela de la fama 1, la fama, 14410 tlalpan, mexico, ciudad de mexico",31/10/2023 18:41
4449,La Comer Tlalpan,La Comer,celestial dreams,almohada estándar de fibra gel,298.0,1 pieza,fibra,19.288687,-99.179181,"plazuela de la fama 1, la fama, 14410 tlalpan, mexico, ciudad de mexico",31/10/2023 18:41
4449,La Comer Tlalpan,La Comer,romo,planta con maceta de fibra de vidrio,1195.0,1 pieza,fibra,19.288687,-99.179181,"plazuela de la fama 1, la fama, 14410 tlalpan, mexico, ciudad de mexico",31/10/2023 18:41
4449,La Comer Tlalpan,La Comer,romo,planta en maceta de fibra de vidrio,815.0,1 pieza,fibra,19.288687,-99.179181,"plazuela de la fama 1, la fama, 14410 tlalpan, mexico, ciudad de mexico",31/10/2023 18:41
4449,La Comer Tlalpan,La Comer,romo,planta en maceta de fibra de vidrio,1590.0,1 pieza,fibra,19.288687,-99.179181,"plazuela de la fama 1, la fama, 14410 tlalpan, mexico, ciudad de mexico",31/10/2023 18:41
9991,La Villa,Soriana,scotch-brite,fibra esponja,20.0,1 pieza,fibra,19.465417,-99.125438,"calz de guadalupe 192, vallejo, gustavo a. madero, 07870 ciudad de méxico, cdmx",31/10/2023 18:41
9991,La Villa,Soriana,scotch-brite,fibra esponja,40.9,1 pieza,fibra,19.465417,-99.125438,"calz de guadalupe 192, vallejo, gustavo a. madero, 07870 ciudad de méxico, cdmx",31/10/2023 18:41
9991,La Villa,Soriana,scotch-brite,fibra esponja,40.5,1 pieza,fibra,19.465417,-99.125438,"calz de guadalupe 192, vallejo, gustavo a. madero, 07870 ciudad de méxico, cdmx",31/10/2023 18:41
9991,La Villa,Soriana,scotch-brite,fibra limpieza pesada,13.7,1 pieza,fibra,19.465417,-99.125438,"calz de guadalupe 192, vallejo, gustavo a. madero, 07870 ciudad de méxico, cdmx",31/10/2023 18:41
9991,La Villa,Soriana,scotch-brite,fibra esponja extreme,30.0,1 pieza,fibra,19.465417,-99.125438,"calz de guadalupe 192, vallejo, gustavo a. madero, 07870 ciudad de méxico, cdmx",31/10/2023 18:41
9991,La Villa,Soriana,scotch-brite,"fibra para asadores, parrillas y hornos",39.5,1 pieza,fibra,19.465417,-99.125438,"calz de guadalupe 192, vallejo, gustavo a. madero, 07870 ciudad de méxico, cdmx",31/10/2023 18:41
9991,La Villa,Soriana,scrub daddy,fibra scrub mommy doble cara,81.5,1 pieza,fibra,19.465417,-99.125438,"calz de guadalupe 192, vallejo, gustavo a. madero, 07870 ciudad de méxico, cdmx",31/10/2023 18:41
9991,La Villa,Soriana,scrub daddy,fibra esponja,70.0,1 pieza,fibra,19.465417,-99.125438,"calz de guadalupe 192, vallejo, gustavo a. madero, 07870 ciudad de méxico, cdmx",31/10/2023 18:41
9991,La Villa,Soriana,scotch-brite,fibra para superficies delicadas,17.2,1 pieza,fibra,19.465417,-99.125438,"calz de guadalupe 192, vallejo, gustavo a. madero, 07870 ciudad de méxico, cdmx",31/10/2023 18:41
9991,La Villa,Soriana,reynera,fibra esponja con hilos de acero,44.9,1 pieza,fibra,19.465417,-99.125438,"calz de guadalupe 192, vallejo, gustavo a. madero, 07870 ciudad de méxico, cdmx",31/10/2023 18:41
9991,La Villa,Soriana,scotch-brite,fibra de acero,19.6,1 pieza,fibra,19.465417,-99.125438,"calz de guadalupe 192, vallejo, gustavo a. madero, 07870 ciudad de méxico, cdmx",31/10/2023 18:41
9991,La Villa,Soriana,fregón,fibra galvanizada jumbo,29.9,1 pieza,fibra,19.465417,-99.125438,"calz de guadalupe 192, vallejo, gustavo a. madero, 07870 ciudad de méxico, cdmx",31/10/2023 18:41
9991,La Villa,Soriana,quality day,fibra esponja doble,12.7,1 pieza,fibra,19.465417,-99.125438,"calz de guadalupe 192, vallejo, gustavo a. madero, 07870 ciudad de méxico, cdmx",31/10/2023 18:41
9991,La Villa,Soriana,quality day,fibra esponja abrasiva,16.9,1 pieza,fibra,19.465417,-99.125438,"calz de guadalupe 192, vallejo, gustavo a. madero, 07870 ciudad de méxico, cdmx",31/10/2023 18:41
9991,La Villa,Soriana,scrub daddy,fibra perrito,89.9,1 pieza,fibra,19.465417,-99.125438,"calz de guadalupe 192, vallejo, gustavo a. madero, 07870 ciudad de méxico, cdmx",31/10/2023 18:41
9991,La Villa,Soriana,quality day,fibra esponja azul,13.2,1 pieza,fibra,19.465417,-99.125438,"calz de guadalupe 192, vallejo, gustavo a. madero, 07870 ciudad de méxico, cdmx",31/10/2023 18:41
9991,La Villa,Soriana,somaki,fregón fibra mixta 2 en 1,39.9,1 pieza,fibra,19.465417,-99.125438,"calz de guadalupe 192, vallejo, gustavo a. madero, 07870 ciudad de méxico, cdmx",31/10/2023 18:41
9991,La Villa,Soriana,scotch-brite,fibra limpieza delicada,38.5,1 pieza,fibra,19.465417,-99.125438,"calz de guadalupe 192, vallejo, gustavo a. madero, 07870 ciudad de méxico, cdmx",31/10/2023 18:41
9991,La Villa,Soriana,scotch-brite,fibra esponja,31.0,1 pieza,fibra,19.465417,-99.125438,"calz de guadalupe 192, vallejo, gustavo a. madero, 07870 ciudad de méxico, cdmx",31/10/2023 18:41
9991,La Villa,Soriana,limppano,fibra esponja redonda,44.5,1 pieza,fibra,19.465417,-99.125438,"calz de guadalupe 192, vallejo, gustavo a. madero, 07870 ciudad de méxico, cdmx",31/10/2023 18:41
9991,La Villa,Soriana,limppano,fibra esponja maxxi,24.5,1 pieza,fibra,19.465417,-99.125438,"calz de guadalupe 192, vallejo, gustavo a. madero, 07870 ciudad de méxico, cdmx",31/10/2023 18:41
9991,La Villa,Soriana,limppano,fibra esponja antiadherente,32.0,1 pieza,fibra,19.465417,-99.125438,"calz de guadalupe 192, vallejo, gustavo a. madero, 07870 ciudad de méxico, cdmx",31/10/2023 18:41
9991,La Villa,Soriana,soriana,fibra con esponja,7.5,1 pieza,fibra,19.465417,-99.125438,"calz de guadalupe 192, vallejo, gustavo a. madero, 07870 ciudad de méxico, cdmx",31/10/2023 18:41
9993,Paradox Santa Fe,Soriana,precíssimo,franela de color rojo,18.3,1 pieza,franelas,19.357303,-99.273539,"av sta fe 546, lomas de santa fe, contadero, cuajimalpa de morelos, 01219 ciudad de méxico, cdmx",31/10/2023 18:41
4449,La Comer Tlalpan,La Comer,orbis,franela especial,35.8,1 pieza,franelas,19.288687,-99.179181,"plazuela de la fama 1, la fama, 14410 tlalpan, mexico, ciudad de mexico",31/10/2023 18:41
4449,La Comer Tlalpan,La Comer,ke precio,franela color amarillo,14.0,1 pieza,franelas,19.288687,-99.179181,"plazuela de la fama 1, la fama, 14410 tlalpan, mexico, ciudad de mexico",31/10/2023 18:41
4449,La Comer Tlalpan,La Comer,orbis,franela azul,23.4,1 pieza,franelas,19.288687,-99.179181,"plazuela de la fama 1, la fama, 14410 tlalpan, mexico, ciudad de mexico",31/10/2023 18:41
4449,La Comer Tlalpan,La Comer,home access,franela de secado,35.8,1 pieza,franelas,19.288687,-99.179181,"plazuela de la fama 1, la fama, 14410 tlalpan, mexico, ciudad de mexico",31/10/2023 18:41
4449,La Comer Tlalpan,La Comer,home access,franela de secado diseño plantas,31.4,1 pieza,franelas,19.288687,-99.179181,"plazuela de la fama 1, la fama, 14410 tlalpan, mexico, ciudad de mexico",31/10/2023 18:41
4449,La Comer Tlalpan,La Comer,ke precio,franela para auto,19.5,1 pieza,franelas,19.288687,-99.179181,"plazuela de la fama 1, la fama, 14410 tlalpan, mexico, ciudad de mexico",31/10/2023 18:41
9991,La Villa,Soriana,precíssimo,franela de color rojo,18.3,1 pieza,franelas,19.465417,-99.125438,"calz de guadalupe 192, vallejo, gustavo a. madero, 07870 ciudad de méxico, cdmx",31/10/2023 18:41
9993,Paradox Santa Fe,Soriana,nescafé,café soluble reserva mexicana xiapan chiapas,122.0,frasco 180 g,frasco+café+soluble,19.357303,-99.273539,"av sta fe 546, lomas de santa fe, contadero, cuajimalpa de morelos, 01219 ciudad de méxico, cdmx",31/10/2023 18:41
9993,Paradox Santa Fe,Soriana,nescafé,café soluble reserva mexicana verarica veracruz,122.0,frasco 180 g,frasco+café+soluble,19.357303,-99.273539,"av sta fe 546, lomas de santa fe, contadero, cuajimalpa de morelos, 01219 ciudad de méxico, cdmx",31/10/2023 18:41
9993,Paradox Santa Fe,Soriana,nescafé,café soluble clásico,110.0,frasco 200 g,frasco+café+soluble,19.357303,-99.273539,"av sta fe 546, lomas de santa fe, contadero, cuajimalpa de morelos, 01219 ciudad de méxico, cdmx",31/10/2023 18:41
9993,Paradox Santa Fe,Soriana,oro,cafe soluble puro descafeinado,106.0,frasco 175 g,frasco+café+soluble,19.357303,-99.273539,"av sta fe 546, lomas de santa fe, contadero, cuajimalpa de morelos, 01219 ciudad de méxico, cdmx",31/10/2023 18:41
9993,Paradox Santa Fe,Soriana,oro,café soluble,99.0,frasco 180 g,frasco+café+soluble,19.357303,-99.273539,"av sta fe 546, lomas de santa fe, contadero, cuajimalpa de morelos, 01219 ciudad de méxico, cdmx",31/10/2023 18:41
9993,Paradox Santa Fe,Soriana,precíssimo,café soluble mezclado,41.0,frasco 200 g,frasco+café+soluble,19.357303,-99.273539,"av sta fe 546, lomas de santa fe, contadero, cuajimalpa de morelos, 01219 ciudad de méxico, cdmx",31/10/2023 18:41
4449,La Comer Tlalpan,La Comer,nescafé,café soluble reserva mexicana xiapan chiapas,120.5,frasco 180 g,frasco+café+soluble,19.288687,-99.179181,"plazuela de la fama 1, la fama, 14410 tlalpan, mexico, ciudad de mexico",31/10/2023 18:41
4449,La Comer Tlalpan,La Comer,nescafé,café soluble reserva mexicana verarica veracruz,120.5,frasco 180 g,frasco+café+soluble,19.288687,-99.179181,"plazuela de la fama 1, la fama, 14410 tlalpan, mexico, ciudad de mexico",31/10/2023 18:41
4449,La Comer Tlalpan,La Comer,nescafé,café soluble clásico,109.5,frasco 200 g,frasco+café+soluble,19.288687,-99.179181,"plazuela de la fama 1, la fama, 14410 tlalpan, mexico, ciudad de mexico",31/10/2023 18:41
4449,La Comer Tlalpan,La Comer,oro,cafe soluble puro descafeinado,84.0,frasco 175 g,frasco+café+soluble,19.288687,-99.179181,"plazuela de la fama 1, la fama, 14410 tlalpan, mexico, ciudad de mexico",31/10/2023 18:41
4449,La Comer Tlalpan,La Comer,oro,café soluble,99.0,frasco 180 g,frasco+café+soluble,19.288687,-99.179181,"plazuela de la fama 1, la fama, 14410 tlalpan, mexico, ciudad de mexico",31/10/2023 18:41
4449,La Comer Tlalpan,La Comer,golden hills,café soluble puro descafeinado,84.9,frasco 200 g,frasco+café+soluble,19.288687,-99.179181,"plazuela de la fama 1, la fama, 14410 tlalpan, mexico, ciudad de mexico",31/10/2023 18:41
4449,La Comer Tlalpan,La Comer,golden hills,café puro soluble regular,71.9,frasco 200 g,frasco+café+soluble,19.288687,-99.179181,"plazuela de la fama 1, la fama, 14410 tlalpan, mexico, ciudad de mexico",31/10/2023 18:41
9991,La Villa,Soriana,nescafé,café soluble reserva mexicana xiapan chiapas,122.0,frasco 180 g,frasco+café+soluble,19.465417,-99.125438,"calz de guadalupe 192, vallejo, gustavo a. madero, 07870 ciudad de méxico, cdmx",31/10/2023 18:41
9991,La Villa,Soriana,nescafé,café soluble reserva mexicana verarica veracruz,122.0,frasco 180 g,frasco+café+soluble,19.465417,-99.125438,"calz de guadalupe 192, vallejo, gustavo a. madero, 07870 ciudad de méxico, cdmx",31/10/2023 18:41
9991,La Villa,Soriana,nescafé,café soluble clásico,110.0,frasco 200 g,frasco+café+soluble,19.465417,-99.125438,"calz de guadalupe 192, vallejo, gustavo a. madero, 07870 ciudad de méxico, cdmx",31/10/2023 18:41
9991,La Villa,Soriana,oro,cafe soluble puro descafeinado,109.0,frasco 175 g,frasco+café+soluble,19.465417,-99.125438,"calz de guadalupe 192, vallejo, gustavo a. madero, 07870 ciudad de méxico, cdmx",31/10/2023 18:41
9991,La Villa,Soriana,oro,café soluble,98.9,frasco 180 g,frasco+café+soluble,19.465417,-99.125438,"calz de guadalupe 192, vallejo, gustavo a. madero, 07870 ciudad de méxico, cdmx",31/10/2023 18:41
9991,La Villa,Soriana,los portales,café soluble intenso,65.9,frasco 180 g,frasco+café+soluble,19.465417,-99.125438,"calz de guadalupe 192, vallejo, gustavo a. madero, 07870 ciudad de méxico, cdmx",31/10/2023 18:41
9991,La Villa,Soriana,precíssimo,café soluble mezclado,41.0,frasco 200 g,frasco+café+soluble,19.465417,-99.125438,"calz de guadalupe 192, vallejo, gustavo a. madero, 07870 ciudad de méxico, cdmx",31/10/2023 18:41
9991,La Villa,Soriana,nescafé,café soluble clásico,108.9,frasco 225 g,frasco+café+soluble,19.465417,-99.125438,"calz de guadalupe 192, vallejo, gustavo a. madero, 07870 ciudad de méxico, cdmx",31/10/2023 18:41
9993,Paradox Santa Fe,Soriana,verde valle,frijol negro,41.9,bolsa 900 g,frijol,19.357303,-99.273539,"av sta fe 546, lomas de santa fe, contadero, cuajimalpa de morelos, 01219 ciudad de méxico, cdmx",31/10/2023 18:41
9993,Paradox Santa Fe,Soriana,verde valle,frijol pinto,45.9,bolsa 900 g,frijol,19.357303,-99.273539,"av sta fe 546, lomas de santa fe, contadero, cuajimalpa de morelos, 01219 ciudad de méxico, cdmx",31/10/2023 18:41
9993,Paradox Santa Fe,Soriana,verde valle,frijol negro jamapa,55.9,bolsa 900 g,frijol,19.357303,-99.273539,"av sta fe 546, lomas de santa fe, contadero, cuajimalpa de morelos, 01219 ciudad de méxico, cdmx",31/10/2023 18:41
9993,Paradox Santa Fe,Soriana,calidad bueno,frijol bayo,44.9,900 g,frijol,19.357303,-99.273539,"av sta fe 546, lomas de santa fe, contadero, cuajimalpa de morelos, 01219 ciudad de méxico, cdmx",31/10/2023 18:41
9993,Paradox Santa Fe,Soriana,la merced,frijol negro,41.9,bolsa 900 g,frijol,19.357303,-99.273539,"av sta fe 546, lomas de santa fe, contadero, cuajimalpa de morelos, 01219 ciudad de méxico, cdmx",31/10/2023 18:41
9993,Paradox Santa Fe,Soriana,verde valle,frijol peruano,69.5,bolsa 900 g,frijol,19.357303,-99.273539,"av sta fe 546, lomas de santa fe, contadero, cuajimalpa de morelos, 01219 ciudad de méxico, cdmx",31/10/2023 18:41
9993,Paradox Santa Fe,Soriana,la merced,frijol pinto nacional,41.5,900 g,frijol,19.357303,-99.273539,"av sta fe 546, lomas de santa fe, contadero, cuajimalpa de morelos, 01219 ciudad de méxico, cdmx",31/10/2023 18:41
9993,Paradox Santa Fe,Soriana,schettino,frijol pinto,42.5,bolsa 900 g,frijol,19.357303,-99.273539,"av sta fe 546, lomas de santa fe, contadero, cuajimalpa de morelos, 01219 ciudad de méxico, cdmx",31/10/2023 18:41
9993,Paradox Santa Fe,Soriana,aires de campo,frijol negro orgánico,105.0,bolsa 1 kg,frijol,19.357303,-99.273539,"av sta fe 546, lomas de santa fe, contadero, cuajimalpa de morelos, 01219 ciudad de méxico, cdmx",31/10/2023 18:41
9993,Paradox Santa Fe,Soriana,schettino,frijol negro,43.5,900 g,frijol,19.357303,-99.273539,"av sta fe 546, lomas de santa fe, contadero, cuajimalpa de morelos, 01219 ciudad de méxico, cdmx",31/10/2023 18:41
9993,Paradox Santa Fe,Soriana,la merced,frijol peruano,61.9,900 g,frijol,19.357303,-99.273539,"av sta fe 546, lomas de santa fe, contadero, cuajimalpa de morelos, 01219 ciudad de méxico, cdmx",31/10/2023 18:41
4449,La Comer Tlalpan,La Comer,verde valle,frijol negro,45.2,bolsa 900 g,frijol,19.288687,-99.179181,"plazuela de la fama 1, la fama, 14410 tlalpan, mexico, ciudad de mexico",31/10/2023 18:41
4449,La Comer Tlalpan,La Comer,verde valle,frijol pinto,49.0,bolsa 900 g,frijol,19.288687,-99.179181,"plazuela de la fama 1, la fama, 14410 tlalpan, mexico, ciudad de mexico",31/10/2023 18:41
4449,La Comer Tlalpan,La Comer,verde valle,frijol negro jamapa,57.5,bolsa 900 g,frijol,19.288687,-99.179181,"plazuela de la fama 1, la fama, 14410 tlalpan, mexico, ciudad de mexico",31/10/2023 18:41
4449,La Comer Tlalpan,La Comer,calidad bueno,frijol bayo,44.5,900 g,frijol,19.288687,-99.179181,"plazuela de la fama 1, la fama, 14410 tlalpan, mexico, ciudad de mexico",31/10/2023 18:41
4449,La Comer Tlalpan,La Comer,la merced,frijol negro,41.1,bolsa 900 g,frijol,19.288687,-99.179181,"plazuela de la fama 1, la fama, 14410 tlalpan, mexico, ciudad de mexico",31/10/2023 18:41
4449,La Comer Tlalpan,La Comer,la merced,frijol bayo,44.5,bolsa 900 g,frijol,19.288687,-99.179181,"plazuela de la fama 1, la fama, 14410 tlalpan, mexico, ciudad de mexico",31/10/2023 18:41
4449,La Comer Tlalpan,La Comer,calidad bueno,frijol negro,38.2,900 g,frijol,19.288687,-99.179181,"plazuela de la fama 1, la fama, 14410 tlalpan, mexico, ciudad de mexico",31/10/2023 18:41
4449,La Comer Tlalpan,La Comer,la merced,frijol pinto nacional,41.5,900 g,frijol,19.288687,-99.179181,"plazuela de la fama 1, la fama, 14410 tlalpan, mexico, ciudad de mexico",31/10/2023 18:41
4449,La Comer Tlalpan,La Comer,calidad bueno,frijol flor de mayo,44.5,900 g,frijol,19.288687,-99.179181,"plazuela de la fama 1, la fama, 14410 tlalpan, mexico, ciudad de mexico",31/10/2023 18:41
4449,La Comer Tlalpan,La Comer,sos,frijol peruano,57.9,bolsa 900 g,frijol,19.288687,-99.179181,"plazuela de la fama 1, la fama, 14410 tlalpan, mexico, ciudad de mexico",31/10/2023 18:41
4449,La Comer Tlalpan,La Comer,schettino,frijol pinto,35.7,bolsa 900 g,frijol,19.288687,-99.179181,"plazuela de la fama 1, la fama, 14410 tlalpan, mexico, ciudad de mexico",31/10/2023 18:41
4449,La Comer Tlalpan,La Comer,calidad bueno,frijol pinto,37.9,900 g,frijol,19.288687,-99.179181,"plazuela de la fama 1, la fama, 14410 tlalpan, mexico, ciudad de mexico",31/10/2023 18:41
4449,La Comer Tlalpan,La Comer,calidad bueno,frijol peruano,49.9,900 g,frijol,19.288687,-99.179181,"plazuela de la fama 1, la fama, 14410 tlalpan, mexico, ciudad de mexico",31/10/2023 18:41
4449,La Comer Tlalpan,La Comer,calidad bueno,frijol negro michigan,44.0,900 g,frijol,19.288687,-99.179181,"plazuela de la fama 1, la fama, 14410 tlalpan, mexico, ciudad de mexico",31/10/2023 18:41
4449,La Comer Tlalpan,La Comer,gran cosecha,frijol pinto,35.9,900 grs,frijol,19.288687,-99.179181,"plazuela de la fama 1, la fama, 14410 tlalpan, mexico, ciudad de mexico",31/10/2023 18:41
4449,La Comer Tlalpan,La Comer,sos,frijol negro,42.5,bolsa 900 g,frijol,19.288687,-99.179181,"plazuela de la fama 1, la fama, 14410 tlalpan, mexico, ciudad de mexico",31/10/2023 18:41
4449,La Comer Tlalpan,La Comer,sos,frijol pinto,54.11,900 g,frijol,19.288687,-99.179181,"plazuela de la fama 1, la fama, 14410 tlalpan, mexico, ciudad de mexico",31/10/2023 18:41
4449,La Comer Tlalpan,La Comer,ke precio,frijol pinto,24.5,bolsa 900 g,frijol,19.288687,-99.179181,"plazuela de la fama 1, la fama, 14410 tlalpan, mexico, ciudad de mexico",31/10/2023 18:41
4449,La Comer Tlalpan,La Comer,la merced,frijol flor de mayo,44.5,900 g,frijol,19.288687,-99.179181,"plazuela de la fama 1, la fama, 14410 tlalpan, mexico, ciudad de mexico",31/10/2023 18:41
4449,La Comer Tlalpan,La Comer,schettino,frijol negro,22.2,900 g,frijol,19.288687,-99.179181,"plazuela de la fama 1, la fama, 14410 tlalpan, mexico, ciudad de mexico",31/10/2023 18:41
4449,La Comer Tlalpan,La Comer,la merced,frijol peruano,54.2,900 g,frijol,19.288687,-99.179181,"plazuela de la fama 1, la fama, 14410 tlalpan, mexico, ciudad de mexico",31/10/2023 18:41
4449,La Comer Tlalpan,La Comer,schettino,frijol peruano,49.9,900 g,frijol,19.288687,-99.179181,"plazuela de la fama 1, la fama, 14410 tlalpan, mexico, ciudad de mexico",31/10/2023 18:41
4449,La Comer Tlalpan,La Comer,gran cosecha,frijol querétaro premium,36.1,bolsa 900 g,frijol,19.288687,-99.179181,"plazuela de la fama 1, la fama, 14410 tlalpan, mexico, ciudad de mexico",31/10/2023 18:41
4449,La Comer Tlalpan,La Comer,gran cosecha,frijol peruano,53.4,900 grs,frijol,19.288687,-99.179181,"plazuela de la fama 1, la fama, 14410 tlalpan, mexico, ciudad de mexico",31/10/2023 18:41
9991,La Villa,Soriana,verde valle,frijol negro,42.9,bolsa 900 g,frijol,19.465417,-99.125438,"calz de guadalupe 192, vallejo, gustavo a. madero, 07870 ciudad de méxico, cdmx",31/10/2023 18:41
9991,La Villa,Soriana,verde valle,frijol pinto,45.9,bolsa 900 g,frijol,19.465417,-99.125438,"calz de guadalupe 192, vallejo, gustavo a. madero, 07870 ciudad de méxico, cdmx",31/10/2023 18:41
9991,La Villa,Soriana,verde valle,frijol negro jamapa,55.9,bolsa 900 g,frijol,19.465417,-99.125438,"calz de guadalupe 192, vallejo, gustavo a. madero, 07870 ciudad de méxico, cdmx",31/10/2023 18:41
9991,La Villa,Soriana,calidad bueno,frijol bayo,44.9,900 g,frijol,19.465417,-99.125438,"calz de guadalupe 192, vallejo, gustavo a. madero, 07870 ciudad de méxico, cdmx",31/10/2023 18:41
9991,La Villa,Soriana,la merced,frijol negro,41.9,bolsa 900 g,frijol,19.465417,-99.125438,"calz de guadalupe 192, vallejo, gustavo a. madero, 07870 ciudad de méxico, cdmx",31/10/2023 18:41
9991,La Villa,Soriana,la merced,frijol bayo,44.9,bolsa 900 g,frijol,19.465417,-99.125438,"calz de guadalupe 192, vallejo, gustavo a. madero, 07870 ciudad de méxico, cdmx",31/10/2023 18:41
9991,La Villa,Soriana,verde valle,frijol peruano,69.5,bolsa 900 g,frijol,19.465417,-99.125438,"calz de guadalupe 192, vallejo, gustavo a. madero, 07870 ciudad de méxico, cdmx",31/10/2023 18:41
9991,La Villa,Soriana,la merced,frijol pinto nacional,41.5,900 g,frijol,19.465417,-99.125438,"calz de guadalupe 192, vallejo, gustavo a. madero, 07870 ciudad de méxico, cdmx",31/10/2023 18:41
9991,La Villa,Soriana,schettino,frijol pinto,43.5,bolsa 900 g,frijol,19.465417,-99.125438,"calz de guadalupe 192, vallejo, gustavo a. madero, 07870 ciudad de méxico, cdmx",31/10/2023 18:41
9991,La Villa,Soriana,schettino,frijol negro,43.5,900 g,frijol,19.465417,-99.125438,"calz de guadalupe 192, vallejo, gustavo a. madero, 07870 ciudad de méxico, cdmx",31/10/2023 18:41
9991,La Villa,Soriana,la merced,frijol peruano,61.9,900 g,frijol,19.465417,-99.125438,"calz de guadalupe 192, vallejo, gustavo a. madero, 07870 ciudad de méxico, cdmx",31/10/2023 18:41
4449,La Comer Tlalpan,La Comer,vileda,guantes extra sensation g,44.0,bolsa 1 par,guantes+de+plástico,19.288687,-99.179181,"plazuela de la fama 1, la fama, 14410 tlalpan, mexico, ciudad de mexico",31/10/2023 18:41
9993,Paradox Santa Fe,Soriana,tres estrellas,harina de arroz,14.5,200 grs,harina+para+atole,19.357303,-99.273539,"av sta fe 546, lomas de santa fe, contadero, cuajimalpa de morelos, 01219 ciudad de méxico, cdmx",31/10/2023 18:41
4449,La Comer Tlalpan,La Comer,tres estrellas,harina de arroz,13.5,200 grs,harina+para+atole,19.288687,-99.179181,"plazuela de la fama 1, la fama, 14410 tlalpan, mexico, ciudad de mexico",31/10/2023 18:41
9991,La Villa,Soriana,tres estrellas,harina de arroz,14.5,200 grs,harina+para+atole,19.465417,-99.125438,"calz de guadalupe 192, vallejo, gustavo a. madero, 07870 ciudad de méxico, cdmx",31/10/2023 18:41
9993,Paradox Santa Fe,Soriana,escudo,jabón corporal antibacterial,21.0,barra 150 g,jabón+de+barra,19.357303,-99.273539,"av sta fe 546, lomas de santa fe, contadero, cuajimalpa de morelos, 01219 ciudad de méxico, cdmx",31/10/2023 18:41
9993,Paradox Santa Fe,Soriana,escudo,jabón antibacterial,20.5,barra 150 g,jabón+de+barra,19.357303,-99.273539,"av sta fe 546, lomas de santa fe, contadero, cuajimalpa de morelos, 01219 ciudad de méxico, cdmx",31/10/2023 18:41
9993,Paradox Santa Fe,Soriana,escudo,jabón antibacterial,20.5,barra 150 g,jabón+de+barra,19.357303,-99.273539,"av sta fe 546, lomas de santa fe, contadero, cuajimalpa de morelos, 01219 ciudad de méxico, cdmx",31/10/2023 18:41
9993,Paradox Santa Fe,Soriana,lirio,jabón bath y spa miel y avena,19.2,barra 150 g,jabón+de+barra,19.357303,-99.273539,"av sta fe 546, lomas de santa fe, contadero, cuajimalpa de morelos, 01219 ciudad de méxico, cdmx",31/10/2023 18:41
4449,La Comer Tlalpan,La Comer,palmolive,jabón naturals oliva y aloe vera,23.5,barra 150 g,jabón+de+barra,19.288687,-99.179181,"plazuela de la fama 1, la fama, 14410 tlalpan, mexico, ciudad de mexico",31/10/2023 18:41
4449,La Comer Tlalpan,La Comer,escudo,jabón corporal antibacterial,19.0,barra 150 g,jabón+de+barra,19.288687,-99.179181,"plazuela de la fama 1, la fama, 14410 tlalpan, mexico, ciudad de mexico",31/10/2023 18:41
4449,La Comer Tlalpan,La Comer,escudo,jabón antibacterial,19.0,barra 150 g,jabón+de+barra,19.288687,-99.179181,"plazuela de la fama 1, la fama, 14410 tlalpan, mexico, ciudad de mexico",31/10/2023 18:41
4449,La Comer Tlalpan,La Comer,escudo,jabón antibacterial,19.0,barra 150 g,jabón+de+barra,19.288687,-99.179181,"plazuela de la fama 1, la fama, 14410 tlalpan, mexico, ciudad de mexico",31/10/2023 18:41
4449,La Comer Tlalpan,La Comer,neutro balance,jabón men,27.8,barra 150 g,jabón+de+barra,19.288687,-99.179181,"plazuela de la fama 1, la fama, 14410 tlalpan, mexico, ciudad de mexico",31/10/2023 18:41
4449,La Comer Tlalpan,La Comer,rosa venus,jabón de tocador rosa,13.4,barra 150 g,jabón+de+barra,19.288687,-99.179181,"plazuela de la fama 1, la fama, 14410 tlalpan, mexico, ciudad de mexico",31/10/2023 18:41
9991,La Villa,Soriana,escudo,jabón corporal antibacterial,21.0,barra 150 g,jabón+de+barra,19.465417,-99.125438,"calz de guadalupe 192, vallejo, gustavo a. madero, 07870 ciudad de méxico, cdmx",31/10/2023 18:41
9991,La Villa,Soriana,escudo,jabón antibacterial,20.9,barra 150 g,jabón+de+barra,19.465417,-99.125438,"calz de guadalupe 192, vallejo, gustavo a. madero, 07870 ciudad de méxico, cdmx",31/10/2023 18:41
9991,La Villa,Soriana,escudo,jabón antibacterial,20.5,barra 150 g,jabón+de+barra,19.465417,-99.125438,"calz de guadalupe 192, vallejo, gustavo a. madero, 07870 ciudad de méxico, cdmx",31/10/2023 18:41
9991,La Villa,Soriana,lirio,jabón bath y spa miel y avena,19.2,barra 150 g,jabón+de+barra,19.465417,-99.125438,"calz de guadalupe 192, vallejo, gustavo a. madero, 07870 ciudad de méxico, cdmx",31/10/2023 18:41
9991,La Villa,Soriana,escudo,jabón soft protect avena,19.9,barra 150 g,jabón+de+barra,19.465417,-99.125438,"calz de guadalupe 192, vallejo, gustavo a. madero, 07870 ciudad de méxico, cdmx",31/10/2023 18:41
9991,La Villa,Soriana,lirio,jabón frescura natural frutos del bosque,19.2,barra 150 g,jabón+de+barra,19.465417,-99.125438,"calz de guadalupe 192, vallejo, gustavo a. madero, 07870 ciudad de méxico, cdmx",31/10/2023 18:41
9993,Paradox Santa Fe,Soriana,roma,detergente biodegradable en polvo multiusos,41.9,bolsa 1 kg,jabón+en+polvo,19.357303,-99.273539,"av sta fe 546, lomas de santa fe, contadero, cuajimalpa de morelos, 01219 ciudad de méxico, cdmx",31/10/2023 18:41
9993,Paradox Santa Fe,Soriana,ariel,detergente para ropa regular,33.9,750 g,jabón+en+polvo,19.357303,-99.273539,"av sta fe 546, lomas de santa fe, contadero, cuajimalpa de morelos, 01219 ciudad de méxico, cdmx",31/10/2023 18:41
9993,Paradox Santa Fe,Soriana,ariel,detergentes en polvo revitacolor,40.9,bolsa 750 g,jabón+en+polvo,19.357303,-99.273539,"av sta fe 546, lomas de santa fe, contadero, cuajimalpa de morelos, 01219 ciudad de méxico, cdmx",31/10/2023 18:41
9993,Paradox Santa Fe,Soriana,foca,detergente en polvo biodegradable,47.5,bolsa 1 kg,jabón+en+polvo,19.357303,-99.273539,"av sta fe 546, lomas de santa fe, contadero, cuajimalpa de morelos, 01219 ciudad de méxico, cdmx",31/10/2023 18:41
9993,Paradox Santa Fe,Soriana,foca,detergente en polvo biodegradable,95.9,bolsa 2 kg,jabón+en+polvo,19.357303,-99.273539,"av sta fe 546, lomas de santa fe, contadero, cuajimalpa de morelos, 01219 ciudad de méxico, cdmx",31/10/2023 18:41
9993,Paradox Santa Fe,Soriana,blanca nieves,detergente multiusos en polvo,45.5,bolsa 1 kg,jabón+en+polvo,19.357303,-99.273539,"av sta fe 546, lomas de santa fe, contadero, cuajimalpa de morelos, 01219 ciudad de méxico, cdmx",31/10/2023 18:41
9993,Paradox Santa Fe,Soriana,ariel,detergente con un toque de downy,40.9,bolsa 750 g,jabón+en+polvo,19.357303,-99.273539,"av sta fe 546, lomas de santa fe, contadero, cuajimalpa de morelos, 01219 ciudad de méxico, cdmx",31/10/2023 18:41
9993,Paradox Santa Fe,Soriana,carisma,detergente en polvo,99.5,2 kg,jabón+en+polvo,19.357303,-99.273539,"av sta fe 546, lomas de santa fe, contadero, cuajimalpa de morelos, 01219 ciudad de méxico, cdmx",31/10/2023 18:41
4449,La Comer Tlalpan,La Comer,roma,detergente biodegradable en polvo multiusos,38.0,bolsa 1 kg,jabón+en+polvo,19.288687,-99.179181,"plazuela de la fama 1, la fama, 14410 tlalpan, mexico, ciudad de mexico",31/10/2023 18:41
4449,La Comer Tlalpan,La Comer,ariel,detergente para ropa regular,34.0,750 g,jabón+en+polvo,19.288687,-99.179181,"plazuela de la fama 1, la fama, 14410 tlalpan, mexico, ciudad de mexico",31/10/2023 18:41
4449,La Comer Tlalpan,La Comer,foca,detergente en polvo biodegradable,42.0,bolsa 1 kg,jabón+en+polvo,19.288687,-99.179181,"plazuela de la fama 1, la fama, 14410 tlalpan, mexico, ciudad de mexico",31/10/2023 18:41
4449,La Comer Tlalpan,La Comer,123,detergente suavizante y jazmín,34.9,bolsa 800 g,jabón+en+polvo,19.288687,-99.179181,"plazuela de la fama 1, la fama, 14410 tlalpan, mexico, ciudad de mexico",31/10/2023 18:41
4449,La Comer Tlalpan,La Comer,foca,detergente en polvo biodegradable,89.6,bolsa 2 kg,jabón+en+polvo,19.288687,-99.179181,"plazuela de la fama 1, la fama, 14410 tlalpan, mexico, ciudad de mexico",31/10/2023 18:41
4449,La Comer Tlalpan,La Comer,ace,detergente en polvo blanco y colores,80.0,bolsa 2 kg,jabón+en+polvo,19.288687,-99.179181,"plazuela de la fama 1, la fama, 14410 tlalpan, mexico, ciudad de mexico",31/10/2023 18:41
4449,La Comer Tlalpan,La Comer,blanca nieves,detergente multiusos en polvo,42.5,bolsa 1 kg,jabón+en+polvo,19.288687,-99.179181,"plazuela de la fama 1, la fama, 14410 tlalpan, mexico, ciudad de mexico",31/10/2023 18:41
4449,La Comer Tlalpan,La Comer,ariel,detergente con un toque de downy,34.0,bolsa 750 g,jabón+en+polvo,19.288687,-99.179181,"plazuela de la fama 1, la fama, 14410 tlalpan, mexico, ciudad de mexico",31/10/2023 18:41
4449,La Comer Tlalpan,La Comer,carisma,detergente en polvo,92.0,2 kg,jabón+en+polvo,19.288687,-99.179181,"plazuela de la fama 1, la fama, 14410 tlalpan, mexico, ciudad de mexico",31/10/2023 18:41
9991,La Villa,Soriana,roma,detergente biodegradable en polvo multiusos,41.9,bolsa 1 kg,jabón+en+polvo,19.465417,-99.125438,"calz de guadalupe 192, vallejo, gustavo a. madero, 07870 ciudad de méxico, cdmx",31/10/2023 18:41
9991,La Villa,Soriana,ariel,detergente para ropa regular,37.5,750 g,jabón+en+polvo,19.465417,-99.125438,"calz de guadalupe 192, vallejo, gustavo a. madero, 07870 ciudad de méxico, cdmx",31/10/2023 18:41
9991,La Villa,Soriana,ariel,detergentes en polvo revitacolor,40.9,bolsa 750 g,jabón+en+polvo,19.465417,-99.125438,"calz de guadalupe 192, vallejo, gustavo a. madero, 07870 ciudad de méxico, cdmx",31/10/2023 18:41
9991,La Villa,Soriana,foca,detergente en polvo biodegradable,47.5,bolsa 1 kg,jabón+en+polvo,19.465417,-99.125438,"calz de guadalupe 192, vallejo, gustavo a. madero, 07870 ciudad de méxico, cdmx",31/10/2023 18:41
9991,La Villa,Soriana,foca,detergente en polvo biodegradable,95.9,bolsa 2 kg,jabón+en+polvo,19.465417,-99.125438,"calz de guadalupe 192, vallejo, gustavo a. madero, 07870 ciudad de méxico, cdmx",31/10/2023 18:41
9991,La Villa,Soriana,blanca nieves,detergente multiusos en polvo,45.5,bolsa 1 kg,jabón+en+polvo,19.465417,-99.125438,"calz de guadalupe 192, vallejo, gustavo a. madero, 07870 ciudad de méxico, cdmx",31/10/2023 18:41
9991,La Villa,Soriana,carisma,detergente en polvo,97.5,2 kg,jabón+en+polvo,19.465417,-99.125438,"calz de guadalupe 192, vallejo, gustavo a. madero, 07870 ciudad de méxico, cdmx",31/10/2023 18:41
9993,Paradox Santa Fe,Soriana,reynera,jalador largo,94.9,1 pieza,jalador,19.357303,-99.273539,"av sta fe 546, lomas de santa fe, contadero, cuajimalpa de morelos, 01219 ciudad de méxico, cdmx",31/10/2023 18:41
9993,Paradox Santa Fe,Soriana,precíssimo,jalador de neopreno,69.5,1 pieza,jalador,19.357303,-99.273539,"av sta fe 546, lomas de santa fe, contadero, cuajimalpa de morelos, 01219 ciudad de méxico, cdmx",31/10/2023 18:41
9993,Paradox Santa Fe,Soriana,cepimex,jalador cepimex para pisos clásico,111.0,1 pza,jalador,19.357303,-99.273539,"av sta fe 546, lomas de santa fe, contadero, cuajimalpa de morelos, 01219 ciudad de méxico, cdmx",31/10/2023 18:41
4449,La Comer Tlalpan,La Comer,scotch-brite,jalador de piso,144.0,1 pieza,jalador,19.288687,-99.179181,"plazuela de la fama 1, la fama, 14410 tlalpan, mexico, ciudad de mexico",31/10/2023 18:41
4449,La Comer Tlalpan,La Comer,reynera,jalador largo,95.7,1 pieza,jalador,19.288687,-99.179181,"plazuela de la fama 1, la fama, 14410 tlalpan, mexico, ciudad de mexico",31/10/2023 18:41
4449,La Comer Tlalpan,La Comer,joselyn,jalador de agua 30 cm acero 0916,65.8,1 pza,jalador,19.288687,-99.179181,"plazuela de la fama 1, la fama, 14410 tlalpan, mexico, ciudad de mexico",31/10/2023 18:41
4449,La Comer Tlalpan,La Comer,ke precio,jalador economico 40 cm 0618,58.0,1 pza,jalador,19.288687,-99.179181,"plazuela de la fama 1, la fama, 14410 tlalpan, mexico, ciudad de mexico",31/10/2023 18:41
9991,La Villa,Soriana,reynera,jalador largo,95.9,1 pieza,jalador,19.465417,-99.125438,"calz de guadalupe 192, vallejo, gustavo a. madero, 07870 ciudad de méxico, cdmx",31/10/2023 18:41
9991,La Villa,Soriana,joselyn,jalador de agua 30 cm acero 0916,78.0,1 pza,jalador,19.465417,-99.125438,"calz de guadalupe 192, vallejo, gustavo a. madero, 07870 ciudad de méxico, cdmx",31/10/2023 18:41
9991,La Villa,Soriana,precíssimo,jalador de neopreno,66.9,1 pieza,jalador,19.465417,-99.125438,"calz de guadalupe 192, vallejo, gustavo a. madero, 07870 ciudad de méxico, cdmx",31/10/2023 18:41
9991,La Villa,Soriana,soriana,jalador hule no. 40,60.0,1 pieza,jalador,19.465417,-99.125438,"calz de guadalupe 192, vallejo, gustavo a. madero, 07870 ciudad de méxico, cdmx",31/10/2023 18:41
9993,Paradox Santa Fe,Soriana,precíssimo,jerga roja,26.4,1 pieza,jergas,19.357303,-99.273539,"av sta fe 546, lomas de santa fe, contadero, cuajimalpa de morelos, 01219 ciudad de méxico, cdmx",31/10/2023 18:41
9993,Paradox Santa Fe,Soriana,precíssimo,jerga rayada,23.0,1 pieza,jergas,19.357303,-99.273539,"av sta fe 546, lomas de santa fe, contadero, cuajimalpa de morelos, 01219 ciudad de méxico, cdmx",31/10/2023 18:41
4449,La Comer Tlalpan,La Comer,orbis,jerga doble cara,32.4,1 pieza,jergas,19.288687,-99.179181,"plazuela de la fama 1, la fama, 14410 tlalpan, mexico, ciudad de mexico",31/10/2023 18:41
4449,La Comer Tlalpan,La Comer,ke precio,jerga roja,12.8,1 pieza,jergas,19.288687,-99.179181,"plazuela de la fama 1, la fama, 14410 tlalpan, mexico, ciudad de mexico",31/10/2023 18:41
4449,La Comer Tlalpan,La Comer,ke precio,jerga de piso,28.8,1 pieza,jergas,19.288687,-99.179181,"plazuela de la fama 1, la fama, 14410 tlalpan, mexico, ciudad de mexico",31/10/2023 18:41
4449,La Comer Tlalpan,La Comer,ke precio,jerga verde de piso,24.0,1 pieza,jergas,19.288687,-99.179181,"plazuela de la fama 1, la fama, 14410 tlalpan, mexico, ciudad de mexico",31/10/2023 18:41
4449,La Comer Tlalpan,La Comer,orbis,jerga especial,27.8,1 pieza,jergas,19.288687,-99.179181,"plazuela de la fama 1, la fama, 14410 tlalpan, mexico, ciudad de mexico",31/10/2023 18:41
4449,La Comer Tlalpan,La Comer,ke precio,jerga automotriz,26.9,1 pieza,jergas,19.288687,-99.179181,"plazuela de la fama 1, la fama, 14410 tlalpan, mexico, ciudad de mexico",31/10/2023 18:41
9991,La Villa,Soriana,precíssimo,jerga roja,25.6,1 pieza,jergas,19.465417,-99.125438,"calz de guadalupe 192, vallejo, gustavo a. madero, 07870 ciudad de méxico, cdmx",31/10/2023 18:41
9991,La Villa,Soriana,precíssimo,jerga rayada,23.0,1 pieza,jergas,19.465417,-99.125438,"calz de guadalupe 192, vallejo, gustavo a. madero, 07870 ciudad de méxico, cdmx",31/10/2023 18:41
9991,La Villa,Soriana,precíssimo,jerga roja,29.5,1 pieza,jergas,19.465417,-99.125438,"calz de guadalupe 192, vallejo, gustavo a. madero, 07870 ciudad de méxico, cdmx",31/10/2023 18:41
9991,La Villa,Soriana,precíssimo,jerga roja,24.5,1 pieza,jergas,19.465417,-99.125438,"calz de guadalupe 192, vallejo, gustavo a. madero, 07870 ciudad de méxico, cdmx",31/10/2023 18:41
9993,Paradox Santa Fe,Soriana,la costeña,chiles jalapeños picados en escabeche,19.4,lata 220 g,lata+de+chiles,19.357303,-99.273539,"av sta fe 546, lomas de santa fe, contadero, cuajimalpa de morelos, 01219 ciudad de méxico, cdmx",31/10/2023 18:41
4449,La Comer Tlalpan,La Comer,la costeña,chiles jalapeños picados en escabeche,18.5,lata 220 g,lata+de+chiles,19.288687,-99.179181,"plazuela de la fama 1, la fama, 14410 tlalpan, mexico, ciudad de mexico",31/10/2023 18:41
4449,La Comer Tlalpan,La Comer,la costeña,chiles serranos toreados con cebolla,25.8,lata 220 g,lata+de+chiles,19.288687,-99.179181,"plazuela de la fama 1, la fama, 14410 tlalpan, mexico, ciudad de mexico",31/10/2023 18:41
4449,La Comer Tlalpan,La Comer,clemente jacques,chiles jalapeños para nachos,14.5,lata 220 g,lata+de+chiles,19.288687,-99.179181,"plazuela de la fama 1, la fama, 14410 tlalpan, mexico, ciudad de mexico",31/10/2023 18:41
4449,La Comer Tlalpan,La Comer,la costeña,chiles serranos para nachos,24.5,lata 220 g,lata+de+chiles,19.288687,-99.179181,"plazuela de la fama 1, la fama, 14410 tlalpan, mexico, ciudad de mexico",31/10/2023 18:41
9991,La Villa,Soriana,la costeña,chiles jalapeños picados en escabeche,18.5,lata 220 g,lata+de+chiles,19.465417,-99.125438,"calz de guadalupe 192, vallejo, gustavo a. madero, 07870 ciudad de méxico, cdmx",31/10/2023 18:41
9991,La Villa,Soriana,la costeña,chiles serranos toreados con cebolla,26.9,lata 220 g,lata+de+chiles,19.465417,-99.125438,"calz de guadalupe 192, vallejo, gustavo a. madero, 07870 ciudad de méxico, cdmx",31/10/2023 18:41
9991,La Villa,Soriana,clemente jacques,chiles jalapeños para nachos,13.7,lata 220 g,lata+de+chiles,19.465417,-99.125438,"calz de guadalupe 192, vallejo, gustavo a. madero, 07870 ciudad de méxico, cdmx",31/10/2023 18:41
4449,La Comer Tlalpan,La Comer,la merced,lentejas,23.9,bolsa 454 g,arroz,19.288687,-99.179181,"plazuela de la fama 1, la fama, 14410 tlalpan, mexico, ciudad de mexico",31/10/2023 18:41
4449,La Comer Tlalpan,La Comer,san lazaro,lentejas,28.8,500 g,arroz,19.288687,-99.179181,"plazuela de la fama 1, la fama, 14410 tlalpan, mexico, ciudad de mexico",31/10/2023 18:41
4449,La Comer Tlalpan,La Comer,san lazaro,lenteja,53.3,1 kg,arroz,19.288687,-99.179181,"plazuela de la fama 1, la fama, 14410 tlalpan, mexico, ciudad de mexico",31/10/2023 18:41
9993,Paradox Santa Fe,Soriana,verde valle,lentejas,38.9,bolsa 500 g,lenteja,19.357303,-99.273539,"av sta fe 546, lomas de santa fe, contadero, cuajimalpa de morelos, 01219 ciudad de méxico, cdmx",31/10/2023 18:41
9993,Paradox Santa Fe,Soriana,cidacos,lentejas extra grandes,57.0,570 g.,lenteja,19.357303,-99.273539,"av sta fe 546, lomas de santa fe, contadero, cuajimalpa de morelos, 01219 ciudad de méxico, cdmx",31/10/2023 18:41
9993,Paradox Santa Fe,Soriana,la merced,lentejas,25.9,500 g,lenteja,19.357303,-99.273539,"av sta fe 546, lomas de santa fe, contadero, cuajimalpa de morelos, 01219 ciudad de méxico, cdmx",31/10/2023 18:41
4449,La Comer Tlalpan,La Comer,verde valle,lentejas,33.5,bolsa 500 g,lenteja,19.288687,-99.179181,"plazuela de la fama 1, la fama, 14410 tlalpan, mexico, ciudad de mexico",31/10/2023 18:41
4449,La Comer Tlalpan,La Comer,schettino,lentejas,22.48,500 g,lenteja,19.288687,-99.179181,"plazuela de la fama 1, la fama, 14410 tlalpan, mexico, ciudad de mexico",31/10/2023 18:41
4449,La Comer Tlalpan,La Comer,lima limón,lentejas rojas,88.0,500 g,lenteja,19.288687,-99.179181,"plazuela de la fama 1, la fama, 14410 tlalpan, mexico, ciudad de mexico",31/10/2023 18:41
4449,La Comer Tlalpan,La Comer,calidad bueno,lenteja,27.9,500 g,lenteja,19.288687,-99.179181,"plazuela de la fama 1, la fama, 14410 tlalpan, mexico, ciudad de mexico",31/10/2023 18:41
4449,La Comer Tlalpan,La Comer,lima limón,lentejas verdes,88.0,500 g,lenteja,19.288687,-99.179181,"plazuela de la fama 1, la fama, 14410 tlalpan, mexico, ciudad de mexico",31/10/2023 18:41
4449,La Comer Tlalpan,La Comer,la merced,lentejas,23.9,bolsa 454 g,lenteja,19.288687,-99.179181,"plazuela de la fama 1, la fama, 14410 tlalpan, mexico, ciudad de mexico",31/10/2023 18:41
4449,La Comer Tlalpan,La Comer,san lazaro,lentejas,28.8,500 g,lenteja,19.288687,-99.179181,"plazuela de la fama 1, la fama, 14410 tlalpan, mexico, ciudad de mexico",31/10/2023 18:41
4449,La Comer Tlalpan,La Comer,san lazaro,lenteja,53.3,1 kg,lenteja,19.288687,-99.179181,"plazuela de la fama 1, la fama, 14410 tlalpan, mexico, ciudad de mexico",31/10/2023 18:41
9991,La Villa,Soriana,verde valle,lentejas,38.9,bolsa 500 g,lenteja,19.465417,-99.125438,"calz de guadalupe 192, vallejo, gustavo a. madero, 07870 ciudad de méxico, cdmx",31/10/2023 18:41
9991,La Villa,Soriana,la merced,lentejas,25.9,500 g,lenteja,19.465417,-99.125438,"calz de guadalupe 192, vallejo, gustavo a. madero, 07870 ciudad de méxico, cdmx",31/10/2023 18:41
9993,Paradox Santa Fe,Soriana,verde valle,lentejas,38.9,bolsa 500 g,fibra,19.357303,-99.273539,"av sta fe 546, lomas de santa fe, contadero, cuajimalpa de morelos, 01219 ciudad de méxico, cdmx",31/10/2023 18:41
4449,La Comer Tlalpan,La Comer,verde valle,lentejas,33.5,bolsa 500 g,fibra,19.288687,-99.179181,"plazuela de la fama 1, la fama, 14410 tlalpan, mexico, ciudad de mexico",31/10/2023 18:41
9991,La Villa,Soriana,verde valle,lentejas,38.9,bolsa 500 g,fibra,19.465417,-99.125438,"calz de guadalupe 192, vallejo, gustavo a. madero, 07870 ciudad de méxico, cdmx",31/10/2023 18:41
9993,Paradox Santa Fe,Soriana,alex,limpiador para pisos de madera,70.0,botella 750 ml,limpiador+para+pisos,19.357303,-99.273539,"av sta fe 546, lomas de santa fe, contadero, cuajimalpa de morelos, 01219 ciudad de méxico, cdmx",31/10/2023 18:41
9993,Paradox Santa Fe,Soriana,pinol,limpiador aromas therapy,52.9,botella 2 l,limpiador+para+pisos,19.357303,-99.273539,"av sta fe 546, lomas de santa fe, contadero, cuajimalpa de morelos, 01219 ciudad de méxico, cdmx",31/10/2023 18:41
9993,Paradox Santa Fe,Soriana,alex,limpiador extra eficaz pisos laminados,86.0,botella 750 ml,limpiador+para+pisos,19.357303,-99.273539,"av sta fe 546, lomas de santa fe, contadero, cuajimalpa de morelos, 01219 ciudad de méxico, cdmx",31/10/2023 18:41
9993,Paradox Santa Fe,Soriana,pinol,limpiador para pisos lavanda,90.5,galón 3.785 l,limpiador+para+pisos,19.357303,-99.273539,"av sta fe 546, lomas de santa fe, contadero, cuajimalpa de morelos, 01219 ciudad de méxico, cdmx",31/10/2023 18:41
9993,Paradox Santa Fe,Soriana,sanytol,limpiador desinfectante para pisos,62.9,botella 1 l,limpiador+para+pisos,19.357303,-99.273539,"av sta fe 546, lomas de santa fe, contadero, cuajimalpa de morelos, 01219 ciudad de méxico, cdmx",31/10/2023 18:41
9993,Paradox Santa Fe,Soriana,alex,limpiador piso de madera,91.5,botella 750 ml,limpiador+para+pisos,19.357303,-99.273539,"av sta fe 546, lomas de santa fe, contadero, cuajimalpa de morelos, 01219 ciudad de méxico, cdmx",31/10/2023 18:41
9993,Paradox Santa Fe,Soriana,cloralex,limpiador desinfectante mascotas,92.5,galón 3.75 l,limpiador+para+pisos,19.357303,-99.273539,"av sta fe 546, lomas de santa fe, contadero, cuajimalpa de morelos, 01219 ciudad de méxico, cdmx",31/10/2023 18:41
9993,Paradox Santa Fe,Soriana,pinol,limpiador líquido multiusos el original,52.5,botella 2 l,limpiador+para+pisos,19.357303,-99.273539,"av sta fe 546, lomas de santa fe, contadero, cuajimalpa de morelos, 01219 ciudad de méxico, cdmx",31/10/2023 18:41
9993,Paradox Santa Fe,Soriana,poett,limpiador aromatizante primavera,57.9,botella 4 l,limpiador+para+pisos,19.357303,-99.273539,"av sta fe 546, lomas de santa fe, contadero, cuajimalpa de morelos, 01219 ciudad de méxico, cdmx",31/10/2023 18:41
9993,Paradox Santa Fe,Soriana,cloralex,limpiador mascotas eliminador de olores,55.2,botella 950 ml,limpiador+para+pisos,19.357303,-99.273539,"av sta fe 546, lomas de santa fe, contadero, cuajimalpa de morelos, 01219 ciudad de méxico, cdmx",31/10/2023 18:41
9993,Paradox Santa Fe,Soriana,poett,limpiador aromatizante primavera,36.5,botella 1.8 l,limpiador+para+pisos,19.357303,-99.273539,"av sta fe 546, lomas de santa fe, contadero, cuajimalpa de morelos, 01219 ciudad de méxico, cdmx",31/10/2023 18:41
9993,Paradox Santa Fe,Soriana,poett,limpiador aromatizante primavera,15.95,900 ml,limpiador+para+pisos,19.357303,-99.273539,"av sta fe 546, lomas de santa fe, contadero, cuajimalpa de morelos, 01219 ciudad de méxico, cdmx",31/10/2023 18:41
9993,Paradox Santa Fe,Soriana,pinol,limpiador antibacterial aromas lavanda,52.9,botella 2 l,limpiador+para+pisos,19.357303,-99.273539,"av sta fe 546, lomas de santa fe, contadero, cuajimalpa de morelos, 01219 ciudad de méxico, cdmx",31/10/2023 18:41
9993,Paradox Santa Fe,Soriana,windex,limpiador para vidrios sin amoníaco,67.5,atomizador 640 ml,limpiador+para+pisos,19.357303,-99.273539,"av sta fe 546, lomas de santa fe, contadero, cuajimalpa de morelos, 01219 ciudad de méxico, cdmx",31/10/2023 18:41
9993,Paradox Santa Fe,Soriana,pinol,limpiador multiusos desinfectante,30.5,botella 1 l,limpiador+para+pisos,19.357303,-99.273539,"av sta fe 546, lomas de santa fe, contadero, cuajimalpa de morelos, 01219 ciudad de méxico, cdmx",31/10/2023 18:41
9993,Paradox Santa Fe,Soriana,poett,limpiador alegra tu día,13.9,900 ml,limpiador+para+pisos,19.357303,-99.273539,"av sta fe 546, lomas de santa fe, contadero, cuajimalpa de morelos, 01219 ciudad de méxico, cdmx",31/10/2023 18:41
9993,Paradox Santa Fe,Soriana,cloralex,limpiador desinfectante fresco,53.9,botella 1.65 l,limpiador+para+pisos,19.357303,-99.273539,"av sta fe 546, lomas de santa fe, contadero, cuajimalpa de morelos, 01219 ciudad de méxico, cdmx",31/10/2023 18:41
9993,Paradox Santa Fe,Soriana,fabuloso,limpiador líquido eucalipto y cítricos,75.9,botella 1.7 l,limpiador+para+pisos,19.357303,-99.273539,"av sta fe 546, lomas de santa fe, contadero, cuajimalpa de morelos, 01219 ciudad de méxico, cdmx",31/10/2023 18:41
9993,Paradox Santa Fe,Soriana,fabuloso,limpiador multiusos rosa y lychee,50.5,botella 1.7 l,limpiador+para+pisos,19.357303,-99.273539,"av sta fe 546, lomas de santa fe, contadero, cuajimalpa de morelos, 01219 ciudad de méxico, cdmx",31/10/2023 18:41
9993,Paradox Santa Fe,Soriana,fabuloso,limpiador frescura natural,70.9,1.7 l,limpiador+para+pisos,19.357303,-99.273539,"av sta fe 546, lomas de santa fe, contadero, cuajimalpa de morelos, 01219 ciudad de méxico, cdmx",31/10/2023 18:41
9993,Paradox Santa Fe,Soriana,fabuloso,limpiador frescura frutas,36.5,botella 1 l,limpiador+para+pisos,19.357303,-99.273539,"av sta fe 546, lomas de santa fe, contadero, cuajimalpa de morelos, 01219 ciudad de méxico, cdmx",31/10/2023 18:41
9993,Paradox Santa Fe,Soriana,fabuloso,limpiador multiusos frescura activa limón,42.9,botella 1.65 l,limpiador+para+pisos,19.357303,-99.273539,"av sta fe 546, lomas de santa fe, contadero, cuajimalpa de morelos, 01219 ciudad de méxico, cdmx",31/10/2023 18:41
9993,Paradox Santa Fe,Soriana,fabuloso,limpiador multiusos flor de loto y jazmín,50.5,botella 1.7 l,limpiador+para+pisos,19.357303,-99.273539,"av sta fe 546, lomas de santa fe, contadero, cuajimalpa de morelos, 01219 ciudad de méxico, cdmx",31/10/2023 18:41
9993,Paradox Santa Fe,Soriana,precíssimo,limpiador multiusos pino,45.0,galón 5 l,limpiador+para+pisos,19.357303,-99.273539,"av sta fe 546, lomas de santa fe, contadero, cuajimalpa de morelos, 01219 ciudad de méxico, cdmx",31/10/2023 18:41
9993,Paradox Santa Fe,Soriana,ajax,limpiador líquido multiusos para mascotas,44.7,botella 1 l,limpiador+para+pisos,19.357303,-99.273539,"av sta fe 546, lomas de santa fe, contadero, cuajimalpa de morelos, 01219 ciudad de méxico, cdmx",31/10/2023 18:41
9993,Paradox Santa Fe,Soriana,brasso,limpiador multiusos gold lavanda intensa,16.9,botella 870 ml,limpiador+para+pisos,19.357303,-99.273539,"av sta fe 546, lomas de santa fe, contadero, cuajimalpa de morelos, 01219 ciudad de méxico, cdmx",31/10/2023 18:41
9993,Paradox Santa Fe,Soriana,brasso,limpiador multiuso gold delicia floral,16.9,botella 870 ml,limpiador+para+pisos,19.357303,-99.273539,"av sta fe 546, lomas de santa fe, contadero, cuajimalpa de morelos, 01219 ciudad de méxico, cdmx",31/10/2023 18:41
9993,Paradox Santa Fe,Soriana,brasso,limpiador multiusos gold,16.9,botella 870 ml,limpiador+para+pisos,19.357303,-99.273539,"av sta fe 546, lomas de santa fe, contadero, cuajimalpa de morelos, 01219 ciudad de méxico, cdmx",31/10/2023 18:41
9993,Paradox Santa Fe,Soriana,precíssimo,limpiador multiusos limón,45.0,5 l,limpiador+para+pisos,19.357303,-99.273539,"av sta fe 546, lomas de santa fe, contadero, cuajimalpa de morelos, 01219 ciudad de méxico, cdmx",31/10/2023 18:41
9993,Paradox Santa Fe,Soriana,pinol,limpiador pinol pouch,20.0,450 mililitro,limpiador+para+pisos,19.357303,-99.273539,"av sta fe 546, lomas de santa fe, contadero, cuajimalpa de morelos, 01219 ciudad de méxico, cdmx",31/10/2023 18:41
9993,Paradox Santa Fe,Soriana,only for,limpiador multiusos antibacterial,72.0,946 ml,limpiador+para+pisos,19.357303,-99.273539,"av sta fe 546, lomas de santa fe, contadero, cuajimalpa de morelos, 01219 ciudad de méxico, cdmx",31/10/2023 18:41
9993,Paradox Santa Fe,Soriana,soriana,limpiador wc,39.0,750ml,limpiador+para+pisos,19.357303,-99.273539,"av sta fe 546, lomas de santa fe, contadero, cuajimalpa de morelos, 01219 ciudad de méxico, cdmx",31/10/2023 18:41
9993,Paradox Santa Fe,Soriana,pinol,limpiador multiusos original,30.9,poett,limpiador+para+pisos,19.357303,-99.273539,"av sta fe 546, lomas de santa fe, contadero, cuajimalpa de morelos, 01219 ciudad de méxico, cdmx",31/10/2023 18:41
9993,Paradox Santa Fe,Soriana,pinol,limpiador el original lavanda eucalipto,30.9,botella 1 l,limpiador+para+pisos,19.357303,-99.273539,"av sta fe 546, lomas de santa fe, contadero, cuajimalpa de morelos, 01219 ciudad de méxico, cdmx",31/10/2023 18:41
9993,Paradox Santa Fe,Soriana,lysol,limpiador líquido desinfectante,205.0,botella 5 l,limpiador+para+pisos,19.357303,-99.273539,"av sta fe 546, lomas de santa fe, contadero, cuajimalpa de morelos, 01219 ciudad de méxico, cdmx",31/10/2023 18:41
9993,Paradox Santa Fe,Soriana,poett,limpiador espíritu play,71.5,botella 4 l,limpiador+para+pisos,19.357303,-99.273539,"av sta fe 546, lomas de santa fe, contadero, cuajimalpa de morelos, 01219 ciudad de méxico, cdmx",31/10/2023 18:41
9993,Paradox Santa Fe,Soriana,pinol,limpiador líquido aromas marino,24.5,828 ml,limpiador+para+pisos,19.357303,-99.273539,"av sta fe 546, lomas de santa fe, contadero, cuajimalpa de morelos, 01219 ciudad de méxico, cdmx",31/10/2023 18:41
9993,Paradox Santa Fe,Soriana,poett,limpiador espíritu play,13.9,botella 900 ml,limpiador+para+pisos,19.357303,-99.273539,"av sta fe 546, lomas de santa fe, contadero, cuajimalpa de morelos, 01219 ciudad de méxico, cdmx",31/10/2023 18:41
9993,Paradox Santa Fe,Soriana,poett,limpiador espíritu play,25.9,botella 1.8 l,limpiador+para+pisos,19.357303,-99.273539,"av sta fe 546, lomas de santa fe, contadero, cuajimalpa de morelos, 01219 ciudad de méxico, cdmx",31/10/2023 18:41
9993,Paradox Santa Fe,Soriana,ajax,limpiador líquido pino,51.9,botella 2 l,limpiador+para+pisos,19.357303,-99.273539,"av sta fe 546, lomas de santa fe, contadero, cuajimalpa de morelos, 01219 ciudad de méxico, cdmx",31/10/2023 18:41
4449,La Comer Tlalpan,La Comer,alex,limpiador para pisos de madera,79.5,botella 750 ml,limpiador+para+pisos,19.288687,-99.179181,"plazuela de la fama 1, la fama, 14410 tlalpan, mexico, ciudad de mexico",31/10/2023 18:41
4449,La Comer Tlalpan,La Comer,pinol,limpiador aromas therapy,48.5,botella 2 l,limpiador+para+pisos,19.288687,-99.179181,"plazuela de la fama 1, la fama, 14410 tlalpan, mexico, ciudad de mexico",31/10/2023 18:41
4449,La Comer Tlalpan,La Comer,alex,limpiador extra eficaz pisos laminados,79.5,botella 750 ml,limpiador+para+pisos,19.288687,-99.179181,"plazuela de la fama 1, la fama, 14410 tlalpan, mexico, ciudad de mexico",31/10/2023 18:41
4449,La Comer Tlalpan,La Comer,alex,limpiador cuidado extra pisos laminados,86.5,botella 750 ml,limpiador+para+pisos,19.288687,-99.179181,"plazuela de la fama 1, la fama, 14410 tlalpan, mexico, ciudad de mexico",31/10/2023 18:41
4449,La Comer Tlalpan,La Comer,pinol,limpiador para pisos lavanda,86.9,galón 3.785 l,limpiador+para+pisos,19.288687,-99.179181,"plazuela de la fama 1, la fama, 14410 tlalpan, mexico, ciudad de mexico",31/10/2023 18:41
4449,La Comer Tlalpan,La Comer,kuxtal,limpiador de pisos biodegradable,60.3,botella 1 l,limpiador+para+pisos,19.288687,-99.179181,"plazuela de la fama 1, la fama, 14410 tlalpan, mexico, ciudad de mexico",31/10/2023 18:41
4449,La Comer Tlalpan,La Comer,alex,limpiador de pisos de madera,212.5,botella 2 l,limpiador+para+pisos,19.288687,-99.179181,"plazuela de la fama 1, la fama, 14410 tlalpan, mexico, ciudad de mexico",31/10/2023 18:41
4449,La Comer Tlalpan,La Comer,va!,limpiador para pisos y muebles de madera,55.0,1 l,limpiador+para+pisos,19.288687,-99.179181,"plazuela de la fama 1, la fama, 14410 tlalpan, mexico, ciudad de mexico",31/10/2023 18:41
4449,La Comer Tlalpan,La Comer,sanytol,limpiador desinfectante pisos y superficies,183.02,5 l,limpiador+para+pisos,19.288687,-99.179181,"plazuela de la fama 1, la fama, 14410 tlalpan, mexico, ciudad de mexico",31/10/2023 18:41
4449,La Comer Tlalpan,La Comer,alex,limpiador piso de madera,86.5,botella 750 ml,limpiador+para+pisos,19.288687,-99.179181,"plazuela de la fama 1, la fama, 14410 tlalpan, mexico, ciudad de mexico",31/10/2023 18:41
4449,La Comer Tlalpan,La Comer,cloralex,limpiador desinfectante mascotas,89.5,galón 3.75 l,limpiador+para+pisos,19.288687,-99.179181,"plazuela de la fama 1, la fama, 14410 tlalpan, mexico, ciudad de mexico",31/10/2023 18:41
4449,La Comer Tlalpan,La Comer,poett,limpiador aromatizante primavera,61.0,botella 4 l,limpiador+para+pisos,19.288687,-99.179181,"plazuela de la fama 1, la fama, 14410 tlalpan, mexico, ciudad de mexico",31/10/2023 18:41
4449,La Comer Tlalpan,La Comer,cloralex,limpiador mascotas eliminador de olores,55.0,botella 950 ml,limpiador+para+pisos,19.288687,-99.179181,"plazuela de la fama 1, la fama, 14410 tlalpan, mexico, ciudad de mexico",31/10/2023 18:41
4449,La Comer Tlalpan,La Comer,poett,limpiador aromatizante primavera,34.5,botella 1.8 l,limpiador+para+pisos,19.288687,-99.179181,"plazuela de la fama 1, la fama, 14410 tlalpan, mexico, ciudad de mexico",31/10/2023 18:41
4449,La Comer Tlalpan,La Comer,poett,limpiador alegra tu día,34.5,botella 1.8 l,limpiador+para+pisos,19.288687,-99.179181,"plazuela de la fama 1, la fama, 14410 tlalpan, mexico, ciudad de mexico",31/10/2023 18:41
4449,La Comer Tlalpan,La Comer,poett,limpiador aromatizante primavera,18.5,900 ml,limpiador+para+pisos,19.288687,-99.179181,"plazuela de la fama 1, la fama, 14410 tlalpan, mexico, ciudad de mexico",31/10/2023 18:41
4449,La Comer Tlalpan,La Comer,pinol,limpiador antibacterial aromas lavanda,48.5,botella 2 l,limpiador+para+pisos,19.288687,-99.179181,"plazuela de la fama 1, la fama, 14410 tlalpan, mexico, ciudad de mexico",31/10/2023 18:41
4449,La Comer Tlalpan,La Comer,windex,limpiador para vidrios sin amoníaco,57.5,atomizador 640 ml,limpiador+para+pisos,19.288687,-99.179181,"plazuela de la fama 1, la fama, 14410 tlalpan, mexico, ciudad de mexico",31/10/2023 18:41
4449,La Comer Tlalpan,La Comer,pinol,limpiador multiusos desinfectante,29.2,botella 1 l,limpiador+para+pisos,19.288687,-99.179181,"plazuela de la fama 1, la fama, 14410 tlalpan, mexico, ciudad de mexico",31/10/2023 18:41
4449,La Comer Tlalpan,La Comer,poett,limpiador alegra tu día,18.5,900 ml,limpiador+para+pisos,19.288687,-99.179181,"plazuela de la fama 1, la fama, 14410 tlalpan, mexico, ciudad de mexico",31/10/2023 18:41
4449,La Comer Tlalpan,La Comer,poett,limpiador aromatizante lavanda,34.5,botella 1.8 l,limpiador+para+pisos,19.288687,-99.179181,"plazuela de la fama 1, la fama, 14410 tlalpan, mexico, ciudad de mexico",31/10/2023 18:41
4449,La Comer Tlalpan,La Comer,cloralex,limpiador desinfectante fresco,65.3,botella 1.65 l,limpiador+para+pisos,19.288687,-99.179181,"plazuela de la fama 1, la fama, 14410 tlalpan, mexico, ciudad de mexico",31/10/2023 18:41
4449,La Comer Tlalpan,La Comer,pinol,limpiador líquido fragancias finas,41.0,botella 1.6 l,limpiador+para+pisos,19.288687,-99.179181,"plazuela de la fama 1, la fama, 14410 tlalpan, mexico, ciudad de mexico",31/10/2023 18:41
4449,La Comer Tlalpan,La Comer,fabuloso,limpiador líquido eucalipto y cítricos,72.0,botella 1.7 l,limpiador+para+pisos,19.288687,-99.179181,"plazuela de la fama 1, la fama, 14410 tlalpan, mexico, ciudad de mexico",31/10/2023 18:41
4449,La Comer Tlalpan,La Comer,harpic,limpiador líquido para baños lavanda,63.0,atomizador 650 ml,limpiador+para+pisos,19.288687,-99.179181,"plazuela de la fama 1, la fama, 14410 tlalpan, mexico, ciudad de mexico",31/10/2023 18:41
4449,La Comer Tlalpan,La Comer,fabuloso,limpiador multiusos rosa y lychee,48.0,botella 1.7 l,limpiador+para+pisos,19.288687,-99.179181,"plazuela de la fama 1, la fama, 14410 tlalpan, mexico, ciudad de mexico",31/10/2023 18:41
4449,La Comer Tlalpan,La Comer,fabuloso,limpiador frescura natural,72.0,1.7 l,limpiador+para+pisos,19.288687,-99.179181,"plazuela de la fama 1, la fama, 14410 tlalpan, mexico, ciudad de mexico",31/10/2023 18:41
4449,La Comer Tlalpan,La Comer,fabuloso,limpiador frescura frutas,36.5,botella 1 l,limpiador+para+pisos,19.288687,-99.179181,"plazuela de la fama 1, la fama, 14410 tlalpan, mexico, ciudad de mexico",31/10/2023 18:41
4449,La Comer Tlalpan,La Comer,fabuloso,limpiador multiusos flor de loto y jazmín,48.0,botella 1.7 l,limpiador+para+pisos,19.288687,-99.179181,"plazuela de la fama 1, la fama, 14410 tlalpan, mexico, ciudad de mexico",31/10/2023 18:41
4449,La Comer Tlalpan,La Comer,fabuloso,limpiador multiusos limón refrescante,125.0,botella 5 l,limpiador+para+pisos,19.288687,-99.179181,"plazuela de la fama 1, la fama, 14410 tlalpan, mexico, ciudad de mexico",31/10/2023 18:41
4449,La Comer Tlalpan,La Comer,lysol,limpiador desinfectante pure citrus,41.0,820 ml,limpiador+para+pisos,19.288687,-99.179181,"plazuela de la fama 1, la fama, 14410 tlalpan, mexico, ciudad de mexico",31/10/2023 18:41
4449,La Comer Tlalpan,La Comer,kuxtal,bio limpiador multisuperficies,61.2,botella 1 l,limpiador+para+pisos,19.288687,-99.179181,"plazuela de la fama 1, la fama, 14410 tlalpan, mexico, ciudad de mexico",31/10/2023 18:41
4449,La Comer Tlalpan,La Comer,pinol,limpiador líquido fragancias finas,48.0,botella 1.6 l,limpiador+para+pisos,19.288687,-99.179181,"plazuela de la fama 1, la fama, 14410 tlalpan, mexico, ciudad de mexico",31/10/2023 18:41
4449,La Comer Tlalpan,La Comer,pinol,limpiador líquido multiusos floral,47.9,botella 1.65 l,limpiador+para+pisos,19.288687,-99.179181,"plazuela de la fama 1, la fama, 14410 tlalpan, mexico, ciudad de mexico",31/10/2023 18:41
4449,La Comer Tlalpan,La Comer,pinol,multilimpiador desinfectante floral,86.9,3.785 l,limpiador+para+pisos,19.288687,-99.179181,"plazuela de la fama 1, la fama, 14410 tlalpan, mexico, ciudad de mexico",31/10/2023 18:41
4449,La Comer Tlalpan,La Comer,pinol,limpiador fragancias finas frescura nocturna,48.0,botella 1.6 l,limpiador+para+pisos,19.288687,-99.179181,"plazuela de la fama 1, la fama, 14410 tlalpan, mexico, ciudad de mexico",31/10/2023 18:41
4449,La Comer Tlalpan,La Comer,pinol,limpiador multiusos aroma cítrico,132.0,botella 5.1 l,limpiador+para+pisos,19.288687,-99.179181,"plazuela de la fama 1, la fama, 14410 tlalpan, mexico, ciudad de mexico",31/10/2023 18:41
4449,La Comer Tlalpan,La Comer,pinol,limpiador el original lavanda eucalipto,47.9,botella 1.65 l,limpiador+para+pisos,19.288687,-99.179181,"plazuela de la fama 1, la fama, 14410 tlalpan, mexico, ciudad de mexico",31/10/2023 18:41
4449,La Comer Tlalpan,La Comer,harpic,limpiador líquido baños lavanda,25.5,doypack 500 ml,limpiador+para+pisos,19.288687,-99.179181,"plazuela de la fama 1, la fama, 14410 tlalpan, mexico, ciudad de mexico",31/10/2023 18:41
4449,La Comer Tlalpan,La Comer,fabuloso,limpiador trap para trapear,20.0,botella 828 ml,limpiador+para+pisos,19.288687,-99.179181,"plazuela de la fama 1, la fama, 14410 tlalpan, mexico, ciudad de mexico",31/10/2023 18:41
4449,La Comer Tlalpan,La Comer,ajax,limpiador líquido multiusos para mascotas,46.5,botella 1 l,limpiador+para+pisos,19.288687,-99.179181,"plazuela de la fama 1, la fama, 14410 tlalpan, mexico, ciudad de mexico",31/10/2023 18:41
4449,La Comer Tlalpan,La Comer,poett,limpiador aromatizante primavera,125.0,galón 9 l,limpiador+para+pisos,19.288687,-99.179181,"plazuela de la fama 1, la fama, 14410 tlalpan, mexico, ciudad de mexico",31/10/2023 18:41
4449,La Comer Tlalpan,La Comer,pinol,limpiador multiusos floral,132.0,5.1 l,limpiador+para+pisos,19.288687,-99.179181,"plazuela de la fama 1, la fama, 14410 tlalpan, mexico, ciudad de mexico",31/10/2023 18:41
4449,La Comer Tlalpan,La Comer,dr. beckmann,limpiador de tapicería,95.0,botella 400 ml,limpiador+para+pisos,19.288687,-99.179181,"plazuela de la fama 1, la fama, 14410 tlalpan, mexico, ciudad de mexico",31/10/2023 18:41
4449,La Comer Tlalpan,La Comer,pinol,limpiador líquido fragancias finas frescura nocturna,27.5,botella 828 ml,limpiador+para+pisos,19.288687,-99.179181,"plazuela de la fama 1, la fama, 14410 tlalpan, mexico, ciudad de mexico",31/10/2023 18:41
4449,La Comer Tlalpan,La Comer,brasso,limpiador multiuso gold delicia floral,17.0,botella 870 ml,limpiador+para+pisos,19.288687,-99.179181,"plazuela de la fama 1, la fama, 14410 tlalpan, mexico, ciudad de mexico",31/10/2023 18:41
4449,La Comer Tlalpan,La Comer,pinol,limpiador multiusos lavanda,29.2,botella 1 l,limpiador+para+pisos,19.288687,-99.179181,"plazuela de la fama 1, la fama, 14410 tlalpan, mexico, ciudad de mexico",31/10/2023 18:41
4449,La Comer Tlalpan,La Comer,golden hills,limpiador multiusos manzana canela,79.9,galón 5 l,limpiador+para+pisos,19.288687,-99.179181,"plazuela de la fama 1, la fama, 14410 tlalpan, mexico, ciudad de mexico",31/10/2023 18:41
4449,La Comer Tlalpan,La Comer,brasso,limpiador multiusos gold manzana verde,17.0,botella 870 ml,limpiador+para+pisos,19.288687,-99.179181,"plazuela de la fama 1, la fama, 14410 tlalpan, mexico, ciudad de mexico",31/10/2023 18:41
4449,La Comer Tlalpan,La Comer,fabuloso,limpiador líquido desinfectante frescura natural,30.0,botella 828 ml,limpiador+para+pisos,19.288687,-99.179181,"plazuela de la fama 1, la fama, 14410 tlalpan, mexico, ciudad de mexico",31/10/2023 18:41
4449,La Comer Tlalpan,La Comer,fabuloso,limpiador líquido eucalipto y cítricos,30.0,botella 828 ml,limpiador+para+pisos,19.288687,-99.179181,"plazuela de la fama 1, la fama, 14410 tlalpan, mexico, ciudad de mexico",31/10/2023 18:41
4449,La Comer Tlalpan,La Comer,joalnová,limpiador multiusos desinfectante lavanda,109.0,botella 5 l,limpiador+para+pisos,19.288687,-99.179181,"plazuela de la fama 1, la fama, 14410 tlalpan, mexico, ciudad de mexico",31/10/2023 18:41
4449,La Comer Tlalpan,La Comer,mr. clean,limpiador multisuperficies,186.0,atomizador 473 ml,limpiador+para+pisos,19.288687,-99.179181,"plazuela de la fama 1, la fama, 14410 tlalpan, mexico, ciudad de mexico",31/10/2023 18:41
4449,La Comer Tlalpan,La Comer,mr. clean,limpiador multisuperficies refill,124.0,botella 473 ml,limpiador+para+pisos,19.288687,-99.179181,"plazuela de la fama 1, la fama, 14410 tlalpan, mexico, ciudad de mexico",31/10/2023 18:41
4449,La Comer Tlalpan,La Comer,fabuloso,limpiador multiusos frescura pura,30.0,botella 828 ml,limpiador+para+pisos,19.288687,-99.179181,"plazuela de la fama 1, la fama, 14410 tlalpan, mexico, ciudad de mexico",31/10/2023 18:41
4449,La Comer Tlalpan,La Comer,carbona,limpiador líquido de manchas y olores,68.9,botella 651 ml,limpiador+para+pisos,19.288687,-99.179181,"plazuela de la fama 1, la fama, 14410 tlalpan, mexico, ciudad de mexico",31/10/2023 18:41
4449,La Comer Tlalpan,La Comer,golden hills,limpiador multiusos desinfectante,99.0,botella 5 l,limpiador+para+pisos,19.288687,-99.179181,"plazuela de la fama 1, la fama, 14410 tlalpan, mexico, ciudad de mexico",31/10/2023 18:41
4449,La Comer Tlalpan,La Comer,areca ,limpiador multiusos en pastilla citríco,99.99,caja 1 pieza,limpiador+para+pisos,19.288687,-99.179181,"plazuela de la fama 1, la fama, 14410 tlalpan, mexico, ciudad de mexico",31/10/2023 18:41
4449,La Comer Tlalpan,La Comer,ke precio,limpiador multiusos lavanda,74.5,botella 10 lt,limpiador+para+pisos,19.288687,-99.179181,"plazuela de la fama 1, la fama, 14410 tlalpan, mexico, ciudad de mexico",31/10/2023 18:41
4449,La Comer Tlalpan,La Comer,areca ,limpiador multiusos en pastilla lavanda,99.99,caja 1 pieza,limpiador+para+pisos,19.288687,-99.179181,"plazuela de la fama 1, la fama, 14410 tlalpan, mexico, ciudad de mexico",31/10/2023 18:41
4449,La Comer Tlalpan,La Comer,only for,limpiador multiusos antibacterial,79.9,946 ml,limpiador+para+pisos,19.288687,-99.179181,"plazuela de la fama 1, la fama, 14410 tlalpan, mexico, ciudad de mexico",31/10/2023 18:41
4449,La Comer Tlalpan,La Comer,ke precio,limpiador multiusos limón,74.5,botella 10 l,limpiador+para+pisos,19.288687,-99.179181,"plazuela de la fama 1, la fama, 14410 tlalpan, mexico, ciudad de mexico",31/10/2023 18:41
4449,La Comer Tlalpan,La Comer,mr musculo,limpiador desinfectante multiusos,259.0,botella 3.785 l,limpiador+para+pisos,19.288687,-99.179181,"plazuela de la fama 1, la fama, 14410 tlalpan, mexico, ciudad de mexico",31/10/2023 18:41
4449,La Comer Tlalpan,La Comer,golden hills,limpiador multiusos con citronela,75.9,botella 5 l,limpiador+para+pisos,19.288687,-99.179181,"plazuela de la fama 1, la fama, 14410 tlalpan, mexico, ciudad de mexico",31/10/2023 18:41
4449,La Comer Tlalpan,La Comer,dorosol,limpiador de muebles de madera,70.5,480 ml,limpiador+para+pisos,19.288687,-99.179181,"plazuela de la fama 1, la fama, 14410 tlalpan, mexico, ciudad de mexico",31/10/2023 18:41
4449,La Comer Tlalpan,La Comer,lysol,limpiador líquido desinfectante,203.0,botella 5 l,limpiador+para+pisos,19.288687,-99.179181,"plazuela de la fama 1, la fama, 14410 tlalpan, mexico, ciudad de mexico",31/10/2023 18:41
4449,La Comer Tlalpan,La Comer,poett,limpiador espíritu play,61.0,botella 4 l,limpiador+para+pisos,19.288687,-99.179181,"plazuela de la fama 1, la fama, 14410 tlalpan, mexico, ciudad de mexico",31/10/2023 18:41
4449,La Comer Tlalpan,La Comer,poett,limpiador suavidad de algodón,34.5,1.8 l,limpiador+para+pisos,19.288687,-99.179181,"plazuela de la fama 1, la fama, 14410 tlalpan, mexico, ciudad de mexico",31/10/2023 18:41
4449,La Comer Tlalpan,La Comer,pinol,limpiador líquido aromas marino,25.5,828 ml,limpiador+para+pisos,19.288687,-99.179181,"plazuela de la fama 1, la fama, 14410 tlalpan, mexico, ciudad de mexico",31/10/2023 18:41
4449,La Comer Tlalpan,La Comer,ajax,limpiador líquido pino,30.0,botella 2 l,limpiador+para+pisos,19.288687,-99.179181,"plazuela de la fama 1, la fama, 14410 tlalpan, mexico, ciudad de mexico",31/10/2023 18:41
4449,La Comer Tlalpan,La Comer,karcher,limpiador de cristales wv 1 plus,2368.0,1 pieza,limpiador+para+pisos,19.288687,-99.179181,"plazuela de la fama 1, la fama, 14410 tlalpan, mexico, ciudad de mexico",31/10/2023 18:41
9991,La Villa,Soriana,poett,limpiador aromatizante primavera,57.9,botella 4 l,limpiador+para+pisos,19.465417,-99.125438,"calz de guadalupe 192, vallejo, gustavo a. madero, 07870 ciudad de méxico, cdmx",31/10/2023 18:41
9991,La Villa,Soriana,pinol,limpiador aromas therapy,52.9,botella 2 l,limpiador+para+pisos,19.465417,-99.125438,"calz de guadalupe 192, vallejo, gustavo a. madero, 07870 ciudad de méxico, cdmx",31/10/2023 18:41
9991,La Villa,Soriana,alex,limpiador extra eficaz pisos laminados,71.25,botella 750 ml,limpiador+para+pisos,19.465417,-99.125438,"calz de guadalupe 192, vallejo, gustavo a. madero, 07870 ciudad de méxico, cdmx",31/10/2023 18:41
9991,La Villa,Soriana,pinol,limpiador para pisos lavanda,90.5,galón 3.785 l,limpiador+para+pisos,19.465417,-99.125438,"calz de guadalupe 192, vallejo, gustavo a. madero, 07870 ciudad de méxico, cdmx",31/10/2023 18:41
9991,La Villa,Soriana,kuxtal,limpiador de pisos biodegradable,69.0,botella 1 l,limpiador+para+pisos,19.465417,-99.125438,"calz de guadalupe 192, vallejo, gustavo a. madero, 07870 ciudad de méxico, cdmx",31/10/2023 18:41
9991,La Villa,Soriana,sanytol,limpiador desinfectante para pisos,62.9,botella 1 l,limpiador+para+pisos,19.465417,-99.125438,"calz de guadalupe 192, vallejo, gustavo a. madero, 07870 ciudad de méxico, cdmx",31/10/2023 18:41
9991,La Villa,Soriana,alex,limpiador piso de madera,90.5,botella 750 ml,limpiador+para+pisos,19.465417,-99.125438,"calz de guadalupe 192, vallejo, gustavo a. madero, 07870 ciudad de méxico, cdmx",31/10/2023 18:41
9991,La Villa,Soriana,cloralex,limpiador desinfectante mascotas,92.9,galón 3.75 l,limpiador+para+pisos,19.465417,-99.125438,"calz de guadalupe 192, vallejo, gustavo a. madero, 07870 ciudad de méxico, cdmx",31/10/2023 18:41
9991,La Villa,Soriana,pinol,limpiador líquido multiusos el original,52.5,botella 2 l,limpiador+para+pisos,19.465417,-99.125438,"calz de guadalupe 192, vallejo, gustavo a. madero, 07870 ciudad de méxico, cdmx",31/10/2023 18:41
9991,La Villa,Soriana,poett,limpiador aromatizante primavera,57.9,botella 4 l,limpiador+para+pisos,19.465417,-99.125438,"calz de guadalupe 192, vallejo, gustavo a. madero, 07870 ciudad de méxico, cdmx",31/10/2023 18:41
9991,La Villa,Soriana,cloralex,limpiador mascotas eliminador de olores,58.5,botella 950 ml,limpiador+para+pisos,19.465417,-99.125438,"calz de guadalupe 192, vallejo, gustavo a. madero, 07870 ciudad de méxico, cdmx",31/10/2023 18:41
9991,La Villa,Soriana,poett,limpiador aromatizante primavera,35.9,botella 1.8 l,limpiador+para+pisos,19.465417,-99.125438,"calz de guadalupe 192, vallejo, gustavo a. madero, 07870 ciudad de méxico, cdmx",31/10/2023 18:41
9991,La Villa,Soriana,poett,limpiador aromatizante primavera,15.4,900 ml,limpiador+para+pisos,19.465417,-99.125438,"calz de guadalupe 192, vallejo, gustavo a. madero, 07870 ciudad de méxico, cdmx",31/10/2023 18:41
9991,La Villa,Soriana,pinol,limpiador antibacterial aromas lavanda,52.9,botella 2 l,limpiador+para+pisos,19.465417,-99.125438,"calz de guadalupe 192, vallejo, gustavo a. madero, 07870 ciudad de méxico, cdmx",31/10/2023 18:41
9991,La Villa,Soriana,windex,limpiador para vidrios sin amoníaco,66.5,atomizador 640 ml,limpiador+para+pisos,19.465417,-99.125438,"calz de guadalupe 192, vallejo, gustavo a. madero, 07870 ciudad de méxico, cdmx",31/10/2023 18:41
9991,La Villa,Soriana,poett,limpiador alegra tu día,18.5,900 ml,limpiador+para+pisos,19.465417,-99.125438,"calz de guadalupe 192, vallejo, gustavo a. madero, 07870 ciudad de méxico, cdmx",31/10/2023 18:41
9991,La Villa,Soriana,pinol,limpiador multiusos desinfectante,30.5,botella 1 l,limpiador+para+pisos,19.465417,-99.125438,"calz de guadalupe 192, vallejo, gustavo a. madero, 07870 ciudad de méxico, cdmx",31/10/2023 18:41
9991,La Villa,Soriana,poett,limpiador música en primavera,70.9,galón 4 l,limpiador+para+pisos,19.465417,-99.125438,"calz de guadalupe 192, vallejo, gustavo a. madero, 07870 ciudad de méxico, cdmx",31/10/2023 18:41
9991,La Villa,Soriana,poett,limpiador aromatizante lavanda,35.9,botella 1.8 l,limpiador+para+pisos,19.465417,-99.125438,"calz de guadalupe 192, vallejo, gustavo a. madero, 07870 ciudad de méxico, cdmx",31/10/2023 18:41
9991,La Villa,Soriana,cloralex,limpiador desinfectante fresco,53.9,botella 1.65 l,limpiador+para+pisos,19.465417,-99.125438,"calz de guadalupe 192, vallejo, gustavo a. madero, 07870 ciudad de méxico, cdmx",31/10/2023 18:41
9991,La Villa,Soriana,pinol,limpiador líquido fragancias finas,52.5,botella 1.6 l,limpiador+para+pisos,19.465417,-99.125438,"calz de guadalupe 192, vallejo, gustavo a. madero, 07870 ciudad de méxico, cdmx",31/10/2023 18:41
9991,La Villa,Soriana,fabuloso,limpiador líquido eucalipto y cítricos,75.5,botella 1.7 l,limpiador+para+pisos,19.465417,-99.125438,"calz de guadalupe 192, vallejo, gustavo a. madero, 07870 ciudad de méxico, cdmx",31/10/2023 18:41
9991,La Villa,Soriana,harpic,limpiador líquido para baños lavanda,57.9,atomizador 650 ml,limpiador+para+pisos,19.465417,-99.125438,"calz de guadalupe 192, vallejo, gustavo a. madero, 07870 ciudad de méxico, cdmx",31/10/2023 18:41
9991,La Villa,Soriana,poett,limpiador aromatizante lavanda,15.4,botella 900 ml,limpiador+para+pisos,19.465417,-99.125438,"calz de guadalupe 192, vallejo, gustavo a. madero, 07870 ciudad de méxico, cdmx",31/10/2023 18:41
9991,La Villa,Soriana,fabuloso,limpiador multiusos rosa y lychee,50.5,botella 1.7 l,limpiador+para+pisos,19.465417,-99.125438,"calz de guadalupe 192, vallejo, gustavo a. madero, 07870 ciudad de méxico, cdmx",31/10/2023 18:41
9991,La Villa,Soriana,fabuloso,limpiador frescura natural,75.5,1.7 l,limpiador+para+pisos,19.465417,-99.125438,"calz de guadalupe 192, vallejo, gustavo a. madero, 07870 ciudad de méxico, cdmx",31/10/2023 18:41
9991,La Villa,Soriana,fabuloso,limpiador frescura frutas,36.5,botella 1 l,limpiador+para+pisos,19.465417,-99.125438,"calz de guadalupe 192, vallejo, gustavo a. madero, 07870 ciudad de méxico, cdmx",31/10/2023 18:41
9991,La Villa,Soriana,fabuloso,limpiador multiusos frescura activa limón,42.9,botella 1.65 l,limpiador+para+pisos,19.465417,-99.125438,"calz de guadalupe 192, vallejo, gustavo a. madero, 07870 ciudad de méxico, cdmx",31/10/2023 18:41
9991,La Villa,Soriana,fabuloso,limpiador multiusos flor de loto y jazmín,50.5,botella 1.7 l,limpiador+para+pisos,19.465417,-99.125438,"calz de guadalupe 192, vallejo, gustavo a. madero, 07870 ciudad de méxico, cdmx",31/10/2023 18:41
9991,La Villa,Soriana,lysol,limpiador desinfectante pure citrus,41.9,820 ml,limpiador+para+pisos,19.465417,-99.125438,"calz de guadalupe 192, vallejo, gustavo a. madero, 07870 ciudad de méxico, cdmx",31/10/2023 18:41
9991,La Villa,Soriana,pinol,limpiador líquido fragancias finas,52.5,botella 1.6 l,limpiador+para+pisos,19.465417,-99.125438,"calz de guadalupe 192, vallejo, gustavo a. madero, 07870 ciudad de méxico, cdmx",31/10/2023 18:41
9991,La Villa,Soriana,pinol,limpiador líquido multiusos floral,42.5,botella 1.65 l,limpiador+para+pisos,19.465417,-99.125438,"calz de guadalupe 192, vallejo, gustavo a. madero, 07870 ciudad de méxico, cdmx",31/10/2023 18:41
9991,La Villa,Soriana,pinol,limpiador el original lavanda eucalipto,40.9,botella 1.65 l,limpiador+para+pisos,19.465417,-99.125438,"calz de guadalupe 192, vallejo, gustavo a. madero, 07870 ciudad de méxico, cdmx",31/10/2023 18:41
9991,La Villa,Soriana,harpic,limpiador líquido baños lavanda,27.0,doypack 500 ml,limpiador+para+pisos,19.465417,-99.125438,"calz de guadalupe 192, vallejo, gustavo a. madero, 07870 ciudad de méxico, cdmx",31/10/2023 18:41
9991,La Villa,Soriana,precíssimo,limpiador multiusos pino,45.0,galón 5 l,limpiador+para+pisos,19.465417,-99.125438,"calz de guadalupe 192, vallejo, gustavo a. madero, 07870 ciudad de méxico, cdmx",31/10/2023 18:41
9991,La Villa,Soriana,ajax,limpiador líquido multiusos para mascotas,34.2,botella 1 l,limpiador+para+pisos,19.465417,-99.125438,"calz de guadalupe 192, vallejo, gustavo a. madero, 07870 ciudad de méxico, cdmx",31/10/2023 18:41
9991,La Villa,Soriana,flash,limpiador líquido multiusos,26.5,botella 1.8 l,limpiador+para+pisos,19.465417,-99.125438,"calz de guadalupe 192, vallejo, gustavo a. madero, 07870 ciudad de méxico, cdmx",31/10/2023 18:41
9991,La Villa,Soriana,brasso,limpiador multiusos gold lavanda intensa,16.9,botella 870 ml,limpiador+para+pisos,19.465417,-99.125438,"calz de guadalupe 192, vallejo, gustavo a. madero, 07870 ciudad de méxico, cdmx",31/10/2023 18:41
9991,La Villa,Soriana,brasso,limpiador multiuso gold delicia floral,16.9,botella 870 ml,limpiador+para+pisos,19.465417,-99.125438,"calz de guadalupe 192, vallejo, gustavo a. madero, 07870 ciudad de méxico, cdmx",31/10/2023 18:41
9991,La Villa,Soriana,brasso,limpiador multiusos gold,16.9,botella 870 ml,limpiador+para+pisos,19.465417,-99.125438,"calz de guadalupe 192, vallejo, gustavo a. madero, 07870 ciudad de méxico, cdmx",31/10/2023 18:41
9991,La Villa,Soriana,quality day,limpiador multiusos para mascotas,35.0,2 lt,limpiador+para+pisos,19.465417,-99.125438,"calz de guadalupe 192, vallejo, gustavo a. madero, 07870 ciudad de méxico, cdmx",31/10/2023 18:41
9991,La Villa,Soriana,pinol,limpiador multiusos fragancias,40.9,botella 1.65 l,limpiador+para+pisos,19.465417,-99.125438,"calz de guadalupe 192, vallejo, gustavo a. madero, 07870 ciudad de méxico, cdmx",31/10/2023 18:41
9991,La Villa,Soriana,precíssimo,limpiador multiusos limón,61.9,5 l,limpiador+para+pisos,19.465417,-99.125438,"calz de guadalupe 192, vallejo, gustavo a. madero, 07870 ciudad de méxico, cdmx",31/10/2023 18:41
9991,La Villa,Soriana,precíssimo,limpiador multiusos lavanda,12.5,botella 1 l,limpiador+para+pisos,19.465417,-99.125438,"calz de guadalupe 192, vallejo, gustavo a. madero, 07870 ciudad de méxico, cdmx",31/10/2023 18:41
9991,La Villa,Soriana,brasso,limpiador líquido desengrasante multiusos repuesto,26.5,pouch 400 ml,limpiador+para+pisos,19.465417,-99.125438,"calz de guadalupe 192, vallejo, gustavo a. madero, 07870 ciudad de méxico, cdmx",31/10/2023 18:41
9991,La Villa,Soriana,pinol,limpiador pinol pouch,21.1,450 mililitro,limpiador+para+pisos,19.465417,-99.125438,"calz de guadalupe 192, vallejo, gustavo a. madero, 07870 ciudad de méxico, cdmx",31/10/2023 18:41
9991,La Villa,Soriana,precíssimo,limpiador aceite pino,133.0,10l,limpiador+para+pisos,19.465417,-99.125438,"calz de guadalupe 192, vallejo, gustavo a. madero, 07870 ciudad de méxico, cdmx",31/10/2023 18:41
9991,La Villa,Soriana,only for,limpiador multiusos antibacterial,72.0,946 ml,limpiador+para+pisos,19.465417,-99.125438,"calz de guadalupe 192, vallejo, gustavo a. madero, 07870 ciudad de méxico, cdmx",31/10/2023 18:41
9991,La Villa,Soriana,precíssimo,limpiador multiusos aceite de pino,12.9,botella 1 l,limpiador+para+pisos,19.465417,-99.125438,"calz de guadalupe 192, vallejo, gustavo a. madero, 07870 ciudad de méxico, cdmx",31/10/2023 18:41
9991,La Villa,Soriana,fabuloso,limpiador multiusos limón refrescante,163.0,botella 5 l,limpiador+para+pisos,19.465417,-99.125438,"calz de guadalupe 192, vallejo, gustavo a. madero, 07870 ciudad de méxico, cdmx",31/10/2023 18:41
9991,La Villa,Soriana,kuxtal,bio limpiador multisuperficies,83.0,botella 1 l,limpiador+para+pisos,19.465417,-99.125438,"calz de guadalupe 192, vallejo, gustavo a. madero, 07870 ciudad de méxico, cdmx",31/10/2023 18:41
9991,La Villa,Soriana,pinol,limpiador el original lavanda eucalipto,30.9,botella 1 l,limpiador+para+pisos,19.465417,-99.125438,"calz de guadalupe 192, vallejo, gustavo a. madero, 07870 ciudad de méxico, cdmx",31/10/2023 18:41
9991,La Villa,Soriana,soriana,limpiador wc,36.0,750ml,limpiador+para+pisos,19.465417,-99.125438,"calz de guadalupe 192, vallejo, gustavo a. madero, 07870 ciudad de méxico, cdmx",31/10/2023 18:41
9991,La Villa,Soriana,lysol,limpiador líquido desinfectante,205.0,botella 5 l,limpiador+para+pisos,19.465417,-99.125438,"calz de guadalupe 192, vallejo, gustavo a. madero, 07870 ciudad de méxico, cdmx",31/10/2023 18:41
9991,La Villa,Soriana,poett,limpiador espíritu play,70.9,botella 4 l,limpiador+para+pisos,19.465417,-99.125438,"calz de guadalupe 192, vallejo, gustavo a. madero, 07870 ciudad de méxico, cdmx",31/10/2023 18:41
9991,La Villa,Soriana,poett,limpiador espíritu play,34.0,botella 1.8 l,limpiador+para+pisos,19.465417,-99.125438,"calz de guadalupe 192, vallejo, gustavo a. madero, 07870 ciudad de méxico, cdmx",31/10/2023 18:41
9991,La Villa,Soriana,poett,limpiador espíritu play,18.5,botella 900 ml,limpiador+para+pisos,19.465417,-99.125438,"calz de guadalupe 192, vallejo, gustavo a. madero, 07870 ciudad de méxico, cdmx",31/10/2023 18:41
9991,La Villa,Soriana,pinol,limpiador líquido aromas marino,24.5,828 ml,limpiador+para+pisos,19.465417,-99.125438,"calz de guadalupe 192, vallejo, gustavo a. madero, 07870 ciudad de méxico, cdmx",31/10/2023 18:41
9991,La Villa,Soriana,ajax,limpiador líquido pino,35.3,botella 2 l,limpiador+para+pisos,19.465417,-99.125438,"calz de guadalupe 192, vallejo, gustavo a. madero, 07870 ciudad de méxico, cdmx",31/10/2023 18:41
9993,Paradox Santa Fe,Soriana,hellmann's,mayonesa light,88.5,frasco 800 g,mayonesa,19.357303,-99.273539,"av sta fe 546, lomas de santa fe, contadero, cuajimalpa de morelos, 01219 ciudad de méxico, cdmx",31/10/2023 18:41
9993,Paradox Santa Fe,Soriana,hellmann's,mayonesa clásica,66.9,frasco 750 g,mayonesa,19.357303,-99.273539,"av sta fe 546, lomas de santa fe, contadero, cuajimalpa de morelos, 01219 ciudad de méxico, cdmx",31/10/2023 18:41
9993,Paradox Santa Fe,Soriana,heinz,mayonesa original,93.5,frasco 650 g,mayonesa,19.357303,-99.273539,"av sta fe 546, lomas de santa fe, contadero, cuajimalpa de morelos, 01219 ciudad de méxico, cdmx",31/10/2023 18:41
9993,Paradox Santa Fe,Soriana,mccormick,mayonesa con limón,80.0,frasco 725 g,mayonesa,19.357303,-99.273539,"av sta fe 546, lomas de santa fe, contadero, cuajimalpa de morelos, 01219 ciudad de méxico, cdmx",31/10/2023 18:41
9993,Paradox Santa Fe,Soriana,hellmann's,mayonesa ligera,69.5,frasco 730 g,mayonesa,19.357303,-99.273539,"av sta fe 546, lomas de santa fe, contadero, cuajimalpa de morelos, 01219 ciudad de méxico, cdmx",31/10/2023 18:41
9993,Paradox Santa Fe,Soriana,mccormick,aderezo de mayonesa,79.9,frasco 775 g,mayonesa,19.357303,-99.273539,"av sta fe 546, lomas de santa fe, contadero, cuajimalpa de morelos, 01219 ciudad de méxico, cdmx",31/10/2023 18:41
9993,Paradox Santa Fe,Soriana,heinz,mayonesa con limón,77.5,frasco 650 g,mayonesa,19.357303,-99.273539,"av sta fe 546, lomas de santa fe, contadero, cuajimalpa de morelos, 01219 ciudad de méxico, cdmx",31/10/2023 18:41
9993,Paradox Santa Fe,Soriana,la costeña,mayonesa con jugo de limón,75.5,frasco 725 g,mayonesa,19.357303,-99.273539,"av sta fe 546, lomas de santa fe, contadero, cuajimalpa de morelos, 01219 ciudad de méxico, cdmx",31/10/2023 18:41
4449,La Comer Tlalpan,La Comer,mccormick,mayonesa con limón,88.0,frasco 725 g,mayonesa,19.288687,-99.179181,"plazuela de la fama 1, la fama, 14410 tlalpan, mexico, ciudad de mexico",31/10/2023 18:41
4449,La Comer Tlalpan,La Comer,hellmann's,mayonesa light,82.0,frasco 800 g,mayonesa,19.288687,-99.179181,"plazuela de la fama 1, la fama, 14410 tlalpan, mexico, ciudad de mexico",31/10/2023 18:41
4449,La Comer Tlalpan,La Comer,mccormick,aderezo de mayonesa light con limón,89.0,frasco 790 g,mayonesa,19.288687,-99.179181,"plazuela de la fama 1, la fama, 14410 tlalpan, mexico, ciudad de mexico",31/10/2023 18:41
4449,La Comer Tlalpan,La Comer,heinz,mayonesa original,88.0,frasco 650 g,mayonesa,19.288687,-99.179181,"plazuela de la fama 1, la fama, 14410 tlalpan, mexico, ciudad de mexico",31/10/2023 18:41
4449,La Comer Tlalpan,La Comer,hellmann's,mayonesa ligera,54.0,frasco 730 g,mayonesa,19.288687,-99.179181,"plazuela de la fama 1, la fama, 14410 tlalpan, mexico, ciudad de mexico",31/10/2023 18:41
4449,La Comer Tlalpan,La Comer,mccormick,aderezo de mayonesa,75.9,frasco 775 g,mayonesa,19.288687,-99.179181,"plazuela de la fama 1, la fama, 14410 tlalpan, mexico, ciudad de mexico",31/10/2023 18:41
4449,La Comer Tlalpan,La Comer,heinz,mayonesa con limón,83.5,frasco 650 g,mayonesa,19.288687,-99.179181,"plazuela de la fama 1, la fama, 14410 tlalpan, mexico, ciudad de mexico",31/10/2023 18:41
4449,La Comer Tlalpan,La Comer,kraft,mayonesa tipo casero,60.8,frasco 650 g,mayonesa,19.288687,-99.179181,"plazuela de la fama 1, la fama, 14410 tlalpan, mexico, ciudad de mexico",31/10/2023 18:41
4449,La Comer Tlalpan,La Comer,hellmann's,mayonesa clásica,70.0,frasco 750 g,mayonesa,19.288687,-99.179181,"plazuela de la fama 1, la fama, 14410 tlalpan, mexico, ciudad de mexico",31/10/2023 18:41
4449,La Comer Tlalpan,La Comer,la costeña,mayonesa con jugo de limón,70.4,frasco 725 g,mayonesa,19.288687,-99.179181,"plazuela de la fama 1, la fama, 14410 tlalpan, mexico, ciudad de mexico",31/10/2023 18:41
4449,La Comer Tlalpan,La Comer,kraft,mayonesa con jugo de limón,60.8,frasco 650 g,mayonesa,19.288687,-99.179181,"plazuela de la fama 1, la fama, 14410 tlalpan, mexico, ciudad de mexico",31/10/2023 18:41
9991,La Villa,Soriana,hellmann's,mayonesa light,88.5,frasco 800 g,mayonesa,19.465417,-99.125438,"calz de guadalupe 192, vallejo, gustavo a. madero, 07870 ciudad de méxico, cdmx",31/10/2023 18:41
9991,La Villa,Soriana,mccormick,aderezo de mayonesa light con limón,91.5,frasco 790 g,mayonesa,19.465417,-99.125438,"calz de guadalupe 192, vallejo, gustavo a. madero, 07870 ciudad de méxico, cdmx",31/10/2023 18:41
9991,La Villa,Soriana,hellmann's,mayonesa clásica,66.9,frasco 750 g,mayonesa,19.465417,-99.125438,"calz de guadalupe 192, vallejo, gustavo a. madero, 07870 ciudad de méxico, cdmx",31/10/2023 18:41
9991,La Villa,Soriana,heinz,mayonesa original,92.9,frasco 650 g,mayonesa,19.465417,-99.125438,"calz de guadalupe 192, vallejo, gustavo a. madero, 07870 ciudad de méxico, cdmx",31/10/2023 18:41
9991,La Villa,Soriana,hellmann's,mayonesa ligera,69.5,frasco 730 g,mayonesa,19.465417,-99.125438,"calz de guadalupe 192, vallejo, gustavo a. madero, 07870 ciudad de méxico, cdmx",31/10/2023 18:41
9991,La Villa,Soriana,mccormick,aderezo de mayonesa,75.25,frasco 775 g,mayonesa,19.465417,-99.125438,"calz de guadalupe 192, vallejo, gustavo a. madero, 07870 ciudad de méxico, cdmx",31/10/2023 18:41
9991,La Villa,Soriana,heinz,mayonesa con limón,87.9,frasco 650 g,mayonesa,19.465417,-99.125438,"calz de guadalupe 192, vallejo, gustavo a. madero, 07870 ciudad de méxico, cdmx",31/10/2023 18:41
9991,La Villa,Soriana,la costeña,mayonesa con jugo de limón,74.9,frasco 725 g,mayonesa,19.465417,-99.125438,"calz de guadalupe 192, vallejo, gustavo a. madero, 07870 ciudad de méxico, cdmx",31/10/2023 18:41
9993,Paradox Santa Fe,Soriana,smucker's,mermelada naranja reducida en azucar,88.5,440 grs,mermelada,19.357303,-99.273539,"av sta fe 546, lomas de santa fe, contadero, cuajimalpa de morelos, 01219 ciudad de méxico, cdmx",31/10/2023 18:41
4449,La Comer Tlalpan,La Comer,la costeña,mermelada de chabacano,37.5,frasco 440 g,mermelada,19.288687,-99.179181,"plazuela de la fama 1, la fama, 14410 tlalpan, mexico, ciudad de mexico",31/10/2023 18:41
4449,La Comer Tlalpan,La Comer,la costeña,mermelada de fresa,37.5,frasco 440 g,mermelada,19.288687,-99.179181,"plazuela de la fama 1, la fama, 14410 tlalpan, mexico, ciudad de mexico",31/10/2023 18:41
4449,La Comer Tlalpan,La Comer,smucker's,mermelada fresa reducida en azúcar,83.8,frasco 440 g,mermelada,19.288687,-99.179181,"plazuela de la fama 1, la fama, 14410 tlalpan, mexico, ciudad de mexico",31/10/2023 18:41
4449,La Comer Tlalpan,La Comer,smucker's,mermelada chabacano reducida en azucar,83.8,440 grs,mermelada,19.288687,-99.179181,"plazuela de la fama 1, la fama, 14410 tlalpan, mexico, ciudad de mexico",31/10/2023 18:41
4449,La Comer Tlalpan,La Comer,smucker's,mermelada naranja reducida en azucar,83.8,440 grs,mermelada,19.288687,-99.179181,"plazuela de la fama 1, la fama, 14410 tlalpan, mexico, ciudad de mexico",31/10/2023 18:41
4449,La Comer Tlalpan,La Comer,la costeña,mermelada de zarzamora,37.5,440 g,mermelada,19.288687,-99.179181,"plazuela de la fama 1, la fama, 14410 tlalpan, mexico, ciudad de mexico",31/10/2023 18:41
9991,La Villa,Soriana,la costeña,mermelada de fresa,38.5,frasco 440 g,mermelada,19.465417,-99.125438,"calz de guadalupe 192, vallejo, gustavo a. madero, 07870 ciudad de méxico, cdmx",31/10/2023 18:41
9991,La Villa,Soriana,smucker's,mermelada fresa reducida en azúcar,87.5,frasco 440 g,mermelada,19.465417,-99.125438,"calz de guadalupe 192, vallejo, gustavo a. madero, 07870 ciudad de méxico, cdmx",31/10/2023 18:41
9991,La Villa,Soriana,smucker's,mermelada naranja reducida en azucar,81.5,440 grs,mermelada,19.465417,-99.125438,"calz de guadalupe 192, vallejo, gustavo a. madero, 07870 ciudad de méxico, cdmx",31/10/2023 18:41
9991,La Villa,Soriana,la costeña,mermelada de zarzamora,38.9,440 g,mermelada,19.465417,-99.125438,"calz de guadalupe 192, vallejo, gustavo a. madero, 07870 ciudad de méxico, cdmx",31/10/2023 18:41
9991,La Villa,Soriana,la costeña,mermelada de piña,42.5,440 g,mermelada,19.465417,-99.125438,"calz de guadalupe 192, vallejo, gustavo a. madero, 07870 ciudad de méxico, cdmx",31/10/2023 18:41
9993,Paradox Santa Fe,Soriana,colgate,pasta dental luminous white brilliant,81.7,tubo 125 ml,pasta+dental,19.357303,-99.273539,"av sta fe 546, lomas de santa fe, contadero, cuajimalpa de morelos, 01219 ciudad de méxico, cdmx",31/10/2023 18:41
9993,Paradox Santa Fe,Soriana,colgate,pasta dental protección anticaries,52.9,tubo 125 ml,pasta+dental,19.357303,-99.273539,"av sta fe 546, lomas de santa fe, contadero, cuajimalpa de morelos, 01219 ciudad de méxico, cdmx",31/10/2023 18:41
9993,Paradox Santa Fe,Soriana,colgate,pasta dental luminous white carbón activado,79.9,tubo 125 ml,pasta+dental,19.357303,-99.273539,"av sta fe 546, lomas de santa fe, contadero, cuajimalpa de morelos, 01219 ciudad de méxico, cdmx",31/10/2023 18:41
9993,Paradox Santa Fe,Soriana,colgate,total 12 whitening pasta dental,58.9,tubo 125 ml,pasta+dental,19.357303,-99.273539,"av sta fe 546, lomas de santa fe, contadero, cuajimalpa de morelos, 01219 ciudad de méxico, cdmx",31/10/2023 18:41
9993,Paradox Santa Fe,Soriana,colgate,pasta dental triple acción,50.9,125 ml,pasta+dental,19.357303,-99.273539,"av sta fe 546, lomas de santa fe, contadero, cuajimalpa de morelos, 01219 ciudad de méxico, cdmx",31/10/2023 18:41
4449,La Comer Tlalpan,La Comer,colgate,pasta dental triple acción xtra blancura,29.5,125 ml,pasta+dental,19.288687,-99.179181,"plazuela de la fama 1, la fama, 14410 tlalpan, mexico, ciudad de mexico",31/10/2023 18:41
4449,La Comer Tlalpan,La Comer,colgate,pasta dental luminous white brilliant,82.0,tubo 125 ml,pasta+dental,19.288687,-99.179181,"plazuela de la fama 1, la fama, 14410 tlalpan, mexico, ciudad de mexico",31/10/2023 18:41
4449,La Comer Tlalpan,La Comer,colgate,pasta dental protección anticaries,63.5,tubo 125 ml,pasta+dental,19.288687,-99.179181,"plazuela de la fama 1, la fama, 14410 tlalpan, mexico, ciudad de mexico",31/10/2023 18:41
4449,La Comer Tlalpan,La Comer,colgate,pasta dental luminous white carbón activado,82.0,tubo 125 ml,pasta+dental,19.288687,-99.179181,"plazuela de la fama 1, la fama, 14410 tlalpan, mexico, ciudad de mexico",31/10/2023 18:41
4449,La Comer Tlalpan,La Comer,colgate,total 12 whitening pasta dental,112.0,tubo 125 ml,pasta+dental,19.288687,-99.179181,"plazuela de la fama 1, la fama, 14410 tlalpan, mexico, ciudad de mexico",31/10/2023 18:41
9991,La Villa,Soriana,colgate,pasta dental triple acción xtra blancura,27.5,125 ml,pasta+dental,19.465417,-99.125438,"calz de guadalupe 192, vallejo, gustavo a. madero, 07870 ciudad de méxico, cdmx",31/10/2023 18:41
9991,La Villa,Soriana,colgate,pasta dental luminous white brilliant,81.9,tubo 125 ml,pasta+dental,19.465417,-99.125438,"calz de guadalupe 192, vallejo, gustavo a. madero, 07870 ciudad de méxico, cdmx",31/10/2023 18:41
9991,La Villa,Soriana,colgate,pasta dental protección anticaries,52.9,tubo 125 ml,pasta+dental,19.465417,-99.125438,"calz de guadalupe 192, vallejo, gustavo a. madero, 07870 ciudad de méxico, cdmx",31/10/2023 18:41
9991,La Villa,Soriana,colgate,pasta dental luminous white carbón activado,79.9,tubo 125 ml,pasta+dental,19.465417,-99.125438,"calz de guadalupe 192, vallejo, gustavo a. madero, 07870 ciudad de méxico, cdmx",31/10/2023 18:41
9991,La Villa,Soriana,colgate,total 12 whitening pasta dental,58.5,tubo 125 ml,pasta+dental,19.465417,-99.125438,"calz de guadalupe 192, vallejo, gustavo a. madero, 07870 ciudad de méxico, cdmx",31/10/2023 18:41
9991,La Villa,Soriana,colgate,pasta dental triple acción,50.9,125 ml,pasta+dental,19.465417,-99.125438,"calz de guadalupe 192, vallejo, gustavo a. madero, 07870 ciudad de méxico, cdmx",31/10/2023 18:41
9993,Paradox Santa Fe,Soriana,conair,cepillo y peine ,69.0,1 pieza,peine,19.357303,-99.273539,"av sta fe 546, lomas de santa fe, contadero, cuajimalpa de morelos, 01219 ciudad de méxico, cdmx",31/10/2023 18:41
4449,La Comer Tlalpan,La Comer,conair,cepillo y peine ,69.0,1 pieza,peine,19.288687,-99.179181,"plazuela de la fama 1, la fama, 14410 tlalpan, mexico, ciudad de mexico",31/10/2023 18:41
4449,La Comer Tlalpan,La Comer,conair,cepillo y peine ,75.0,1 pieza,peine,19.288687,-99.179181,"plazuela de la fama 1, la fama, 14410 tlalpan, mexico, ciudad de mexico",31/10/2023 18:41
9991,La Villa,Soriana,conair,cepillo y peine ,79.0,1 pieza,peine,19.465417,-99.125438,"calz de guadalupe 192, vallejo, gustavo a. madero, 07870 ciudad de méxico, cdmx",31/10/2023 18:41
9993,Paradox Santa Fe,Soriana,gillette,rastrillos desechables tropical,147.0,blister 3 piezas,rastillos,19.357303,-99.273539,"av sta fe 546, lomas de santa fe, contadero, cuajimalpa de morelos, 01219 ciudad de méxico, cdmx",31/10/2023 18:41
9993,Paradox Santa Fe,Soriana,pro selection,rastrillo anatómico doble hoja,19.9,3 piezas,rastillos,19.357303,-99.273539,"av sta fe 546, lomas de santa fe, contadero, cuajimalpa de morelos, 01219 ciudad de méxico, cdmx",31/10/2023 18:41
9993,Paradox Santa Fe,Soriana,pro selection,rastrillo anatómico doble hoja para dama,19.5,3 piezas,rastillos,19.357303,-99.273539,"av sta fe 546, lomas de santa fe, contadero, cuajimalpa de morelos, 01219 ciudad de méxico, cdmx",31/10/2023 18:41
9993,Paradox Santa Fe,Soriana,gillette,rastrillo prestobarba3 sport,104.0,3 piezas,rastillos,19.357303,-99.273539,"av sta fe 546, lomas de santa fe, contadero, cuajimalpa de morelos, 01219 ciudad de méxico, cdmx",31/10/2023 18:41
9993,Paradox Santa Fe,Soriana,pro selection,rastrillo sport triple hoja,39.9,3 piezas,rastillos,19.357303,-99.273539,"av sta fe 546, lomas de santa fe, contadero, cuajimalpa de morelos, 01219 ciudad de méxico, cdmx",31/10/2023 18:41
4449,La Comer Tlalpan,La Comer,gillette,rastrillos desechables tropical,172.5,blister 3 piezas,rastillos,19.288687,-99.179181,"plazuela de la fama 1, la fama, 14410 tlalpan, mexico, ciudad de mexico",31/10/2023 18:41
9991,La Villa,Soriana,gillette,rastrillos desechables tropical,147.0,blister 3 piezas,rastillos,19.465417,-99.125438,"calz de guadalupe 192, vallejo, gustavo a. madero, 07870 ciudad de méxico, cdmx",31/10/2023 18:41
9991,La Villa,Soriana,schick,rastrillo quattro sensitive para dama,88.5,3 piezas,rastillos,19.465417,-99.125438,"calz de guadalupe 192, vallejo, gustavo a. madero, 07870 ciudad de méxico, cdmx",31/10/2023 18:41
9991,La Villa,Soriana,pro selection,rastrillo anatómico doble hoja,18.85,3 piezas,rastillos,19.465417,-99.125438,"calz de guadalupe 192, vallejo, gustavo a. madero, 07870 ciudad de méxico, cdmx",31/10/2023 18:41
9991,La Villa,Soriana,pro selection,rastrillo anatómico doble hoja para dama,19.3,3 piezas,rastillos,19.465417,-99.125438,"calz de guadalupe 192, vallejo, gustavo a. madero, 07870 ciudad de méxico, cdmx",31/10/2023 18:41
9991,La Villa,Soriana,gillette,rastrillo prestobarba3 sport,103.0,3 piezas,rastillos,19.465417,-99.125438,"calz de guadalupe 192, vallejo, gustavo a. madero, 07870 ciudad de méxico, cdmx",31/10/2023 18:41
9991,La Villa,Soriana,pro selection,rastrillo sport triple hoja,39.9,3 piezas,rastillos,19.465417,-99.125438,"calz de guadalupe 192, vallejo, gustavo a. madero, 07870 ciudad de méxico, cdmx",31/10/2023 18:41
9993,Paradox Santa Fe,Soriana,vileda,recogedor 3 en 1,86.9,1 pieza,recogedor,19.357303,-99.273539,"av sta fe 546, lomas de santa fe, contadero, cuajimalpa de morelos, 01219 ciudad de méxico, cdmx",31/10/2023 18:41
9993,Paradox Santa Fe,Soriana,scotch-brite,recogedor con mango,86.5,1 pieza,recogedor,19.357303,-99.273539,"av sta fe 546, lomas de santa fe, contadero, cuajimalpa de morelos, 01219 ciudad de méxico, cdmx",31/10/2023 18:41
9993,Paradox Santa Fe,Soriana,reynera,recogedor abatible con quita pelusa,92.9,1 pieza,recogedor,19.357303,-99.273539,"av sta fe 546, lomas de santa fe, contadero, cuajimalpa de morelos, 01219 ciudad de méxico, cdmx",31/10/2023 18:41
9993,Paradox Santa Fe,Soriana,precíssimo,recogedor con bastón,57.0,1 pieza,recogedor,19.357303,-99.273539,"av sta fe 546, lomas de santa fe, contadero, cuajimalpa de morelos, 01219 ciudad de méxico, cdmx",31/10/2023 18:41
4449,La Comer Tlalpan,La Comer,vileda,recogedor 3 en 1,85.0,1 pieza,recogedor,19.288687,-99.179181,"plazuela de la fama 1, la fama, 14410 tlalpan, mexico, ciudad de mexico",31/10/2023 18:41
4449,La Comer Tlalpan,La Comer,scotch-brite,recogedor con mango,81.4,1 pieza,recogedor,19.288687,-99.179181,"plazuela de la fama 1, la fama, 14410 tlalpan, mexico, ciudad de mexico",31/10/2023 18:41
4449,La Comer Tlalpan,La Comer,vileda,recogedor gris,64.0,1 pieza,recogedor,19.288687,-99.179181,"plazuela de la fama 1, la fama, 14410 tlalpan, mexico, ciudad de mexico",31/10/2023 18:41
4449,La Comer Tlalpan,La Comer,plasvic,recogedor de plástico,44.0,1 pieza,recogedor,19.288687,-99.179181,"plazuela de la fama 1, la fama, 14410 tlalpan, mexico, ciudad de mexico",31/10/2023 18:41
4449,La Comer Tlalpan,La Comer,ke precio,recogedor economico,30.4,1 pza,recogedor,19.288687,-99.179181,"plazuela de la fama 1, la fama, 14410 tlalpan, mexico, ciudad de mexico",31/10/2023 18:41
4449,La Comer Tlalpan,La Comer,chahin,recogedor de plastico mango corto,22.4,1 pza,recogedor,19.288687,-99.179181,"plazuela de la fama 1, la fama, 14410 tlalpan, mexico, ciudad de mexico",31/10/2023 18:41
4449,La Comer Tlalpan,La Comer,joselyn,recogedor con baston translucido 0916,75.4,1 pza,recogedor,19.288687,-99.179181,"plazuela de la fama 1, la fama, 14410 tlalpan, mexico, ciudad de mexico",31/10/2023 18:41
9991,La Villa,Soriana,vileda,recogedor 3 en 1,73.9,1 pieza,recogedor,19.465417,-99.125438,"calz de guadalupe 192, vallejo, gustavo a. madero, 07870 ciudad de méxico, cdmx",31/10/2023 18:41
9991,La Villa,Soriana,scotch-brite,recogedor con mango,84.9,1 pieza,recogedor,19.465417,-99.125438,"calz de guadalupe 192, vallejo, gustavo a. madero, 07870 ciudad de méxico, cdmx",31/10/2023 18:41
9991,La Villa,Soriana,reynera,recogedor mango extra largo,67.9,1 pieza,recogedor,19.465417,-99.125438,"calz de guadalupe 192, vallejo, gustavo a. madero, 07870 ciudad de méxico, cdmx",31/10/2023 18:41
9991,La Villa,Soriana,precíssimo,recogedor con bastón,57.0,1 pieza,recogedor,19.465417,-99.125438,"calz de guadalupe 192, vallejo, gustavo a. madero, 07870 ciudad de méxico, cdmx",31/10/2023 18:41
9991,La Villa,Soriana,precíssimo,recogedor manual,40.0,1 pieza,recogedor,19.465417,-99.125438,"calz de guadalupe 192, vallejo, gustavo a. madero, 07870 ciudad de méxico, cdmx",31/10/2023 18:41
9991,La Villa,Soriana,soriana,recogedor mango largo sor,40.9,1 pz,recogedor,19.465417,-99.125438,"calz de guadalupe 192, vallejo, gustavo a. madero, 07870 ciudad de méxico, cdmx",31/10/2023 18:41
9993,Paradox Santa Fe,Soriana,kleenex cottonelle,papel higiénico elegance,40.5,4 rollos,rollos+de+papel+higiénico,19.357303,-99.273539,"av sta fe 546, lomas de santa fe, contadero, cuajimalpa de morelos, 01219 ciudad de méxico, cdmx",31/10/2023 18:41
9993,Paradox Santa Fe,Soriana,kleenex cottonelle,papel higiénico beauty,39.9,4 rollos,rollos+de+papel+higiénico,19.357303,-99.273539,"av sta fe 546, lomas de santa fe, contadero, cuajimalpa de morelos, 01219 ciudad de méxico, cdmx",31/10/2023 18:41
9993,Paradox Santa Fe,Soriana,suavel,papel higiénico,21.9,paquete 4 piezas,rollos+de+papel+higiénico,19.357303,-99.273539,"av sta fe 546, lomas de santa fe, contadero, cuajimalpa de morelos, 01219 ciudad de méxico, cdmx",31/10/2023 18:41
9993,Paradox Santa Fe,Soriana,elite,papel higiénico color,22.9,4 rollos,rollos+de+papel+higiénico,19.357303,-99.273539,"av sta fe 546, lomas de santa fe, contadero, cuajimalpa de morelos, 01219 ciudad de méxico, cdmx",31/10/2023 18:41
9993,Paradox Santa Fe,Soriana,precíssimo,papel higiénico 270 hojas,19.9,paquete 4 piezas,rollos+de+papel+higiénico,19.357303,-99.273539,"av sta fe 546, lomas de santa fe, contadero, cuajimalpa de morelos, 01219 ciudad de méxico, cdmx",31/10/2023 18:41
9993,Paradox Santa Fe,Soriana,kleenex,papel higiénico mega jumbo,37.5,4 rollos,rollos+de+papel+higiénico,19.357303,-99.273539,"av sta fe 546, lomas de santa fe, contadero, cuajimalpa de morelos, 01219 ciudad de méxico, cdmx",31/10/2023 18:41
9993,Paradox Santa Fe,Soriana,facial quality,papel higiénico,30.9,4 piezas,rollos+de+papel+higiénico,19.357303,-99.273539,"av sta fe 546, lomas de santa fe, contadero, cuajimalpa de morelos, 01219 ciudad de méxico, cdmx",31/10/2023 18:41
9993,Paradox Santa Fe,Soriana,delsey,papel higiénico max,21.5,4 rollos,rollos+de+papel+higiénico,19.357303,-99.273539,"av sta fe 546, lomas de santa fe, contadero, cuajimalpa de morelos, 01219 ciudad de méxico, cdmx",31/10/2023 18:41
9993,Paradox Santa Fe,Soriana,kleenex cottonelle,papel higiénico pure,38.9,4 rollos,rollos+de+papel+higiénico,19.357303,-99.273539,"av sta fe 546, lomas de santa fe, contadero, cuajimalpa de morelos, 01219 ciudad de méxico, cdmx",31/10/2023 18:41
9993,Paradox Santa Fe,Soriana,quality day,papel higiénico resistente,27.9,4 rollos,rollos+de+papel+higiénico,19.357303,-99.273539,"av sta fe 546, lomas de santa fe, contadero, cuajimalpa de morelos, 01219 ciudad de méxico, cdmx",31/10/2023 18:41
4449,La Comer Tlalpan,La Comer,kleenex cottonelle,papel higiénico elegance,38.7,4 rollos,rollos+de+papel+higiénico,19.288687,-99.179181,"plazuela de la fama 1, la fama, 14410 tlalpan, mexico, ciudad de mexico",31/10/2023 18:41
4449,La Comer Tlalpan,La Comer,kleenex cottonelle,papel higiénico beauty,39.0,4 rollos,rollos+de+papel+higiénico,19.288687,-99.179181,"plazuela de la fama 1, la fama, 14410 tlalpan, mexico, ciudad de mexico",31/10/2023 18:41
4449,La Comer Tlalpan,La Comer,suavel,papel higiénico,18.2,paquete 4 piezas,rollos+de+papel+higiénico,19.288687,-99.179181,"plazuela de la fama 1, la fama, 14410 tlalpan, mexico, ciudad de mexico",31/10/2023 18:41
4449,La Comer Tlalpan,La Comer,elite,papel higiénico color,20.0,4 rollos,rollos+de+papel+higiénico,19.288687,-99.179181,"plazuela de la fama 1, la fama, 14410 tlalpan, mexico, ciudad de mexico",31/10/2023 18:41
4449,La Comer Tlalpan,La Comer,kleenex,papel higiénico mega jumbo,35.0,4 rollos,rollos+de+papel+higiénico,19.288687,-99.179181,"plazuela de la fama 1, la fama, 14410 tlalpan, mexico, ciudad de mexico",31/10/2023 18:41
4449,La Comer Tlalpan,La Comer,kleenex cottonelle,papel higiénico pure,38.0,4 rollos,rollos+de+papel+higiénico,19.288687,-99.179181,"plazuela de la fama 1, la fama, 14410 tlalpan, mexico, ciudad de mexico",31/10/2023 18:41
4449,La Comer Tlalpan,La Comer,charmin,papel higiénico mega rollo ultra strong,186.0,4 piezas,rollos+de+papel+higiénico,19.288687,-99.179181,"plazuela de la fama 1, la fama, 14410 tlalpan, mexico, ciudad de mexico",31/10/2023 18:41
4449,La Comer Tlalpan,La Comer,regio,papel higiénico luxury almond touch xxl,35.0,4 rollos,rollos+de+papel+higiénico,19.288687,-99.179181,"plazuela de la fama 1, la fama, 14410 tlalpan, mexico, ciudad de mexico",31/10/2023 18:41
4449,La Comer Tlalpan,La Comer,ke precio,papel higiénico,14.9,4 rollos,rollos+de+papel+higiénico,19.288687,-99.179181,"plazuela de la fama 1, la fama, 14410 tlalpan, mexico, ciudad de mexico",31/10/2023 18:41
4449,La Comer Tlalpan,La Comer,elite,papel higiénico triplex,26.0,pack 4 piezas,rollos+de+papel+higiénico,19.288687,-99.179181,"plazuela de la fama 1, la fama, 14410 tlalpan, mexico, ciudad de mexico",31/10/2023 18:41
9991,La Villa,Soriana,kleenex cottonelle,papel higiénico elegance,39.9,4 rollos,rollos+de+papel+higiénico,19.465417,-99.125438,"calz de guadalupe 192, vallejo, gustavo a. madero, 07870 ciudad de méxico, cdmx",31/10/2023 18:41
9991,La Villa,Soriana,kleenex cottonelle,papel higiénico beauty,39.9,4 rollos,rollos+de+papel+higiénico,19.465417,-99.125438,"calz de guadalupe 192, vallejo, gustavo a. madero, 07870 ciudad de méxico, cdmx",31/10/2023 18:41
9991,La Villa,Soriana,suavel,papel higiénico,21.9,paquete 4 piezas,rollos+de+papel+higiénico,19.465417,-99.125438,"calz de guadalupe 192, vallejo, gustavo a. madero, 07870 ciudad de méxico, cdmx",31/10/2023 18:41
9991,La Villa,Soriana,elite,papel higiénico color,22.9,4 rollos,rollos+de+papel+higiénico,19.465417,-99.125438,"calz de guadalupe 192, vallejo, gustavo a. madero, 07870 ciudad de méxico, cdmx",31/10/2023 18:41
9991,La Villa,Soriana,precíssimo,papel higiénico 270 hojas,19.9,paquete 4 piezas,rollos+de+papel+higiénico,19.465417,-99.125438,"calz de guadalupe 192, vallejo, gustavo a. madero, 07870 ciudad de méxico, cdmx",31/10/2023 18:41
9991,La Villa,Soriana,kleenex,papel higiénico mega jumbo,37.5,4 rollos,rollos+de+papel+higiénico,19.465417,-99.125438,"calz de guadalupe 192, vallejo, gustavo a. madero, 07870 ciudad de méxico, cdmx",31/10/2023 18:41
9991,La Villa,Soriana,facial quality,papel higiénico,30.9,4 piezas,rollos+de+papel+higiénico,19.465417,-99.125438,"calz de guadalupe 192, vallejo, gustavo a. madero, 07870 ciudad de méxico, cdmx",31/10/2023 18:41
9991,La Villa,Soriana,delsey,papel higiénico max,21.5,4 rollos,rollos+de+papel+higiénico,19.465417,-99.125438,"calz de guadalupe 192, vallejo, gustavo a. madero, 07870 ciudad de méxico, cdmx",31/10/2023 18:41
9991,La Villa,Soriana,quality day,papel higiénico resistente,29.5,4 rollos,rollos+de+papel+higiénico,19.465417,-99.125438,"calz de guadalupe 192, vallejo, gustavo a. madero, 07870 ciudad de méxico, cdmx",31/10/2023 18:41
9991,La Villa,Soriana,adorable,papel higiénico,35.5,pack 4 piezas,rollos+de+papel+higiénico,19.465417,-99.125438,"calz de guadalupe 192, vallejo, gustavo a. madero, 07870 ciudad de méxico, cdmx",31/10/2023 18:41
9993,Paradox Santa Fe,Soriana,scotch-brite,fibra esponja,36.9,1 pieza,sacate,19.357303,-99.273539,"av sta fe 546, lomas de santa fe, contadero, cuajimalpa de morelos, 01219 ciudad de méxico, cdmx",31/10/2023 18:41
9993,Paradox Santa Fe,Soriana,t.taio,toalla corporal rígida para baño y masaje,15.2,1 pieza,sacate,19.357303,-99.273539,"av sta fe 546, lomas de santa fe, contadero, cuajimalpa de morelos, 01219 ciudad de méxico, cdmx",31/10/2023 18:41
9993,Paradox Santa Fe,Soriana,skincare,esponja corporal,22.5,1 pieza,sacate,19.357303,-99.273539,"av sta fe 546, lomas de santa fe, contadero, cuajimalpa de morelos, 01219 ciudad de méxico, cdmx",31/10/2023 18:41
9993,Paradox Santa Fe,Soriana,bath time,esponja antiderrapante,69.0,1 pieza,sacate,19.357303,-99.273539,"av sta fe 546, lomas de santa fe, contadero, cuajimalpa de morelos, 01219 ciudad de méxico, cdmx",31/10/2023 18:41
4449,La Comer Tlalpan,La Comer,scotch-brite,fibra esponja,40.0,1 pieza,sacate,19.288687,-99.179181,"plazuela de la fama 1, la fama, 14410 tlalpan, mexico, ciudad de mexico",31/10/2023 18:41
4449,La Comer Tlalpan,La Comer,skin care,esponja exfoliadora,20.0,1 pieza,sacate,19.288687,-99.179181,"plazuela de la fama 1, la fama, 14410 tlalpan, mexico, ciudad de mexico",31/10/2023 18:41
4449,La Comer Tlalpan,La Comer,t.taio,toalla corporal rígida para baño y masaje,16.0,1 pieza,sacate,19.288687,-99.179181,"plazuela de la fama 1, la fama, 14410 tlalpan, mexico, ciudad de mexico",31/10/2023 18:41
4449,La Comer Tlalpan,La Comer,t.taio,esponjabón borla concha nacar,49.0,1 pieza,sacate,19.288687,-99.179181,"plazuela de la fama 1, la fama, 14410 tlalpan, mexico, ciudad de mexico",31/10/2023 18:41
4449,La Comer Tlalpan,La Comer,bath time,esponja antiderrapante,60.9,1 pieza,sacate,19.288687,-99.179181,"plazuela de la fama 1, la fama, 14410 tlalpan, mexico, ciudad de mexico",31/10/2023 18:41
4449,La Comer Tlalpan,La Comer,skincare,esponja corporal,27.0,1 pieza,sacate,19.288687,-99.179181,"plazuela de la fama 1, la fama, 14410 tlalpan, mexico, ciudad de mexico",31/10/2023 18:41
9991,La Villa,Soriana,scotch-brite,fibra esponja,40.9,1 pieza,sacate,19.465417,-99.125438,"calz de guadalupe 192, vallejo, gustavo a. madero, 07870 ciudad de méxico, cdmx",31/10/2023 18:41
9991,La Villa,Soriana,t.taio,toalla corporal rígida para baño y masaje,15.0,1 pieza,sacate,19.465417,-99.125438,"calz de guadalupe 192, vallejo, gustavo a. madero, 07870 ciudad de méxico, cdmx",31/10/2023 18:41
9991,La Villa,Soriana,skin care,esponja con textura media,17.65,1 pieza,sacate,19.465417,-99.125438,"calz de guadalupe 192, vallejo, gustavo a. madero, 07870 ciudad de méxico, cdmx",31/10/2023 18:41
9993,Paradox Santa Fe,Soriana,la fina,sal natural,21.5,1 kg,sal,19.357303,-99.273539,"av sta fe 546, lomas de santa fe, contadero, cuajimalpa de morelos, 01219 ciudad de méxico, cdmx",31/10/2023 18:41
9993,Paradox Santa Fe,Soriana,la fina,sal yodada fluorurada,23.5,bote 250 g,sal,19.357303,-99.273539,"av sta fe 546, lomas de santa fe, contadero, cuajimalpa de morelos, 01219 ciudad de méxico, cdmx",31/10/2023 18:41
9993,Paradox Santa Fe,Soriana,aires de campo,sal gruesa,35.0,doypack 250 g,sal,19.357303,-99.273539,"av sta fe 546, lomas de santa fe, contadero, cuajimalpa de morelos, 01219 ciudad de méxico, cdmx",31/10/2023 18:41
9993,Paradox Santa Fe,Soriana,elefante,sal natural en grano,9.9,bolsa 750 g,sal,19.357303,-99.273539,"av sta fe 546, lomas de santa fe, contadero, cuajimalpa de morelos, 01219 ciudad de méxico, cdmx",31/10/2023 18:41
9993,Paradox Santa Fe,Soriana,cisne,sal en grano ,18.0,1 kg,sal,19.357303,-99.273539,"av sta fe 546, lomas de santa fe, contadero, cuajimalpa de morelos, 01219 ciudad de méxico, cdmx",31/10/2023 18:41
9993,Paradox Santa Fe,Soriana,la fina,sal de mar yodada fluorurada en grano,17.9,bolsa 1 kg,sal,19.357303,-99.273539,"av sta fe 546, lomas de santa fe, contadero, cuajimalpa de morelos, 01219 ciudad de méxico, cdmx",31/10/2023 18:41
9993,Paradox Santa Fe,Soriana,altamar,sal rosada molino ,168.5,300 g,sal,19.357303,-99.273539,"av sta fe 546, lomas de santa fe, contadero, cuajimalpa de morelos, 01219 ciudad de méxico, cdmx",31/10/2023 18:41
9993,Paradox Santa Fe,Soriana,valley foods,sal de mar,53.0,pouch 1 kg,sal,19.357303,-99.273539,"av sta fe 546, lomas de santa fe, contadero, cuajimalpa de morelos, 01219 ciudad de méxico, cdmx",31/10/2023 18:41
9993,Paradox Santa Fe,Soriana,terana,sal,50.0,ahumada 150 grs,sal,19.357303,-99.273539,"av sta fe 546, lomas de santa fe, contadero, cuajimalpa de morelos, 01219 ciudad de méxico, cdmx",31/10/2023 18:41
9993,Paradox Santa Fe,Soriana,master chef,sal de mar,69.5,125 g,sal,19.357303,-99.273539,"av sta fe 546, lomas de santa fe, contadero, cuajimalpa de morelos, 01219 ciudad de méxico, cdmx",31/10/2023 18:41
9993,Paradox Santa Fe,Soriana,valley foods,sal de mar,76.5,frasco 1 kg,sal,19.357303,-99.273539,"av sta fe 546, lomas de santa fe, contadero, cuajimalpa de morelos, 01219 ciudad de méxico, cdmx",31/10/2023 18:41
9993,Paradox Santa Fe,Soriana,elefante,sal natural de mesa refinada,13.9,750 g,sal,19.357303,-99.273539,"av sta fe 546, lomas de santa fe, contadero, cuajimalpa de morelos, 01219 ciudad de méxico, cdmx",31/10/2023 18:41
9993,Paradox Santa Fe,Soriana,escosa,sal,25.9,de mar en grano gourmet 95 grs,sal,19.357303,-99.273539,"av sta fe 546, lomas de santa fe, contadero, cuajimalpa de morelos, 01219 ciudad de méxico, cdmx",31/10/2023 18:41
9993,Paradox Santa Fe,Soriana,valley foods,sal de mar,32.0,pouch 400 g,sal,19.357303,-99.273539,"av sta fe 546, lomas de santa fe, contadero, cuajimalpa de morelos, 01219 ciudad de méxico, cdmx",31/10/2023 18:41
9993,Paradox Santa Fe,Soriana,pontino,molinillo sal de mar,122.0,650 g,sal,19.357303,-99.273539,"av sta fe 546, lomas de santa fe, contadero, cuajimalpa de morelos, 01219 ciudad de méxico, cdmx",31/10/2023 18:41
9993,Paradox Santa Fe,Soriana,la fina,sal yodada,13.9,650 g,sal,19.357303,-99.273539,"av sta fe 546, lomas de santa fe, contadero, cuajimalpa de morelos, 01219 ciudad de méxico, cdmx",31/10/2023 18:41
9993,Paradox Santa Fe,Soriana,altamar,sal de mar,82.9,bote 1 kg,sal,19.357303,-99.273539,"av sta fe 546, lomas de santa fe, contadero, cuajimalpa de morelos, 01219 ciudad de méxico, cdmx",31/10/2023 18:41
4449,La Comer Tlalpan,La Comer,la fina,sal natural,22.8,1 kg,sal,19.288687,-99.179181,"plazuela de la fama 1, la fama, 14410 tlalpan, mexico, ciudad de mexico",31/10/2023 18:41
4449,La Comer Tlalpan,La Comer,la fina,sal yodada fluorurada,23.2,bote 250 g,sal,19.288687,-99.179181,"plazuela de la fama 1, la fama, 14410 tlalpan, mexico, ciudad de mexico",31/10/2023 18:41
4449,La Comer Tlalpan,La Comer,la fina,sal yodatada fluorurada,24.4,bote 750 g,sal,19.288687,-99.179181,"plazuela de la fama 1, la fama, 14410 tlalpan, mexico, ciudad de mexico",31/10/2023 18:41
4449,La Comer Tlalpan,La Comer,sal sol,sal yodada fluorurada,13.5,bolsa 1 kg,sal,19.288687,-99.179181,"plazuela de la fama 1, la fama, 14410 tlalpan, mexico, ciudad de mexico",31/10/2023 18:41
4449,La Comer Tlalpan,La Comer,elefante,sal natural en grano,9.9,bolsa 750 g,sal,19.288687,-99.179181,"plazuela de la fama 1, la fama, 14410 tlalpan, mexico, ciudad de mexico",31/10/2023 18:41
4449,La Comer Tlalpan,La Comer,sal sol,sal de mar refinada,19.0,bote 1 kg,sal,19.288687,-99.179181,"plazuela de la fama 1, la fama, 14410 tlalpan, mexico, ciudad de mexico",31/10/2023 18:41
4449,La Comer Tlalpan,La Comer,sal sol,sal de mar grano fino,13.0,750 g,sal,19.288687,-99.179181,"plazuela de la fama 1, la fama, 14410 tlalpan, mexico, ciudad de mexico",31/10/2023 18:41
4449,La Comer Tlalpan,La Comer,elefante,sal de mesa refinada,22.1,1 kg,sal,19.288687,-99.179181,"plazuela de la fama 1, la fama, 14410 tlalpan, mexico, ciudad de mexico",31/10/2023 18:41
4449,La Comer Tlalpan,La Comer,elefante,sal blanca yodada fluorurada,9.5,mesa 500 grs,sal,19.288687,-99.179181,"plazuela de la fama 1, la fama, 14410 tlalpan, mexico, ciudad de mexico",31/10/2023 18:41
4449,La Comer Tlalpan,La Comer,escosa,sal de mar,70.0,1 kg.,sal,19.288687,-99.179181,"plazuela de la fama 1, la fama, 14410 tlalpan, mexico, ciudad de mexico",31/10/2023 18:41
4449,La Comer Tlalpan,La Comer,aires de campo,sal fina,37.0,250 g,sal,19.288687,-99.179181,"plazuela de la fama 1, la fama, 14410 tlalpan, mexico, ciudad de mexico",31/10/2023 18:41
9991,La Villa,Soriana,la fina,sal natural,21.5,1 kg,sal,19.465417,-99.125438,"calz de guadalupe 192, vallejo, gustavo a. madero, 07870 ciudad de méxico, cdmx",31/10/2023 18:41
9991,La Villa,Soriana,la fina,sal yodada fluorurada,23.5,bote 250 g,sal,19.465417,-99.125438,"calz de guadalupe 192, vallejo, gustavo a. madero, 07870 ciudad de méxico, cdmx",31/10/2023 18:41
9991,La Villa,Soriana,sal sol,sal yodada fluorurada,12.9,bolsa 1 kg,sal,19.465417,-99.125438,"calz de guadalupe 192, vallejo, gustavo a. madero, 07870 ciudad de méxico, cdmx",31/10/2023 18:41
9991,La Villa,Soriana,elefante,sal natural en grano,9.9,bolsa 750 g,sal,19.465417,-99.125438,"calz de guadalupe 192, vallejo, gustavo a. madero, 07870 ciudad de méxico, cdmx",31/10/2023 18:41
9991,La Villa,Soriana,altamar,sal de mar artesanal,38.9,doypack 400 g,sal,19.465417,-99.125438,"calz de guadalupe 192, vallejo, gustavo a. madero, 07870 ciudad de méxico, cdmx",31/10/2023 18:41
9991,La Villa,Soriana,altamar,sal de mar molino,132.9,frasco 390 g,sal,19.465417,-99.125438,"calz de guadalupe 192, vallejo, gustavo a. madero, 07870 ciudad de méxico, cdmx",31/10/2023 18:41
9991,La Villa,Soriana,la fina,sal natural,13.5,120 g,sal,19.465417,-99.125438,"calz de guadalupe 192, vallejo, gustavo a. madero, 07870 ciudad de méxico, cdmx",31/10/2023 18:41
9991,La Villa,Soriana,altamar,sal de mar grano grueso,84.0,900 g,sal,19.465417,-99.125438,"calz de guadalupe 192, vallejo, gustavo a. madero, 07870 ciudad de méxico, cdmx",31/10/2023 18:41
9991,La Villa,Soriana,altamar,sal de mar,61.9,1 kg,sal,19.465417,-99.125438,"calz de guadalupe 192, vallejo, gustavo a. madero, 07870 ciudad de méxico, cdmx",31/10/2023 18:41
9991,La Villa,Soriana,sal sol,sal de mar refinada,15.5,bolsa 1 kg,sal,19.465417,-99.125438,"calz de guadalupe 192, vallejo, gustavo a. madero, 07870 ciudad de méxico, cdmx",31/10/2023 18:41
9991,La Villa,Soriana,la fina,sal yodada,13.9,650 g,sal,19.465417,-99.125438,"calz de guadalupe 192, vallejo, gustavo a. madero, 07870 ciudad de méxico, cdmx",31/10/2023 18:41
9991,La Villa,Soriana,altamar,sal de mar,82.9,bote 1 kg,sal,19.465417,-99.125438,"calz de guadalupe 192, vallejo, gustavo a. madero, 07870 ciudad de méxico, cdmx",31/10/2023 18:41
9991,La Villa,Soriana,cisne,sal en grano ,18.0,1 kg,sal,19.465417,-99.125438,"calz de guadalupe 192, vallejo, gustavo a. madero, 07870 ciudad de méxico, cdmx",31/10/2023 18:41
9991,La Villa,Soriana,sal sol,sal de mar refinada,19.8,bote 1 kg,sal,19.465417,-99.125438,"calz de guadalupe 192, vallejo, gustavo a. madero, 07870 ciudad de méxico, cdmx",31/10/2023 18:41
9991,La Villa,Soriana,la fina,sal de mar yodada fluorurada en grano,17.8,bolsa 1 kg,sal,19.465417,-99.125438,"calz de guadalupe 192, vallejo, gustavo a. madero, 07870 ciudad de méxico, cdmx",31/10/2023 18:41
9991,La Villa,Soriana,altamar,sal rosada molino ,168.5,300 g,sal,19.465417,-99.125438,"calz de guadalupe 192, vallejo, gustavo a. madero, 07870 ciudad de méxico, cdmx",31/10/2023 18:41
9991,La Villa,Soriana,valley foods,sal de mar,53.0,pouch 1 kg,sal,19.465417,-99.125438,"calz de guadalupe 192, vallejo, gustavo a. madero, 07870 ciudad de méxico, cdmx",31/10/2023 18:41
9993,Paradox Santa Fe,Soriana,fresh label,sardinas en salsa de tomate,23.0,425 g,sardina,19.357303,-99.273539,"av sta fe 546, lomas de santa fe, contadero, cuajimalpa de morelos, 01219 ciudad de méxico, cdmx",31/10/2023 18:41
9993,Paradox Santa Fe,Soriana,guaymex,sardinas en salsa de tomate,40.5,lata 425 g,sardina,19.357303,-99.273539,"av sta fe 546, lomas de santa fe, contadero, cuajimalpa de morelos, 01219 ciudad de méxico, cdmx",31/10/2023 18:41
9993,Paradox Santa Fe,Soriana,dolores,sardina en salsa de tomate,43.9,lata 425 g,sardina,19.357303,-99.273539,"av sta fe 546, lomas de santa fe, contadero, cuajimalpa de morelos, 01219 ciudad de méxico, cdmx",31/10/2023 18:41
9993,Paradox Santa Fe,Soriana,portola,sardina en salsa de tomate,41.0,425 g,sardina,19.357303,-99.273539,"av sta fe 546, lomas de santa fe, contadero, cuajimalpa de morelos, 01219 ciudad de méxico, cdmx",31/10/2023 18:41
4449,La Comer Tlalpan,La Comer,fresh label,sardinas en salsa de tomate,24.4,425 g,sardina,19.288687,-99.179181,"plazuela de la fama 1, la fama, 14410 tlalpan, mexico, ciudad de mexico",31/10/2023 18:41
4449,La Comer Tlalpan,La Comer,guaymex,sardinas en salsa de tomate,38.7,lata 425 g,sardina,19.288687,-99.179181,"plazuela de la fama 1, la fama, 14410 tlalpan, mexico, ciudad de mexico",31/10/2023 18:41
4449,La Comer Tlalpan,La Comer,dolores,sardina en salsa de tomate,39.9,lata 425 g,sardina,19.288687,-99.179181,"plazuela de la fama 1, la fama, 14410 tlalpan, mexico, ciudad de mexico",31/10/2023 18:41
4449,La Comer Tlalpan,La Comer,altamar,sardina en salsa de tomate ,36.9,425 g,sardina,19.288687,-99.179181,"plazuela de la fama 1, la fama, 14410 tlalpan, mexico, ciudad de mexico",31/10/2023 18:41
4449,La Comer Tlalpan,La Comer,calmex,sardinas en salsa de tomate ,44.0,425 g,sardina,19.288687,-99.179181,"plazuela de la fama 1, la fama, 14410 tlalpan, mexico, ciudad de mexico",31/10/2023 18:41
4449,La Comer Tlalpan,La Comer,calmex,sardina a la veracruzana,47.5,425 grs,sardina,19.288687,-99.179181,"plazuela de la fama 1, la fama, 14410 tlalpan, mexico, ciudad de mexico",31/10/2023 18:41
9991,La Villa,Soriana,fresh label,sardinas en salsa de tomate,23.0,425 g,sardina,19.465417,-99.125438,"calz de guadalupe 192, vallejo, gustavo a. madero, 07870 ciudad de méxico, cdmx",31/10/2023 18:41
9991,La Villa,Soriana,guaymex,sardinas en salsa de tomate,39.9,lata 425 g,sardina,19.465417,-99.125438,"calz de guadalupe 192, vallejo, gustavo a. madero, 07870 ciudad de méxico, cdmx",31/10/2023 18:41
9991,La Villa,Soriana,dolores,sardina en salsa de tomate,43.5,lata 425 g,sardina,19.465417,-99.125438,"calz de guadalupe 192, vallejo, gustavo a. madero, 07870 ciudad de méxico, cdmx",31/10/2023 18:41
9993,Paradox Santa Fe,Soriana,maruchan,sopa instantánea sabor camarón picante,7.0,85 g,sopas+instantánea,19.357303,-99.273539,"av sta fe 546, lomas de santa fe, contadero, cuajimalpa de morelos, 01219 ciudad de méxico, cdmx",31/10/2023 18:41
9993,Paradox Santa Fe,Soriana,nissin,sopa instantánea cup noodles con camarón picante,13.5,64 g,sopas+instantánea,19.357303,-99.273539,"av sta fe 546, lomas de santa fe, contadero, cuajimalpa de morelos, 01219 ciudad de méxico, cdmx",31/10/2023 18:41
9993,Paradox Santa Fe,Soriana,maruchan,sopa instantánea sabor camarón,7.0,85 g,sopas+instantánea,19.357303,-99.273539,"av sta fe 546, lomas de santa fe, contadero, cuajimalpa de morelos, 01219 ciudad de méxico, cdmx",31/10/2023 18:41
9993,Paradox Santa Fe,Soriana,maruchan,sopa instantánea con camarón,14.0,vaso 64 g,sopas+instantánea,19.357303,-99.273539,"av sta fe 546, lomas de santa fe, contadero, cuajimalpa de morelos, 01219 ciudad de méxico, cdmx",31/10/2023 18:41
9993,Paradox Santa Fe,Soriana,maruchan,"sopa instantánea de camarón, limón y habanero",7.0,bolsa 85 g,sopas+instantánea,19.357303,-99.273539,"av sta fe 546, lomas de santa fe, contadero, cuajimalpa de morelos, 01219 ciudad de méxico, cdmx",31/10/2023 18:41
9993,Paradox Santa Fe,Soriana,nissin,sopa instantánea sabor camarón con habanero y limón,13.5,64 g,sopas+instantánea,19.357303,-99.273539,"av sta fe 546, lomas de santa fe, contadero, cuajimalpa de morelos, 01219 ciudad de méxico, cdmx",31/10/2023 18:41
9993,Paradox Santa Fe,Soriana,knorr,sopa instantánea pollo,22.9,64 g,sopas+instantánea,19.357303,-99.273539,"av sta fe 546, lomas de santa fe, contadero, cuajimalpa de morelos, 01219 ciudad de méxico, cdmx",31/10/2023 18:41
9993,Paradox Santa Fe,Soriana,maruchan,sopa instantánea con camarón y chile piquín,14.0,vaso 64 g,sopas+instantánea,19.357303,-99.273539,"av sta fe 546, lomas de santa fe, contadero, cuajimalpa de morelos, 01219 ciudad de méxico, cdmx",31/10/2023 18:41
9993,Paradox Santa Fe,Soriana,ottima,pasta instantánea sabor a quesos,7.4,93.4 g,sopas+instantánea,19.357303,-99.273539,"av sta fe 546, lomas de santa fe, contadero, cuajimalpa de morelos, 01219 ciudad de méxico, cdmx",31/10/2023 18:41
9993,Paradox Santa Fe,Soriana,knorr,"sopa instantánea camarón, habanero y limón",22.9,64 g,sopas+instantánea,19.357303,-99.273539,"av sta fe 546, lomas de santa fe, contadero, cuajimalpa de morelos, 01219 ciudad de méxico, cdmx",31/10/2023 18:41
9993,Paradox Santa Fe,Soriana,knorr,sopa instantánea camarón y chile piquín,22.9,64 g,sopas+instantánea,19.357303,-99.273539,"av sta fe 546, lomas de santa fe, contadero, cuajimalpa de morelos, 01219 ciudad de méxico, cdmx",31/10/2023 18:41
9993,Paradox Santa Fe,Soriana,maruchan,sopa instantánea yakisoba de pollo,19.1,charola 113.4 g,sopas+instantánea,19.357303,-99.273539,"av sta fe 546, lomas de santa fe, contadero, cuajimalpa de morelos, 01219 ciudad de méxico, cdmx",31/10/2023 18:41
4449,La Comer Tlalpan,La Comer,nissin,sopa instantánea cup noodles con camarón picante,12.2,64 g,sopas+instantánea,19.288687,-99.179181,"plazuela de la fama 1, la fama, 14410 tlalpan, mexico, ciudad de mexico",31/10/2023 18:41
4449,La Comer Tlalpan,La Comer,sapporo ichiban,sopa instantánea de fideo sabor pollo,31.0,sobre 100 g,sopas+instantánea,19.288687,-99.179181,"plazuela de la fama 1, la fama, 14410 tlalpan, mexico, ciudad de mexico",31/10/2023 18:41
4449,La Comer Tlalpan,La Comer,nissin,sopa instantánea cup noodles diablo,11.0,64 g,sopas+instantánea,19.288687,-99.179181,"plazuela de la fama 1, la fama, 14410 tlalpan, mexico, ciudad de mexico",31/10/2023 18:41
4449,La Comer Tlalpan,La Comer,nissin,sopa instantánea cup noodles esquites,11.0,vaso 64 g,sopas+instantánea,19.288687,-99.179181,"plazuela de la fama 1, la fama, 14410 tlalpan, mexico, ciudad de mexico",31/10/2023 18:41
4449,La Comer Tlalpan,La Comer,samyang,ramen instantáneo extra picante sabor pollo,38.0,empaque 140 g,sopas+instantánea,19.288687,-99.179181,"plazuela de la fama 1, la fama, 14410 tlalpan, mexico, ciudad de mexico",31/10/2023 18:41
4449,La Comer Tlalpan,La Comer,nissin,sopa instantánea sabor camarón con habanero y limón,12.2,64 g,sopas+instantánea,19.288687,-99.179181,"plazuela de la fama 1, la fama, 14410 tlalpan, mexico, ciudad de mexico",31/10/2023 18:41
4449,La Comer Tlalpan,La Comer,nissin,sopa instantánea maxi sabor camarón picante,18.5,80 g,sopas+instantánea,19.288687,-99.179181,"plazuela de la fama 1, la fama, 14410 tlalpan, mexico, ciudad de mexico",31/10/2023 18:41
4449,La Comer Tlalpan,La Comer,knorr,sopa instantánea pollo,14.02,64 g,sopas+instantánea,19.288687,-99.179181,"plazuela de la fama 1, la fama, 14410 tlalpan, mexico, ciudad de mexico",31/10/2023 18:41
4449,La Comer Tlalpan,La Comer,myojo,fideo instantáneo pollo,31.0,bolsa 205 g,sopas+instantánea,19.288687,-99.179181,"plazuela de la fama 1, la fama, 14410 tlalpan, mexico, ciudad de mexico",31/10/2023 18:41
4449,La Comer Tlalpan,La Comer,sopa fan's,sopa instantánea camarón picante,21.0,vaso 85 g,sopas+instantánea,19.288687,-99.179181,"plazuela de la fama 1, la fama, 14410 tlalpan, mexico, ciudad de mexico",31/10/2023 18:41
4449,La Comer Tlalpan,La Comer,la primordial,sopa instantanea pollo,16.5,bote 64 g,sopas+instantánea,19.288687,-99.179181,"plazuela de la fama 1, la fama, 14410 tlalpan, mexico, ciudad de mexico",31/10/2023 18:41
4449,La Comer Tlalpan,La Comer,samyang,sopa instantánea picante sabor pollo,38.0,empaque 140 g,sopas+instantánea,19.288687,-99.179181,"plazuela de la fama 1, la fama, 14410 tlalpan, mexico, ciudad de mexico",31/10/2023 18:41
4449,La Comer Tlalpan,La Comer,knorr,"sopa instantánea camarón, habanero y limón",21.0,64 g,sopas+instantánea,19.288687,-99.179181,"plazuela de la fama 1, la fama, 14410 tlalpan, mexico, ciudad de mexico",31/10/2023 18:41
4449,La Comer Tlalpan,La Comer,knorr,sopa instantánea camarón y chile piquín,14.02,64 g,sopas+instantánea,19.288687,-99.179181,"plazuela de la fama 1, la fama, 14410 tlalpan, mexico, ciudad de mexico",31/10/2023 18:41
4449,La Comer Tlalpan,La Comer,la primordial,sopa instantánea camarón limón habanero,16.5,bote 64 g,sopas+instantánea,19.288687,-99.179181,"plazuela de la fama 1, la fama, 14410 tlalpan, mexico, ciudad de mexico",31/10/2023 18:41
4449,La Comer Tlalpan,La Comer,la primordial,sopa instantánea camarón chile piquín,16.5,bote 64 g,sopas+instantánea,19.288687,-99.179181,"plazuela de la fama 1, la fama, 14410 tlalpan, mexico, ciudad de mexico",31/10/2023 18:41
4449,La Comer Tlalpan,La Comer,sopa fan's,sopa instantánea camarón,10.5,sobre 85 g,sopas+instantánea,19.288687,-99.179181,"plazuela de la fama 1, la fama, 14410 tlalpan, mexico, ciudad de mexico",31/10/2023 18:41
9991,La Villa,Soriana,maruchan,sopa instantánea sabor carne de res,7.0,sobre 85 g,sopas+instantánea,19.465417,-99.125438,"calz de guadalupe 192, vallejo, gustavo a. madero, 07870 ciudad de méxico, cdmx",31/10/2023 18:41
9991,La Villa,Soriana,maruchan,sopa instantánea sabor camarón picante,7.0,85 g,sopas+instantánea,19.465417,-99.125438,"calz de guadalupe 192, vallejo, gustavo a. madero, 07870 ciudad de méxico, cdmx",31/10/2023 18:41
9991,La Villa,Soriana,nissin,sopa instantánea cup noodles con camarón picante,13.3,64 g,sopas+instantánea,19.465417,-99.125438,"calz de guadalupe 192, vallejo, gustavo a. madero, 07870 ciudad de méxico, cdmx",31/10/2023 18:41
9991,La Villa,Soriana,maruchan,sopa instantánea sabor camarón,7.0,85 g,sopas+instantánea,19.465417,-99.125438,"calz de guadalupe 192, vallejo, gustavo a. madero, 07870 ciudad de méxico, cdmx",31/10/2023 18:41
9991,La Villa,Soriana,maruchan,sopa instantánea con camarón,14.0,vaso 64 g,sopas+instantánea,19.465417,-99.125438,"calz de guadalupe 192, vallejo, gustavo a. madero, 07870 ciudad de méxico, cdmx",31/10/2023 18:41
9991,La Villa,Soriana,maruchan,"sopa instantánea de camarón, limón y habanero",7.0,bolsa 85 g,sopas+instantánea,19.465417,-99.125438,"calz de guadalupe 192, vallejo, gustavo a. madero, 07870 ciudad de méxico, cdmx",31/10/2023 18:41
9991,La Villa,Soriana,nissin,sopa instantánea cup noodles diablo,14.2,64 g,sopas+instantánea,19.465417,-99.125438,"calz de guadalupe 192, vallejo, gustavo a. madero, 07870 ciudad de méxico, cdmx",31/10/2023 18:41
9991,La Villa,Soriana,nissin,sopa instantánea sabor camarón con habanero y limón,13.3,64 g,sopas+instantánea,19.465417,-99.125438,"calz de guadalupe 192, vallejo, gustavo a. madero, 07870 ciudad de méxico, cdmx",31/10/2023 18:41
9991,La Villa,Soriana,knorr,sopa instantánea pollo,22.5,64 g,sopas+instantánea,19.465417,-99.125438,"calz de guadalupe 192, vallejo, gustavo a. madero, 07870 ciudad de méxico, cdmx",31/10/2023 18:41
9991,La Villa,Soriana,maruchan,sopa instantánea con camarón y chile piquín,14.0,vaso 64 g,sopas+instantánea,19.465417,-99.125438,"calz de guadalupe 192, vallejo, gustavo a. madero, 07870 ciudad de méxico, cdmx",31/10/2023 18:41
9991,La Villa,Soriana,ottima,pasta instantánea sabor a quesos,8.85,93.4 g,sopas+instantánea,19.465417,-99.125438,"calz de guadalupe 192, vallejo, gustavo a. madero, 07870 ciudad de méxico, cdmx",31/10/2023 18:41
9991,La Villa,Soriana,knorr,"sopa instantánea camarón, habanero y limón",22.5,64 g,sopas+instantánea,19.465417,-99.125438,"calz de guadalupe 192, vallejo, gustavo a. madero, 07870 ciudad de méxico, cdmx",31/10/2023 18:41
9991,La Villa,Soriana,knorr,sopa instantánea camarón y chile piquín,22.5,64 g,sopas+instantánea,19.465417,-99.125438,"calz de guadalupe 192, vallejo, gustavo a. madero, 07870 ciudad de méxico, cdmx",31/10/2023 18:41
9991,La Villa,Soriana,sedal,crema para peinar restauración instantánea,22.5,botella 135 ml,sopas+instantánea,19.465417,-99.125438,"calz de guadalupe 192, vallejo, gustavo a. madero, 07870 ciudad de méxico, cdmx",31/10/2023 18:41
4449,La Comer Tlalpan,La Comer,la josefina,toalla facial caricia,32.0,1 pieza,toallas+faciales,19.288687,-99.179181,"plazuela de la fama 1, la fama, 14410 tlalpan, mexico, ciudad de mexico",31/10/2023 18:41
4449,La Comer Tlalpan,La Comer,la josefina,toalla facial caricia 100% algodón,32.0,1 pieza,toallas+faciales,19.288687,-99.179181,"plazuela de la fama 1, la fama, 14410 tlalpan, mexico, ciudad de mexico",31/10/2023 18:41
4449,La Comer Tlalpan,La Comer,la josefina,toalla facial 100% algodón,32.0,1 pieza,toallas+faciales,19.288687,-99.179181,"plazuela de la fama 1, la fama, 14410 tlalpan, mexico, ciudad de mexico",31/10/2023 18:41
4449,La Comer Tlalpan,La Comer,buddemeyer,toalla facial chevron amarillo,148.0,1 pieza,toallas+faciales,19.288687,-99.179181,"plazuela de la fama 1, la fama, 14410 tlalpan, mexico, ciudad de mexico",31/10/2023 18:41
4449,La Comer Tlalpan,La Comer,cottonella,toalla facial rio azul marino,32.0,1 pieza,toallas+faciales,19.288687,-99.179181,"plazuela de la fama 1, la fama, 14410 tlalpan, mexico, ciudad de mexico",31/10/2023 18:41
4449,La Comer Tlalpan,La Comer,cottonella,toalla facial rio violeta,32.0,1 pieza,toallas+faciales,19.288687,-99.179181,"plazuela de la fama 1, la fama, 14410 tlalpan, mexico, ciudad de mexico",31/10/2023 18:41
4449,La Comer Tlalpan,La Comer,la josefina,toalla facial rosa,32.0,1 pieza,toallas+faciales,19.288687,-99.179181,"plazuela de la fama 1, la fama, 14410 tlalpan, mexico, ciudad de mexico",31/10/2023 18:41
4449,La Comer Tlalpan,La Comer,la josefina,toalla facial verde,32.0,1 pieza,toallas+faciales,19.288687,-99.179181,"plazuela de la fama 1, la fama, 14410 tlalpan, mexico, ciudad de mexico",31/10/2023 18:41
4449,La Comer Tlalpan,La Comer,la josefina,toalla facial beige,32.0,1 pieza,toallas+faciales,19.288687,-99.179181,"plazuela de la fama 1, la fama, 14410 tlalpan, mexico, ciudad de mexico",31/10/2023 18:41
4449,La Comer Tlalpan,La Comer,la josefina,toalla facial amarillo,32.0,1 pieza,toallas+faciales,19.288687,-99.179181,"plazuela de la fama 1, la fama, 14410 tlalpan, mexico, ciudad de mexico",31/10/2023 18:41
4449,La Comer Tlalpan,La Comer,la josefina,toalla facial beige,32.0,1 pieza,toallas+faciales,19.288687,-99.179181,"plazuela de la fama 1, la fama, 14410 tlalpan, mexico, ciudad de mexico",31/10/2023 18:41
4449,La Comer Tlalpan,La Comer,la josefina,toalla facial blanca,32.0,1 pieza,toallas+faciales,19.288687,-99.179181,"plazuela de la fama 1, la fama, 14410 tlalpan, mexico, ciudad de mexico",31/10/2023 18:41
4449,La Comer Tlalpan,La Comer,la josefina,toalla facial morado,32.0,1 pieza,toallas+faciales,19.288687,-99.179181,"plazuela de la fama 1, la fama, 14410 tlalpan, mexico, ciudad de mexico",31/10/2023 18:41
4449,La Comer Tlalpan,La Comer,cottonella,toalla facial rio verde,32.0,1 pieza,toallas+faciales,19.288687,-99.179181,"plazuela de la fama 1, la fama, 14410 tlalpan, mexico, ciudad de mexico",31/10/2023 18:41
4449,La Comer Tlalpan,La Comer,cottonella,toalla facial rio perla,32.0,1 pieza,toallas+faciales,19.288687,-99.179181,"plazuela de la fama 1, la fama, 14410 tlalpan, mexico, ciudad de mexico",31/10/2023 18:41
4449,La Comer Tlalpan,La Comer,cottonella,toalla facial rio café,32.0,1 pieza,toallas+faciales,19.288687,-99.179181,"plazuela de la fama 1, la fama, 14410 tlalpan, mexico, ciudad de mexico",31/10/2023 18:41
4449,La Comer Tlalpan,La Comer,cottonella,toalla facial rio beige,32.0,1 pieza,toallas+faciales,19.288687,-99.179181,"plazuela de la fama 1, la fama, 14410 tlalpan, mexico, ciudad de mexico",31/10/2023 18:41
9991,La Villa,Soriana,basic baby,toallas faciales,89.0,set 3 piezas,toallas+faciales,19.465417,-99.125438,"calz de guadalupe 192, vallejo, gustavo a. madero, 07870 ciudad de méxico, cdmx",31/10/2023 18:41
9993,Paradox Santa Fe,Soriana,naturella,toallas femeninas nocturna extra larga flujo súper abundante,22.9,pack 8 piezas,toallas+femeninas,19.357303,-99.273539,"av sta fe 546, lomas de santa fe, contadero, cuajimalpa de morelos, 01219 ciudad de méxico, cdmx",31/10/2023 18:41
9993,Paradox Santa Fe,Soriana,pro selection,toallas femeninas íntima nocturna con alas,10.0,pack 8 piezas,toallas+femeninas,19.357303,-99.273539,"av sta fe 546, lomas de santa fe, contadero, cuajimalpa de morelos, 01219 ciudad de méxico, cdmx",31/10/2023 18:41
9993,Paradox Santa Fe,Soriana,pro selection,toalla femenina anatómica con alas,10.0,8 piezas,toallas+femeninas,19.357303,-99.273539,"av sta fe 546, lomas de santa fe, contadero, cuajimalpa de morelos, 01219 ciudad de méxico, cdmx",31/10/2023 18:41
9993,Paradox Santa Fe,Soriana,pro selection,toallas femeninas sin alas flujo regular,10.0,8 piezas,toallas+femeninas,19.357303,-99.273539,"av sta fe 546, lomas de santa fe, contadero, cuajimalpa de morelos, 01219 ciudad de méxico, cdmx",31/10/2023 18:41
4449,La Comer Tlalpan,La Comer,naturella,toallas femeninas nocturna extra larga flujo súper abundante,20.0,pack 8 piezas,toallas+femeninas,19.288687,-99.179181,"plazuela de la fama 1, la fama, 14410 tlalpan, mexico, ciudad de mexico",31/10/2023 18:41
9991,La Villa,Soriana,naturella,toallas femeninas nocturna extra larga flujo súper abundante,21.5,pack 8 piezas,toallas+femeninas,19.465417,-99.125438,"calz de guadalupe 192, vallejo, gustavo a. madero, 07870 ciudad de méxico, cdmx",31/10/2023 18:41
9991,La Villa,Soriana,pro selection,toallas femeninas íntima nocturna con alas,10.0,pack 8 piezas,toallas+femeninas,19.465417,-99.125438,"calz de guadalupe 192, vallejo, gustavo a. madero, 07870 ciudad de méxico, cdmx",31/10/2023 18:41
9991,La Villa,Soriana,pro selection,toalla femenina anatómica con alas,10.0,8 piezas,toallas+femeninas,19.465417,-99.125438,"calz de guadalupe 192, vallejo, gustavo a. madero, 07870 ciudad de méxico, cdmx",31/10/2023 18:41
9991,La Villa,Soriana,pro selection,toallas femeninas sin alas flujo regular,10.0,8 piezas,toallas+femeninas,19.465417,-99.125438,"calz de guadalupe 192, vallejo, gustavo a. madero, 07870 ciudad de méxico, cdmx",31/10/2023 18:41
9993,Paradox Santa Fe,Soriana,huggies,toallitas húmedas para bebé,51.9,paquete 80 piezas,toallas+húmedas,19.357303,-99.273539,"av sta fe 546, lomas de santa fe, contadero, cuajimalpa de morelos, 01219 ciudad de méxico, cdmx",31/10/2023 18:41
9993,Paradox Santa Fe,Soriana,bio baby,toallas húmedas,51.5,paquete 80 piezas,toallas+húmedas,19.357303,-99.273539,"av sta fe 546, lomas de santa fe, contadero, cuajimalpa de morelos, 01219 ciudad de méxico, cdmx",31/10/2023 18:41
9993,Paradox Santa Fe,Soriana,huggies,toallitas húmedas,82.5,paquete 80 piezas,toallas+húmedas,19.357303,-99.273539,"av sta fe 546, lomas de santa fe, contadero, cuajimalpa de morelos, 01219 ciudad de méxico, cdmx",31/10/2023 18:41
9993,Paradox Santa Fe,Soriana,huggies,toallitas húmedas cuidado puro,70.9,paquete 80 piezas,toallas+húmedas,19.357303,-99.273539,"av sta fe 546, lomas de santa fe, contadero, cuajimalpa de morelos, 01219 ciudad de méxico, cdmx",31/10/2023 18:41
9993,Paradox Santa Fe,Soriana,huggies,toallitas húmedas cuidado relajante lavanda,51.9,paquete 80 piezas,toallas+húmedas,19.357303,-99.273539,"av sta fe 546, lomas de santa fe, contadero, cuajimalpa de morelos, 01219 ciudad de méxico, cdmx",31/10/2023 18:41
9993,Paradox Santa Fe,Soriana,tencel,toallitas húmedas dody´s avena sábila,49.9,80 piezas,toallas+húmedas,19.357303,-99.273539,"av sta fe 546, lomas de santa fe, contadero, cuajimalpa de morelos, 01219 ciudad de méxico, cdmx",31/10/2023 18:41
9993,Paradox Santa Fe,Soriana,dody's,toallas húmedas dermo active rosa,31.9,paquete 80 piezas,toallas+húmedas,19.357303,-99.273539,"av sta fe 546, lomas de santa fe, contadero, cuajimalpa de morelos, 01219 ciudad de méxico, cdmx",31/10/2023 18:41
9993,Paradox Santa Fe,Soriana,my bebe,toallas húmedas,29.9,80 piezas,toallas+húmedas,19.357303,-99.273539,"av sta fe 546, lomas de santa fe, contadero, cuajimalpa de morelos, 01219 ciudad de méxico, cdmx",31/10/2023 18:41
4449,La Comer Tlalpan,La Comer,huggies,toallitas húmedas para bebé,59.5,paquete 80 piezas,toallas+húmedas,19.288687,-99.179181,"plazuela de la fama 1, la fama, 14410 tlalpan, mexico, ciudad de mexico",31/10/2023 18:41
4449,La Comer Tlalpan,La Comer,bio baby,toallas húmedas,49.9,paquete 80 piezas,toallas+húmedas,19.288687,-99.179181,"plazuela de la fama 1, la fama, 14410 tlalpan, mexico, ciudad de mexico",31/10/2023 18:41
4449,La Comer Tlalpan,La Comer,huggies,toallitas húmedas,79.5,paquete 80 piezas,toallas+húmedas,19.288687,-99.179181,"plazuela de la fama 1, la fama, 14410 tlalpan, mexico, ciudad de mexico",31/10/2023 18:41
4449,La Comer Tlalpan,La Comer,huggies,toallitas húmedas cuidado puro,59.5,paquete 80 piezas,toallas+húmedas,19.288687,-99.179181,"plazuela de la fama 1, la fama, 14410 tlalpan, mexico, ciudad de mexico",31/10/2023 18:41
4449,La Comer Tlalpan,La Comer,huggies,toallitas húmedas cuidado relajante lavanda,59.5,paquete 80 piezas,toallas+húmedas,19.288687,-99.179181,"plazuela de la fama 1, la fama, 14410 tlalpan, mexico, ciudad de mexico",31/10/2023 18:41
4449,La Comer Tlalpan,La Comer,palmolive,toallitas húmedas neutro balance,82.0,paquete 80 piezas,toallas+húmedas,19.288687,-99.179181,"plazuela de la fama 1, la fama, 14410 tlalpan, mexico, ciudad de mexico",31/10/2023 18:41
4449,La Comer Tlalpan,La Comer,pet's club,toallas húmedas para mascotas,46.5,bolsa 80 piezas,toallas+húmedas,19.288687,-99.179181,"plazuela de la fama 1, la fama, 14410 tlalpan, mexico, ciudad de mexico",31/10/2023 18:41
9991,La Villa,Soriana,huggies,toallitas húmedas para bebé,51.9,paquete 80 piezas,toallas+húmedas,19.465417,-99.125438,"calz de guadalupe 192, vallejo, gustavo a. madero, 07870 ciudad de méxico, cdmx",31/10/2023 18:41
9991,La Villa,Soriana,bio baby,toallas húmedas,51.5,paquete 80 piezas,toallas+húmedas,19.465417,-99.125438,"calz de guadalupe 192, vallejo, gustavo a. madero, 07870 ciudad de méxico, cdmx",31/10/2023 18:41
9991,La Villa,Soriana,huggies,toallitas húmedas,79.9,paquete 80 piezas,toallas+húmedas,19.465417,-99.125438,"calz de guadalupe 192, vallejo, gustavo a. madero, 07870 ciudad de méxico, cdmx",31/10/2023 18:41
9991,La Villa,Soriana,huggies,toallitas húmedas cuidado puro,70.9,paquete 80 piezas,toallas+húmedas,19.465417,-99.125438,"calz de guadalupe 192, vallejo, gustavo a. madero, 07870 ciudad de méxico, cdmx",31/10/2023 18:41
9991,La Villa,Soriana,tencel,toallitas húmedas dody´s avena sábila,49.9,80 piezas,toallas+húmedas,19.465417,-99.125438,"calz de guadalupe 192, vallejo, gustavo a. madero, 07870 ciudad de méxico, cdmx",31/10/2023 18:41
9991,La Villa,Soriana,palmolive,toallitas húmedas neutro balance,72.5,paquete 80 piezas,toallas+húmedas,19.465417,-99.125438,"calz de guadalupe 192, vallejo, gustavo a. madero, 07870 ciudad de méxico, cdmx",31/10/2023 18:41
9991,La Villa,Soriana,dody's,toallas húmedas dermo active rosa,32.9,paquete 80 piezas,toallas+húmedas,19.465417,-99.125438,"calz de guadalupe 192, vallejo, gustavo a. madero, 07870 ciudad de méxico, cdmx",31/10/2023 18:41
9991,La Villa,Soriana,soft dreams,toallas húmedas,35.0,80 piezas,toallas+húmedas,19.465417,-99.125438,"calz de guadalupe 192, vallejo, gustavo a. madero, 07870 ciudad de méxico, cdmx",31/10/2023 18:41
9991,La Villa,Soriana,my bebe,toallas húmedas,29.9,80 piezas,toallas+húmedas,19.465417,-99.125438,"calz de guadalupe 192, vallejo, gustavo a. madero, 07870 ciudad de méxico, cdmx",31/10/2023 18:41
